ShopID,ShopName,ShopCode,OwnerName,ContactPerson,Phone1,Phone2,Address,City,State,GPSLatitude,GPSLongitude,ShopDiscount,Trn
-L7yrq1VqHdeEMoWjfYk,Madeena Touch Catering Service,0001,,,,,,,,,,,12345678
-L7yrqKeZpQPrX3YEZ-t,Hath Bak Restaurant,0002,,,,,,,,,,,
-L7ys-RYdYvkj8BL0nzh,Towaissa Cafeteria,0003,,,,,,,,,,,
-L7ys6TuNf6rx_B5OV48,Rabua Al Madam,0004,,,,,,,,,,,
-L7ysC_3oBtwNggTgrq_,Al Jahra Classic,0005,,,,,,,,,,,
-L7ysIFUnDVlz2AmW20a,Shameem Restaurant,0006,,,,,,,,,,,
-L7ysN7apdXfMn2bIzA8,Mohammed Al Wadi,0007,,,,,,,,,,,
-L7ysSPfa_QbAC4_WAO6,Mahra Star,0008,,,,,,,,,,,
-L7ysc_xYQzAbMt1UcHl,Al Shamkha,0009,,,,,,,,,,,
-L7ysg30uh5YQQPvtyPP,Al Jahiz,0010,,,,,,,,,,,
-L7yskLB7gjdNp_BwM-z,Zenith Super market,0011,,,,,,,,,,,100235317300003
-L7yso0UOl_tb0n177-J,ONE TO ONE BAQALA,0012,,,,,,,,,,,100378926800003
-L7yssiGLn8omgMI0yxn,Shamkha Flower,0013,,,,,,,,,,,
-L7ysxdD_DT5TabH_K-m,Al Bidya,0014,,,,,,,,,,,
-L7yt-rMsRJqhxmYW99L,Bin kedda,0015,,,,,,,,,,,
-L7yt4P0MKYMPPfk4Rg2,Green Corner,0016,,,,,,,,,,,
-L7ytA4MUEvX3_0RS-cV,Noor Al Izdihar Supermarket,0017,,,,,,,,,,10,100360953200003
-L7ytWb1tG1u8IMRqVSl,New Nasrin Br-3,0018,,,,,,,,,,,
-L7yt_LImWcFdJ_sZSsw,New Nasrin Br-1,0019,,,,,,,,,,,
-L7ytdzP5kbwdkYRYVrF,Al Hubaiszy,0020,,,,,,,,,,,
-L7yth8dsM6Kk-YemPZp,Zahrath Al Falah,0021,,,,,,,,,,,
-L7ytm221vQt42LFPIOT,Al Falah Oasis,0022,,,,,,,,,,,
-L7ytrPXZEl-wv0uncvs,Khozam City,0023,,,,,,,,,,,
-L7ytvbdqhY3XtaeHw4t,Madina Al Shamkha,0024,,,,,,,,,,,
-L7ytzOB48lA7NW_eDRR,Happy House,0025,,,,,,,,,,,
-L7yu3MtFG9lbTesrY3y,Ain Al Shamkha,0026,,,,,,,,,,,
-L7yu9D0deHxzdUtfzzd,Star Of Shamha,0027,,,,,,,,,,,
-L7yuCgERwbu6pB1M3pV,Besto,0028,,,,,,,,,,,
-L7yuIwhinrm2gfGIQBt,Al Shawamikh Star,0029,,,,,,,,,,,
-L7yuMIkL0xqybpn-DBp,Dawnlight,0030,,,,,,,,,,,
-L7yuP5WSJOT5v9_mMJu,Bou Ali,0031,,,,,,,,,,,
-LIB_aoNFX2JtNbW6QLE,Al Raya Restaurant,0032,,,,,,,,,,,100319859300003
-LIGtKepMA6grOu4qx1k,Marhaba Grocery,0033,,,,,,,,,,,100319453500003
-LIGtlRhJLuHJoAD76A5,Future Oasis,0034,,,,,,,,,,,100355613900003
-LIGtzG72S4mFUm_1lCB,Jabeeb Grocery,0035,,,,,,,,,,,100389348200003
-LIGum0evshVTRh79fWj,Wadi Hafeet,0036,,,,,,,,,,,
-LIGuwXMQfQRKU6GY4mF,Al Arfeen Grocery,0037,,,,,,,,,,,100202145700003
-LIGwnqBA994u9fvs5GY,Matar Al Madeena ,0038,,,,,,,,,,15,1000098218000003
-LIGxgXZCiukc1y527Nm,Al Khifaya Grocery,0039,,,,,,,,,,,100394076200003
-LIGxxXjdELeoG_XOrzT,Mammal Dahreez,0040,,,,,,,,,,,100258586500003
-LIGyAHadkvKf2PXgyMt,Aud Al Tauba,0041,,,,,,,,,,,100058081900003
-LIGyJi92YU7WOn1RtGv,Yamam Al Ain,0042,,,,,,,,,,,100342732300003
-LIGyWeB8XYfmRtKcNj0,Ashraf Mousa Grocery,0043,,,,,,,,,,,100262008400003
-LIGye_tRtZATwhQ4RtX,Saeeda,0044,,,,,,,,,,,100343434500003
-LIGypOpgazIK56N0DBg,Reham Grocery,0045,,,,,,,,,,,100333302600003
-LIGyzN79CU7spU8Risl,Rokn Al Akder,0046,,,,,,,,,,,100301259600003
-LIGzkAAF0hvuQUBZqGT,Khorfakan Grocery,0047,,,,,,,,,,,100068269500003
-LIH5D_quGxOcPMSxUaJ,Mohammed Abdul Rahman Grocery,0048,,,,,,,,,,,100423796000003
-LIH5R3-CBXjaC-AoWII,Aysha Grocery,0049,,,,,,,,,,,100277147300003
-LIH7IrWaApuj2Muv0Jx,Nehma Store,0050,,,,,,,,,,,100258517600003
-LIH7YDRisNn2puArsAW,Mohmod,0051,,,,,,,,,,,100040818500003
-LIH82bWdsZlyfQQf8aX,Hafeet New Grocery,0052,,,,,,,,,,,1000388520800003
-LIH9ArTV5GZQFRPoeAj,Haneen Grocery,0053,,,,,,,,,,,100333806600003
-LIH9QperG0ZutZHGf-F,Saleh Fayez Al Rashid ,0054,,,,,,,,,,,100498463700003
-LIH9a3Qncs0nu9yyzF5,Shahad Al Khair,0055,,,,,,,,,,,100342942800003
-LIHF1rfbTWojwTd4Sc0,Omaniat Grocery,0056,,,,,,,,,,,100350213300003
-LIHFA-nEOyP-8hslgYG,Hamza Grocery,0057,,,,,,,,,,,100036144900003
-LIHFq5557sxgYffM7al,Al Ain Yagooth,0058,,,,,,,,,,,100038074900003
-LIHG5pw_gQFhaPBSN1Y,Khair bay hay,0059,,,,,,,,,,,100057455600003
-LIHGFRNgGD-xZdqjQdf,Amaq Al bahar,0060,,,,,,,,,,,100254238700003
-LIHGOMQIALgjMC3uxhH,Taj Al Khair,0061,,,,,,,,,,,100298168400003
-LIHG_VmRZ08mkTJadUp,Waha Al Madeena,0062,,,,,,,,,,,100352159600003
-LIHGkf5EzxwHyx4ecCB,Roudath Al Mazyad,0063,,,,,,,,,,,100360346900003
-LIHGv-U9ooJnRsdjFww,Al Taj Al Abidha,0064,,,,,,,,,,,100290259900003
-LIHH3yAT8QeZWgimoWc,Al Salalah Trading,0065,,,,,,,,,,10,100057446500003
-LIHHE9vQ5EPKp5ufIk0,Tafadal Foodstuff,0066,,,,,,,,,,,100287296600003
-LIHHOaSBD_NyIm63ZNk,Rigga Grocery,0067,,,,,,,,,,,100070144900003
-LIHH_arBiekho85QYhC,Al Shukr Grocery,0068,,,,,,,,,,,100359666300003
-LIHHhQ-MaF7cKER8fgV,Golden Pearl grocery,0069,,,,,,,,,,,100327878300003
-LIKLba_n5oDSraYnTzW,Al Warda Al Baida ,0070,,,,,,,,,,,100331497600003
-LIKLtwduPZ_HJA0gPy9,Al Mohandis Grocery,0071,,,,,,,,,,,100342983200003
-LIKM2ZuENcdTDEIp07T,Al Marwa Supermarket,0072,,,,,,,,,,,1000360387300003
-LIKMFgb-cBQNobqvZRd,Badiat Al Raee,0074,,,,,,,,,,,100360387300003
-LIKMYGkpKfQit37y4si,Nafeetha Grocery,0073,,,,,,,,,,,100218276200003
-LIKMjrBMZgQh7wIdJgF,Al Daher Star Restaurant,0075,,,,,,,,,,,100397481100003
-LIKMqdLgBMpCixjr-aN,Masafi Grocery,0076,,,,,,,,,,,100343919500003
-LIKN0TBT810-yG8e-NT,Safeenat Al Sahra,0077,,,,,,,,,,,100029002100003
-LIKN7P8FwYdlTcT4IWF,Zahrath Al mazyad,0078,,,,,,,,,,,100343647200003
-LIKNGDOtQqK8yXII0a5,Wadi Noor Supermarket,0079,,,,,,,,,,,100298168400003
-LIKNUiWihOyZI00TNH0,Wadi Mezyad Grocery,0080,,,,,,,,,,,100339088500003
-LIKNg6b89eU3pVM_CEn,Marfa Grocery,0081,,,,,,,,,,,10033720400003
-LIKNoIwKUxgLrjyN9-8,Al Mouda Grocery,0082,,,,,,,,,,,100394776700003
-LIKO-bSGBdbSE7P_yCJ,Al Mawedha Grocery,0083,,,,,,,,,,,100396826800003
-LIKOJno3_eO37rkcTRh,Shabab Al Ain Foodstuff,0084,,,,,,,,,,,100386577900003
-LIKOU4IiLUKhnRW7qfC,Hussain Grocery,0085,,,,,,,,,,,100255929000003
-LIKOc8oEQvLPgsdJ6hs,Sadaq Grocery,0086,,,,,,,,,,,100045616000003
-LIKOphZoaC0eBgVBjZl,Coral City,0087,,,,,,,,,,,100239951500003
-LIKP36Sdqe5Ug2SQWxe,Al Naser,0088,,,,,,,,,,,100240586600003
-LJdSCUuTGNR3Oeq8REy,ATLAS Cafteria,3,,,,,,,,,,,100244821300003
-LJdSefe7xaocLAjrNEu,Abu hamdan cafteria,88,,,,,,,,,,,100063494700003
-LJdSnZgVoYBmwuiKpd2,al ain al kadara resturant,89,,,,,,,,,,,100354548800003
-LJdSsyBoHFytqoBXMzA,Cash Costomer,90,,,,,,,,,,,non
-LMkce1poIkMtqs0XeFB,THE TRUST BAQALA,0001,,,,,,,,,,,10036053500003
-LMkdJaRnViL4D6UrfGV,RIMAL AL SANAIYA BAQALA,0003,,,,,,,,,,,100605981800003
-LMkdZrFxCzNtJPmxUV9,MEHNAS RAHMAN BAQALA,0003,,,,,,,,,,,100058390400003
-LMkdvUpltu2gCvJch6z,AHAMMED ALI RESTAURANT ,0004,,,,,,,,,,,100049346800003
-LMkfGumrdo7FC9ROGAU,NOOR AL KARAMA BAQALA,0005,,,,,,,,,,,100325441200003
-LMkfNvhXjaVH8TnxDTE,MANAHAL BAQALA,0006,,,,,,,,,,,100039644800003
-LMkfV96Zw7Qesd7Y7Lj,REEF AL MUZAN BAQALA,0007,,,,,,,,,,,100238330300003
-LMkfc9W6bcDjVemOmOX,ALI SALEM CAFTERIA,0008,,,,,,,,,,,
-LMkfjsRQ8PxBhr4lCXq,MODERN BAQALA,0009,,,,,,,,,,,100346209800003
-LMkfu_1CkBZyjrgELE6,AL ROKN AL THAHABI BAQALA,0010,,,,,,,Abu Dhabi,,,,100383321500003
-LMkg5bArcWKSgdumTyY,MASHAREF AL DEYAR BAQALA,0011,,,,,,,,,,,100024565200003
-LMkgDazc1UKQElsKR3N,AL RABIYA CAFTERIA,0012,,,,,,,,,,,100399486800003
-LMkgT-ysexiGQD7BSms,NAJOOM AL LAIL BAQALA,0013,,,,,,,,,,,104136103900003
-LMkgalqgKzoFuDKG-aD,ORO RESTAURANT ,0014,,,,,,,,,,,
-LMkgnLUd6hOmFf4E_WN,JABAL AL TALJ BAQALA,0015,,,,,,,,,,,100330836600003
-LMkjgV1XypJVj0iTq_I,SAIF AL ISLAM BAQALA,0016,,,,,,,,,,,100207338300003
-LMkjth7YMb5FeIitvGm,MUKKARRMAH SUPER MARKET,0017,,,,,,,,,,,100391399100003
-LMkk2Mhy3FIo-z_D5Ex,KHALIFA SULAIMAN BAQALA,0018,,,,,,,,,,,100004468300003
-LMkkFzeVbPNSZ7gDdu7,AL ZAMANAL GAMIL BAQALA,0019,,,,,,,,,,,100378023400003
-LMkkWvETKCqRfGhnHnH,KARAK AL KAIFEK CAFTERIA,0020,,,,,,,,,,,
-LMkkubjSOvlHmAuWGH4,AL MINAR BAQALA,0021,,,,,,,,,,,100322683200003
-LMkl3Jnlb5El-VzmhCv,CASH COUSTOMER,0022,,,,,,,,,,,
-LMklDFWVT0RxO2Zhieb,ATHAR AL HILLI BAQALA,0023,,,,,,,,,,,100298168400003
-LMklvvVBIuGgbxnNaF_,AL FAJIR HYPER MARKET,0024,,,,,,,,,,,100314511500003
-LMkm5LO6hVEv3VlYIsD,AL JABEEB BAQALA,0025,,,,,,,,,,,100389348200003
-LMkmFQHOr0_r8h1kccs,REMAL AL BADAA CAFTERIA,0026,,,,,,,,,,,
-LMkmTj4rbLXltRT1DXv,SYRIYA BAQALA,0027,,,,,,,,,,,100324658200003
-LMkme7kPhrio8S7vHNf,NAJEM MUBARAK SUPER MARKET,0028,,,,,,,,,,10,100334409900003
-LMkmm2VjwwHhH0dbVO5,WASAYA CAFTERIA,0029,,,,,,,,,,,
-LMkmui3MWW4yWcORO4m,WADI QAMAR CAFTERIA,0030,,,,,,,,,,,100066710300003
-LMkn2Ln4WTqdXa5sNIh,MOHAMMED RABIYA BAQALA,0031,,,,,,,,,,,100271879700003
-LMknJZXN_DUycrI_Rj5,SHEEN AL SAHRA CAFTERIA,0032,,,,,,,,,,,100242392700003
-LMko4vYZHEpxp5NVBZ1,AL SHUMOOKH CAFTERIA,0033,,,,,,,,,,,
-LMkoBqbgl-Exf2FdNHJ,LOTUS STAR GIFTS,0034,,,,,,,,,,10,
-LMkoLHC8Bl9UbmgFeP5,LULU SAHARA BAQALA,0035,,,,,,,,,,,100356639300003
-LMkp0-yLk5mrQU4gxz9,AL MAKAM HUT CAFTERIA,0036,,,,,,,,,,,100268693700003
-LMkp6aCGgHT9G106hS_,SAEED HILAL BAQALA,0037,,,,,,,,,,,
-LMkpFvKRzyeSA0TJZFw,AL MUBARAK HYPER MARKET,0038,,,,,,,,,,10,100355558600003
-LNH9NE1rJRDNb9oN7ic,test,9999,,,,,,,,,,,999
-LNYmZ6KNLI_oxqbk9NR,SUJAHA,58,,,,,,,,,,,100269527600003
-LNYmZS9rzc4ijZCiho9,RIHANA AL QUA GROCERY,16,,,,,,,,,,,100357649100003
-LNYmfF5B_ZGtDR-3gtN,NAMOOR GROCERY,59,,,,,,,,,,,100365360500003
-LNYmneRqJw_vspWifri,AL QUA SUPER MARKET,1,,,,,,,,,,,100341995700003
-LNYn07hPoZ_Pehn5o65,DANATH AL QUA SUPER MARKET,2,,,,,,,,,,,100335454300003
-LNYnDgskYaC18pNz59a,RIHANA AL KHALEEJ GROCERY,3,,,,,,,,,,,100372270700003
-LNYnL420rMuSwO3LcX-,NOOR AL GARIYA GROCERY,4,,,,,,,,,,,100371431600003
-LNYnT4V7QHwQogFlPDK,ABU HABIB SUPER MARKET,5,,,,,,,,,,,100344870900003
-LNYnaoqbC2QrQYbn__l,MUBARAKH SUPER MARKET,6,,,,,,,,,,,100355558600003
-LNYnilPYK_86g-fPf6S,RIFAT GROCERY,7,,,,,,,,,,,100014317000003
-LNYoZbMqgIeyznfN0wv,AL MANSURI GROCERY,8,,,,,,,,,,,100257736700003
-LNYomnJYwmD0an2lmQv,MANSURI AL MANSURI GROCERY,9,,,,,,,,,,,100232932000003
-LNYostbfdbRmCcIgHOR,AL SAIF SUPER MARKET,10,,,,,,,,,,,100396553800003
-LNYp0r2Aqo_Gy02-EHs,RIHANATH AL AIN GROCERY,11,,,,,,,,,,,100376681100003
-LNYpBWO6G-q_lfZORNu,DAR AL QUA GROCERY,12,,,,,,,,,,,100358304200003
-LNYpMg5lew2YcxKgsUh,GLUF FLOWER BAQALA,13,,,,,,,,,,,100377912900003
-LNYpUGUvSwhE5oLO0yF,RIHANA AL AIN BRANCH,14,,,,,,,,,,,100376681100003
-LNYqSoX_xwXjOCk4UvJ,SEKATH AL KHAIR GROCERY,15,,,,,,,,,,,100037998000003
-LNa9bSxKD5W5AAWX3q2,BAB AL FARAJ ,17,,,,,,,,,,,100369745300003
-LNa9k9H49iXkNqr8h_x,SHAREEF SUPER MARKET,18,,,,,,,,,,,100389306000003
-LNdAR9UCsE1r_-5BawJ,MUBARAK SUPER MARKET BRANCH,19,,,,,,,,,,,100355558600003
-LNdApWEwhz1pTvYWQxF,AL SAHWA GROCERY,20,,,,,,,,,,,100264037100003
-LNdAycMJCr-11JcvJSa,WAHAT AL MINAR GROCERY,21,,,,,,,,,,,100369109200003
-LNdB9X5TM_4DHsA6SYR,NAMOUR SUPER MARKET,22,,,,,,,,,,,100388361600003
-LNdBHwEzzJ_L_54V2_X,WADI FLOUR MILL,23,,,,,,,,,,,100057090100003
-LNdBPeR2EgSt-NFh2kv,BIN ALWAN SUPER MARKET,24,,,,,,,,,,,100005571300003
-LNdBZykpWy0IH9t9_dI,SAHAMAL AL QUA GROCERY,25,,,,,,,,,,,100342986500003
-LNdBhXnvrIobLQp419g,WAHAT AL MAS SUPER MARKET,26,,,,,,,,,,,100376754600003
-LNdBv8y926wTNiFyd06,PEARAL DIAMOND SUPER MARKET,27,,,,,,,,,,,100298168400003
-LNdCDdQJm3yQhWntkJ5,AHL AL KHAIR AL SHABI RESTURANT,28,,,,,,,,,,,10026919600003
-LNdCLdc_BsrSRGs_rD0,REHAB AL QUA GROCERY,29,,,,,,,,,,,100361483900003
-LNdCSgeuOuyIxYxxpvv,TAJ AL WAGAN GROCERY,30,,,,,,,,,,,100037649900003
-LNdCZC72aHwTw9zPKdI,AL SOUGHA FLOUR MILL,31,,,,,,,,,,,100366170700003
-LNdCgSPqTo9o2-S7RK3,AL QAWARER GROCERY,32,,,,,,,,,,,100053963300003
-LNdCoyk4IaAOYab8EQ7,TAJ AL MADINA GROCERY,33,,,,,,,,,,,100059959000003
-LNdCw5sli992b1Rc5qa,AL SAHARE GROCERY,34,,,,,,,,,,,100353208000003
-LNdD32QafaKL1B0bkus,ROB AL WATAN GROCERY,35,,,,,,,,,,,100338124900003
-LNdDbmotrOjbcDYTUoF,AL WANIC GROCERY,36,,,,,,,,,,,100048267700003
-LNdDjKhLuJzBFshTm8D,SHOWAREB GROCERY,37,,,,,,,,,,,100232456200003
-LNdDxVj3znzEHSeAsrS,HAMAD MUHAMMED MUHANNA STORE,38,,,,,,,,,,,100325245700003
-LNdE45E_75KHZ4LrJaR,SHABAB AL WAGAN GROCERY,39,,,,,,,,,,,100357695400003
-LNdED2fCiqBONH6AgfV,MASFOOT GROCERY,40,,,,,,,,,,,100051972600003
-LNdEK8O2wdN528ympRF,BIN IBRAHIM GROCERY,41,,,,,,,,,,,100049940800003
-LNdEQtv44pJas1tSTqG,NOOR AL WAGAN GROCERY,42,,,,,,,,,,,100385751100003
-LNdEZjPdTtgtf2u1D3h,AL HASHEED GROCERY,43,,,,,,,,,,,100317436200003
-LNdEg6wvQm30Mzlr9IE,MUKAFAHA SUPER MARKET,44,,,,,,,,,,,100324436300003
-LNdErqmtlLGAlCYv8Cs,BIN HAMROON GROCERY,45,,,,,,,,,,,100365916400003
-LNdF4NH99ic7vE1h0Ni,QAMAR AL SAHARA GROCERY,46,,,,,,,,,,,100343101000003
-LNdFB5nYyPiPTOZly0r,AL AROOBA GROCERY,47,,,,,,,,,,,100368303200003
-LNdFOiOZUiQJlL2YWC1,AL NAJOOM GROCERY,48,,,,,,,,,,,100343516900003
-LNdFX7Cp4_6BnBb1pIC,AL FARASAN GROCERY,49,,,,,,,,,,,100329929200003
-LNdFc7YDGcRjgBvZHJp,LAQMAT GROCERY,50,,,,,,,,,,,100028701900003
-LNdFiCEZ1NELFzgmAn6,HAMEED FOOD STUFF,51,,,,,,,,,,,100334777800003
-LNdFtuxw3lN37gjicQL,TAWASH GROCERY,52,,,,,,,,,,,100034054500003
-LNdGObxp3G8Ke0Wqvpk,AL MAMORA GROCERY,53,,,,,,,,,,,100200641700003
-LNdGj3JWJuo1UZSikWm,AL MAAMOON RESTAURANT ,54,,,,,,,,,,,100030464000003
-LNdGqZwunEv0rHDw26O,SAGER MATHAR GROCERY,55,,,,,,,,,,,100382521100003
-LNdHFiF_hVJTuQth55W,UM ALHQSH,56,,,,,,,,,,,1003833483300003
-LNdH_ZaP0o-r1kb5A_B,RESH FRESH CAFTERIA,57,,,,,,,,,,,100227577200003
-LNedBisY5nsbjWaUudq,MUHAMMED SALIM SUPER MARKET,39,,,,,,,,,,,100260287600003
-LNedJ_UboT4Q0j0tYmR,FUTURE LAND GROCERY,40,,,,,,,,,,,
-LNedRjjPLoZ6BYLYo9w,HILAL AHAMMED CAFTERIA,41,,,,,,,,,,,100210339600003
-LNedYhiV7R3TCQwcJPv,PRAIME GROCERY,42,,,,,,,,,,,
-LNedkLU_KIXzouYpfuP,ABUBAKER GROCERY,43,,,,,,,,,,,100227205000003
-LNedy4EdJDk5NK7txdY,MOHAMMED HUSAIN CAFTERIA,44,,,,,,,,,,,
-LNeeBQTuf7XzQ4r5mYD,SANAYYA RESTAURANT ,45,,,,,,,,,,,100272514900003
-LNefkbIJG-HyRZaisQj,AL ANDALUS GROCERY,46,,,,,,,,,,,100043730900003
-LNefw1fncRKbfLv5UyY,AL ANWAR AL MOTHEA GROCERY,47,,,,,,,,,,,100328373400003
-LNeg1eR6tUwPOYUA7ty,HABIBA GROCERY,48,,,,,,,,,,,100332698800003
-LNegAxxd1HzBi_RDB_n,SHABAB AL AROOBA GROCERY,49,,,,,,,,,,,100237381700003
-LNegJAciswDCIUUobKd,MECCA RESTAURANT ,50,,,,,,,,,,,100330679000003
-LNegRvXaMQzGZf8eWiY,AL FATAH RESTAURANT ,51,,,,,,,,,,,100037547500003
-LNeggQB0cDw8zGIZ4yg,THO AL HALIFA GROCERY,52,,,,,,,,,,,100298168400003
-LNegovyC3S9dM3PNX9U,ABDUL AFEEF IBRAHIM BAQALA,53,,,,,,,,,,,100393602600003
-LNeh4KT2qxInmZKFPR8,AL HEZAM AL AKHDHAR GROCERY,54,,,,,,,,,,,100041803600003
-LNehCuz7sx-EbD9O86H,AL ONFUWAN BAQALA,55,,,,,,,,,,,100361962200003
-LNeh_GaQB0b3p0lGG9G,AL AHEEBA BAQALA,56,,,,,,,,,,,100230981100003
-LNehjYmdvGHKaWMt1Y7,ASHARAJ BAQALA,57,,,,,,,,,,,100395140500003
-LNjpsnWhhxyI5JpEOod,QAMAR AL WAGAN CAFTERIA,58,,,,,,,,,,,100343566400003
-LNjq2k89YAHPBsVG2Vm,NASAYAM SUPER MARKET,59,,,,,,,,,,,100273845600003
-LNjqB2uVOM-mgL3eVZ9,SEA BIRD SUPER MARKET,60,,,,,,,,,,,100342710900003
-LNo44fkjoIpHjYmpUn7,NEW AL AIN GROCERY,1,,,,,,,,,,,100391112800003
-LNo4EvHZ1y_-N0GikZq,AL AZHAAR RESTAURANT ,2,,,,,,,,,,,100396032300003
-LNo4NBaf1mJ12XLMSEa,PAKISTAN VALLEY RESTAURANT ,3,,,,,,,,,,,100359313200003
-LNo4a1hcbePvaQWHCOE,SALEM MOHAMMED AL FARESI CEFTERIA,4,,,,,,,,,,,100203273600003
-LNo4iYWD7P0G3nmWqIX,DREAM TEA COFEE SHOP,5,,,,,,,,,,,100257773000003
-LNo4sR5Gz40caGHW7YT,FAB MART SUPERMARKET,6,,,,,,,,,,,100320019100003
-LNo4za3BdviPEiZ3Z9r,SALEM GROCERY,7,,,,,,,,,,,100386805400003
-LNo56XCUTs2cP8Ok6P6,ASHRA GROCERY,8,,,,,,,,,,,100322454800003
-LNo5SpHoli55wc8yepy,HASINA NEW GROCERY,9,,,,,,,,,,,100031645300003
-LNo5a2IgBQVJKny_7v0,SAEED MOHD SALEH RESTAURANT ,10,,,,,,,,,,,100073234800003
-LNo5l7ViUlXv3NTnQDS,KARAK ZAKHER CAFETERIA ,11,,,,,,,,,,,100356222800003
-LNo5wpYuTRRFqdfvah3,AL SOHAIB GROCERY ,12,,,,,,,,,,,100339871400003
-LNo63TZMT_cxvYFb73s,WADI SHARM GROCERY,13,,,,,,,,,,,100326108600003
-LNo6CoRcBRR7FzdHQFi,SILVER CLASSICA SUPER MARKET ,14,,,,,,,,,,,100317329900003
-LNo6JEm1-QGbfWuOp29,NAKEEL GROCERY ,15,,,,,,,,,,,100324131000003
-LNo6Su3w2hsrYjQ3BXT,SAHIL AL KARAK CAFETERIA ,16,,,,,,,,,,,100380413300003
-LNovANwA3ZnbogDm3VQ,AL MUBARAK HYPER MARKET,19,,,,,,,,,,10,100355558600003
-LNovNB0nQjvolkQSk64,DHAR AL MANDI,20,,,,,,,,,,,100394646200003
-LNovY-qZ63HFX5xJVkO,NAJEM MUBARAK SUPER MARKET LLC,21,,,,,,,,,,10,100334499900003
-LNovmFTUmQ-nStIMw7u,ABU NAYEF GROCERY,22,,,,,,,,,,,100072594300003
-LNow6LdDT4XshBRwLF1,MARHABA GROCERY BR.,23,,,,,,,,,,,100319453500003
-LNowDK3Kw3NlH1xqlfv,SIRAJ RESTAURANT ,24,,,,,,,,,,,100324798600003
-LNowftvH_xQZ8qNaecy,AHMED MUSABEH SUPERMARKET ,25,,,,,,,,,,,100369907900003
-LNoxIJnYcBhK0Gu9MVa,HAMZA MOHIYDDEEN SUPERMARKET BR.,26,,,,,,,,,,,100342881800003
-LNoxTKw5y4mJLEPWbdm,AL FATHAH RESTAURANT ,27,,,,,,,,,,,100332120300003
-LNox_E_jzKMErW80W1W,WADI AL HUDA GROCERY,28,,,,,,,,,,,100566284400003
-LNoxiAMH4XiBuBX1nJZ,FAIRUZ GROCERY,29,,,,,,,,,,,100399286200003
-LNoxylyYh-ul4MJB1Q5,SALEM MOHAMMED AL FARESI CEFTERIA- BR.,30,,,,,,,,,,,100203003700003
-LNoyD_N8x324i3_iXnF,HASEENA GROCERY,31,,,,,,,,,,,100237583800003
-LNoyMUoOqboML2fMf1g,CHAR MINAR RESTAURANT ,32,,,,,,,,,,,100060355300003
-LNoyjo-Xhbbp_pq1eqD,TIP TOP SUPERMARKET ,33,,,,,,,,,,,10025767800003
-LNozpB0fzNhHKeAwmkv,BLUE BERRY GROCERY ,34,,,,,,,,,,,100236691000003
-LNozzVBKZzAb1KitdIy,GULF CO- OPERATION SUPERMARKET,35,,,,,,,,,,,100357813300003
-LNp-74l3LG3Xumwn-kO,RITHA SUPERMARKET ,36,,,,,,,,,,,100390296000003
-LNp-FecbWVUEu4UeeeO,AL EBTSAMA SUPER MARKET SOLEPROPRIETORSHIP LLC,37,,,,,,,,,,,
-LNp-ODNSIkKey_LyZ2A,AHMED ABDULLA AL KAABI RESTAURANT ,38,,,,,,,,,,,
-LNp-gotYAdR95CpH5fK,NASEEM AL SANAYYA GROCERY,39,,,,,,,,,,,100388220400003
-LNp04d-Y0INwWD_eCKZ,BAHR AL ARAB RESTAURANT ,40,,,,,,,,,,,100356630200003
-LNp0On-IKK6gvmJ8gpl,HAMLY FOODSTUFF EST.,41,,,,,,,,,,,100257726800003
-LNp0Y1KfQOxmuHAKfZl,MARFAH SUPERMARKET ,42,,,,,,,,,,,100384976500003
-LNp0nITY5XDeXdlqsYc,ZAMAN AL AWASAL RESTAURANT ,43,,,,,,,,,,,100238473100003
-LNp0to7v_1CWgV2xDf4,ALI OBAID GROCERY ,44,,,,,,,,,,,100388498600003
-LNp12EUs4NzdSYz_kwD,AL AIN AL FAYDAH GROCERY ,45,,,,,,,,,,,100029132600003
-LNp1H8MVtPUNAuptUly,SEHR AL MADINA GROCERY ,46,,,,,,,,,,,100046330500003
-LNp1NoSTfFuIhIxHjQL,SERA GROCERY -L.L.C-OPC,47,,,,,,,,,,,
-LNp1W5BNcCAkZk2HGLt,REHANA STORES,48,,,,,,,,,,,100040842500003
-LNp1cNnl_4hxebu2JF_,NUAIMIYA GROCERY ,49,,,,,,,,,,,100329084600003
-LNp1v6N9P1FeIqU2Yss,NEMAT AL KHAIR GROCERY ,50,,,,,,,,,,,100358371100003
-LNpOI83MrnaJ-UY5RPJ,GEEKO CAMP,17,,,,,,,,,,,
-LNpObAGRlk70JZTpQmU,SEA BIRD SUPER MARKET (CAMP),18,,,,,,,,,,5,100342710900003
-LNpQqKzb-Ze-0dJboXY,BILADI GROCERY,52,,,,,,,,,,,
-LOT4dMqzq3jjUWRusdp,MAHA MOODH CAFTERIA,065,,,,,,,,,,,100040818500003
-LOT4ueDt1NIrYeMWij2,KHULOOD CAFTERIA,066,,,,,,,,,,,100208927200003
-LOT50V6PfKtXH3ULvwS,LANKAS GROCERY,66,,,,,,,,,,,100342996400003
-LR0sQjVjFkR-KUBL-Oi,TOWN SQUARE SUPERMARKET,070,,,,,,,,,,10 ,
-LR0sbcdgoreC-prvqep,HAMZA MOHIYUDHEEN SUPERMARKET,71,,,,,,,,,,10 ,100249994300003
-LR0t1B-Fz1gRG_5l8A_,SALALHA SUPERMARKET,72,,,,,,,,,,,
-LS3Z29Ar_R7kqxje1GK,WADI AL KHAIR RESTAURANT ,1,,,,,,,,,,,100566284400003
-LS3ZNPlmekIJQfCoUKi,AL BARJ BAQALA,2,,,,,,,,,,,100216370500003
-LS3_DATVMkhDS3tOOha,PAKTIA SUPERMARKET,3,,,,,,,,,,,100586080200003
-LS3_U1Usx0z2duiOrbE,AL RABIA BAQALA,4,,,,,,,,,,,100605373800003
-LS3_c90W20vVGqqHau5,ABDUL AZIZ RESTAURANT ,5,,,,,,,,,,,100248963900003
-LS3_lS9Kf0hMlDAN7at,MOHAMMED HANIFA BAQALA,6,,,,,,,,,,,100339716100003
-LS3_vXHEXIXBQYQWhWc,AL BUSTAN SUPERMARKET,7,,,,,,,,,,,100335549000003
-LS3a162Wi6BQ2cn-GsX,GREEN SPOON RESTAURANT ,8,,,,,,,,,,,
-LS3a6S2Ih47Xy8PMjCp,BUSTAN AL AIN BAQALA,9,,,,,,,,,,,
-LS3aDtUHPirgXHfaEhE,PHONIX BAQALA,10,,,,,,,,,,,100287030900003
-LS3aJ29dy5GCEuE9NGN,MARBAH CAFTERIA,11,,,,,,,,,,,
-LS3aRlWPZ5xq5imwSoU,AL AJAYEB BAQALA,12,,,,,,,,,,,100388517300003
-LS3aZW_7UDcq_81QvRx,AL MEEZAN BAQALA,13,,,,,,,,,,,100356266500003
-LS3afc-WZtp9H_cWd8A,ALI SALEM BAQALA,14,,,,,,,,,,,100317637500003
-LS3aoxRkOEr9mCupSo3,AL GHAZAL SUPERMARKET,15,,,,,,,,,,,100034514800003
-LTmW_7Cm7tLysgyxX29,NASER MUFTAH BAQALA,16,,,,,,,,,,,100600446700003
-LTmWkrHLOheODe--sNL,HAMIDIYA SUPERMARKET,17,,,,,,,,,,,100273295400003
-LTmX4oqCcFS5-sez-9X,AL BEIT BAQALA,18,,,,,,,,,,,100037740600003
-LTmXAVpQHhmbazoDBkK,SALWA BAQALA,19,,,,,,,,,,,100384432900003
-LTmXJ5QdYuvNJzLHsb5,REHAB AL ZAMEEN BAQALA,20,,,,,,,,,,,100273175800003
-LTmXR9N9xqsoRs6JKme,KARAK RESTAURANT ,21,,,,,,,,,,,
-LTmYDMWSZ_9vTOI_aQU,NASEEM AL BAR BAQALA,22,,,,,,,,,,,100200596300003
-LTmYPviEScceV5x7Sql,BARKET RESTAURANT ,24,,,,,,,,,,,
-LTmYYrEx6jKXow-FtZn,BAB AL HADH BAQALA,25,,,,,,,,,,,100056193400003
-LTmYeK3qEk8nd77o0Co,AMIR HOUSIN RESTAURANT ,26,,,,,,,,,,,
-LTmYw11EEFwJOFTpKwm,AL RAYAN BAQALA,27,,,,,,,,,,,100276715800003
-LTmZ2ya0dJG3s6VdRqM,RUKUN NOJOOM BAQALA,28,,,,,,,,,,,100426941900003
-LTmZEnE6x7NP8iJFBId,AL SANAIYA FLOWER BAQALA,29,,,,,,,,,,,100292292800003
-LTmZQMB4Hnu_r8yK4Ug,BEST FRESH RESTAURANT ,30,,,,,,,,,,,100550990400003
-LTpcmYE8CnQXo0GSpVZ,ALAM SUPER MARKET,31,,,,,,,,,,,100274533700003
-LTpcuiajvr0qkTxx5FL,JASHIMUDDIN SUPERMARKET,32,,,,,,,,,,,100254509100003
-LTpdBEujOFFEau__YnV,REFAH GIFT MARKET,33,,,,,,,,,,,100245085400003
-LTpeHqEk689OmvN2b51,MUBARAK SULTAN BAQALA,34,,,,,,,,,,,100323204600003
-LTpfXiTNgrIsf7pkrdy,AL AIN GIFT MARKET,35,,,,,,,,,,,
-LTpfgH7NZtY1nFYigTb,AL DAHR RESTAURANT ,36,,,,,,,,,,,100226676300003
-LTpg0gAPsK1kmW1qNiX,MAGIC TASTE RESTAURANT ,37,,,,,,,,,,,
-LTpg8gVQPXNoFC88UuX,GREEN HILL RESTAURANT ,38,,,,,,,,,,,100332767100003
-LTpg_gJKTMlIh3_roXO,AL SUNDUS BAQALA,39,,,,,,,,,,,100057096800003
-LTpgvHVMxGW-MJNwZut,NOOR AL AHALAM BAQALA,40,,,,,,,,,,,100238457400003
-LTpj6gu11KsbYo14UT3,HALAL AHAMED S/M,41,,,,,,,,,,,100038291900003
-LTpjK-WhzKYRchvepJo,MABROOK NEW BAQALA,42,,,,,,,,,,,100391380100003
-LTpk5bD4e7I1eE_dB60,AALA RESTAURANT ,43,,,,,,,,,,,100363361500003
-LTpmfkeCsQ5sMvxbXp0,AL BASHEEQ RESTAURANT ,44,,,,,,,,,,,100391106000003
-LTpnVsY8nyq3vRIIdx1,NASEEM RABEE BAQALA,45,,,,,,,,,,,100356146900003
-LTpnbrwuNJ-RTcdRTU9,IDRIS YOUNUS BAQALA,46,,,,,,,,,,,100397987700003
-LTpnpGkRlcgkvHq_n3e,AL FAEDH BAQALA,47,,,,,,,,,,,10021521200003
-LTpnzlwcrKnGkyrFIAH,SALAM AL SHAMSI CAFTERIA,48,,,,,,,,,,,
-LTpqZ_L7OZXgf41tXwf,AL SHAJARAT BAQALA,49,,,,,,,,,,,100211287600003
-LTpqfT0PzzT9omKUm_B,HABIB BAQALA,50,,,,,,,,,,,100065717900003
-LTpr3oanOQL2UMaAR5g,WARD AL RESTAURANT ,51,,,,,,,,,,,
-LTprD6C7xLxmpkU4iiw,MOHAMMOD BOKTIAR BAQALA,52,,,,,,,,,,,100388419200003
-LTprJOjtvvD0GN1-zIJ,LEGEND FOODSTUFF RESTAURANT ,53,,,,,,,,,,,
-LTprV3RNTCRW5HLab0B,WARDA AL BUSTAN RESTAURANT ,54,,,,,,,,,,,100046358600003
-LTprfyiQNvDS4dEruUr,BOROJ AL KHALIJ BAQALA,55,,,,,,,,,,,100390765400003
-LTprkFURfSLVJc2d6Lf,AL AMEERA RESTAURANT ,56,,,,,,,,,,,
-LTprsXe61a3H4An1Usr,MAGIC STAR BAQALA,57,,,,,,,,,,,100242124400003
-LTps-y8oVERm0mSewx2,AL WASHEB RESTAURANT ,58,,,,,,,,,,,100260021900003
-LVcZUYIxt9Fxg0W7yY0,BARADEES GROCERY,98,,,,,,,,,,,100487175000003
-LWKPIqGi6A_F4iKxZr0,USMAN YOUNUS BAQALA,59,,,,,,,,,,,100287457400003
-LWKPPlypysYXoqnhVdF,AL NAHDHA CAFTERIA,60,,,,,,,,,,,100209894300003
-LWKPZt9HKvkkobP7t-1,SANAIYA FLOWER RESTAURANT ,61,,,,,,,,,,,
-LWKPf2lqF5i01ddnyCB,AL SAHAL BAQALA,62,,,,,,,,,,,100337911000003
-LWKPyOX4tWcKHm43l7_,AL ASHJAN BAQALA,63,,,,,,,,,,,100257314300003
-LWKQTYtQZPNZtCs4qhR,USTAD RESTAURANT,64,,,,,,,,,,,
-LWKQ_YlGiFhFPwdG32j,AL NEIROOZ BAQALA,65,,,,,,,,,,,100395282500003
-LWKQhzeUQHBsBSsC5y5,ABU TOIYOB CAFTERIA ,66,,,,,,,,,,,
-LWKQm6XfGsn_XihV_U-,QAMAR RESTAURANT,67,,,,,,,,,,,
-LW_CxluNEDGLk_ar5LM,SHANGAW BAQALA,68,,,,,,,,,,,100253758500003
-LW_D4mVF-LSgtAlxtvx,AL EHSAN RESTAURANT  ,69,,,,,,,,,,,
-LW_DBHnFnQm76BfkZ3p,AL BARSHA CAFTERIA,70,,,,,,,,,,,100344792500003
-LW_DK5hmcNCxz22vvSN,AL JOORI BAQALA,71,,,,,,,,,,,100025210400003
-LW_DSkcy-tC5m98geCD,AL AIN PEARL BAQALA,72,,,,,,,,,,,100294810500003
-LW_DZyhx8J86mAAe_RX,KHALEED CAFTERIA,73,,,,,,,,,,,100228049100003
-LW_Ddi1QxPvydhJnr9v,AL MADAM RESTAURANT  ,74,,,,,,,,,,,
-LW_DyYOX00BBO9GhqAX,AL DAR BAQALA,75,,,,,,,,,,,100285785000003
-LW_EEdfap5ZCieJIgQS,AL ARDH BAQALA,76,,,,,,,,,,,100214102400003
-LW_EfCfTq_cOKeFn2zI,ALI KANEEN RESTAURANT  ,77,,,,,,,,,,,
-LW_EihOQUd3OXaN_Urq,SWATT RESTAURANT  ,78,,,,,,,,,,,
-LW_Eq9uFiL6ROYIMlCA,CHIATTAGONG RESTAURANT  ,79,,,,,,,,,,,
-LW_F5t5XqSYWL-ulp0R,AL FALAJA RESTAURANT  ,80,,,,,,,,,,,100205629700003
-LW_FCUyBsoqwyUt1aGp,SAFARI BAQALA,81,,,,,,,,,,,100334437900003
-LW_Fju-L3XyuC3AYBHP,DELICIOUS MEALS RESTAURANT  ,82,,,,,,,,,,,10068083300003
-LW_G7QVkQOQSe8nrJjP,SANDWIP RESTAURANT  ,83,,,,,,,,,,,100031660200003
-LW_GRMNDG9-rdaGWRlg,SHARA AL AIN BAQALA,84,,,,,,,,,,,100238648800003
-LW_GZgtjDcELLiB5SX1,JABAL RESTAURANT  ,85,,,,,,,,,,,100238349300003
-LW_ImeDCFRLL_qe3XMh,AL BAIT RESTAURANT  ,86,,,,,,,,,,,100542845100003
-LW_It_t9AHVkYhndgwI,MARAFIA CAFTERIA,87,,,,,,,,,,,10050709300003
-LW_Jf_ATLRkRMOK2Xp8,GOLDEN DESART RESTAURANT  ,88,,,,,,,,,,,
-LWeMCtg4GCLX16vNh6C,PAPAYA BAQALA,1,,,,,,,,,,,100284449400003
-LWeMJHEGbtbWM8uWuIZ,MUKARRAMH BAQALA,2,,,,,,,,,,,100391399100003
-LWeMU0XzXhpPj_9awjF,QASAR AL IZZ MANDI RESTAURANT ,3,,,,,,,,,,,100423343100003
-LWeNAaXk248JHtsQTub,SAFARY BAQALA,4,,,,,,,,,,,100334437900003
-LWeNJC8sAXIOMzgAbOY,ARAD AL BARAKA CAFTERIA,5,,,,,,,,,,,100213370800003
-LWeNXFQFxgFoqmMBu3t,BALKEES CAFTERIA,6,,,,,,,,,,,
-LWeNd3QGH8NhW9uCWeb,TAWASAL BAQALA,7,,,,,,,,,,,100273480200003
-LWeNk00PXAu9saWrHnQ,REEHAM HOTEL,8,,,,,,,,,,,100206357400003
-LWeNre4526labd7SH5M,ANHAR VEG. SHOP,9,,,,,,,,,,,
-LWeNx-9MuuhR_ptBfG0,YOUNUS BAQALA,10,,,,,,,,,,,
-LWeO8IsndSMTCpWCRVJ,SALEEM RESTAURANT ,11,,,,,,,,,,,
-LWeOPlFByq8uZy4P1XH,AL SHARAA CAFTERIA,12,,,,,,,,,,,100367059100003
-LWeOX112YeB89J6lYDF,ADHWAA AL AIN BAQALA,13,,,,,,,,,,,100399154200003
-LWeOm9Vqev57On3o16V,WAHAT AL KUWAITAT,14,,,,,,,,,,,100393130800003
-LWeP0j1FCjCw6CaZZoH,KUWAITAT WAY,15,,,,,,,,,,,100395231200003
-LWeP9249cgvRzWoZ2vH,RILAX BAQALA,16,,,,,,,,,,,
-LWfH-NnAw1Nct2yNIzA,CITY LAND RESTAURANT ,89,,,,,,,,,,,
-LX8AyQxrIjgsLuhEs3j,OASIS AL AIN GROCERY ,17,,,,,,,,,,,100355613900003
-LX8B8YGvrkdxQ2ztMZX,BARAKAT MADEEN SUPERMARKET,18,,,,,,,,,,,100042290500003
-LX8BGSMAkey_M1YzEG2,HILL PALACE,19,,,,,,,,,,,100392564900003
-LX8BTvDlMtVA7zX25Wx,MIZAINIR CAFTERIA,20,,,,,,,,,,,100045527700003
-LX8BcjUp21Att15D2Y_,ABDUL AZIZ RESTAURANT ,21,,,,,,,,,,,100248963900003
-LX8C60e3LS48D2UaZ1q,ROUNAQ  RESTAURANT,22,,,,,,,,,,,100248094300003
-LX8CJ4VcYBaFbOCx5yk,DREEN TEA,23,,,,,,,,,,,100255777300003
-LX8CRd9IWx3Y2IThBd2,FINE KARAK,24,,,,,,,,,,5,100271102400003
-LX8CfsXawgd3Pt2tqcm,HOT COLD,25,,,,,,,,,,,100046641500003
-LX9HjjGE7nGG3Fby-xR,BAQALA GHALEB AL KAHBI,121,,,,,,,,,,,100575389000003
-LX9Hs4y6oO5MdOp2Ung,AL JASAR GROCERY,102,,,,,,,,,,,100336283500003
-LXiedx4W2ozH2uxdenN,SAKEENA BAQALA,101,,,,,,,,,,,
-LXrKVf9YE9oKgizQqui,MAHARAT AL BAHAR ,26,,,,,,,,,,,100249273200003
-LXrKbCnQZKARIFR2d19,YAMAM AL AIN BAQALA,27,,,,,,,,,,,100342732300003
-LXrKhW7KERNa5OtsU45,NEW BASHEER BAQALA,28,,,,,,,,,,,100593872300003
-LXrLUT8gn00FaXGUOW9,AL BARAHA BAQALA,29,,,,,,,,,,,100348349000003
-LXrLcHjG2AYZjXLSTr0,MOHAMMED ABDUL RAHMAN BAQALA,30,,,,,,,,,,,100423796000003
-LXrLpuZ7XosgrF69wsO,CHOICE MASALA,31,,,,,,,,,,,100321745000003
-LXrOC28nXERVF8FaL8T,OMAN BAQALA,32,,,,,,,,,,,100529793000003
-LXrOJmmoB6eNsJQg-N6,ANWAR AL AIN BAQALA,33,,,,,,,,,,,100307035400003
-LXrOSepSYaADxoXWKu0,NOOR JAHILI BAQALA,34,,,,,,,,,,,100011471800003
-LXrOZtdMZmTTEGI7QqI,JAHILI SUPERMARKET,35,,,,,,,,,,,100363669100003
-LXrOf66kqkyDz66KOrs,SPAISY RESTAURANT ,36,,,,,,,,,,,
-LXrOnMZDZRXbyD55bEP,NOOR JAHILI GROCERY,37,,,,,,,,,,,
-LXrPUs3hbDNcx1J31vu,JASSIM CAFETERIA,38,,,,,,,,,,,100201158100003
-LXrPtC7UV0v-lRtzN8s,ORANGE TREE CAFTERIA,39,,,,,,,,,,,100365446200003
-LXrQ-GdUkkgiPY_HNcR,UMMU SALAMA BAQALA,40,,,,,,,,,,,100303825200003
-LXrQ7a5eR7FJIOhwQ5m,AL RAWDA BAQALA,41,,,,,,,,,,,100365130200003
-LXrQJU2fYNgKlo8huxv,AL SARMAD BAQALA,42,,,,,,,,,,,100302052400003
-LXrQmlovtORtLN3tEoc,AL KHADRA BAQALA,43,,,,,,,,,,,100202583900003
-LXrQuW-wpUh4fbNYjOd,AL MUBSHER BAQALA,44,,,,,,,,,,,100341006300003
-LXrRc9FaGaW0Xn943dh,GULF CO.OPERATIVE SUPERMARKET,45,,,,,,,,,,,100357813300003
-LXrSM7nqKEsrZjGXVQw,MUHAMMED AMEEN BAQALA,46,,,,,,,,,,,1003291513000003
-LXrSUl3yZmdZjNSn1NR,CORAL CITY BAQALA,47,,,,,,,,,,,
-LXrScKdWvYQBs_XwX3B,AL HURIYA BAQALA,48,,,,,,,,,,,100056981200003
-LXrSs5Q9WnzhNwHrTn6,AZIZ BAQALA,49,,,,,,,,,,,100367731500003
-LXrSzQfB-6nAOOyIhAV,AL TULLAB GROCERY,50,,,,,,,,,,,100203062300003
-LXrTBhJcsPz-PHGhDIP,GHANIM SUPERMARKET ,51,,,,,,,,,,,100367204300003
-LXrTP0BqTOifWf_oQAT,NOOR AL JIMI BAQALA,52,,,,,,,,,,,100349962900003
-LXrTX8ok7HnuwWFbzHh,AL MURAIJEEB BAQALA,53,,,,,,,,,,,100333475000003
-LXrTlwTTMFYGsqcfkf2,FINE FACE BAQALA,55,,,,,,,,,,,
-LXy4nCfVhDpom6cGskB,AL JANAH CAFTERIA ,56,,,,,,,,,,,100240365500003
-LYgfIXCTK6SJh-m7uez,GOOD WILL SUPERMARKET,104,,,,,,,,,,,100597969300003
-LYqmxlK65XsmDDY7gyD,AL SAMAN GROCERY,105,,,,,,,,,,,100332089000003
-LZV1ho-2OPQ5TUzQwXs,AL MUMTAZ ROSTERY,103,,,,,,,,,,,100590401400003
-LZ_6xRZr0OwU7C9cqq5,AL WAHA CAFTERIA ,105,,,,,,,,,,,
-LaLJ-LTeAhHlaLuQapS,JABAL AL SANAYIYA RESTAURANT ,110,,,,,,,,,,,100238349300003
-Lbmzl4WKkwa9A0ioqar,ABU SAMEERA CAFTERIA,116,,,,,,,,,,,
-Lbn-Py6nPE1zSmV0OEw,BAQALA NOORAIN,117,,,,,,,,,,,100389513100003
-Lc0D2ht_u4Z71KXgOh0,temp,120,,,,,,,,,,,
-Lh4o6bnn-v88KT3B1ZU,Najim Al Farhan,091,,,,,,,,,,,100263869800003
-LixPX_8lLQoL4nY6K1r,BOISHAKHI RESTAURANT,105,,,,,SANIYA,AL AIN,,,,,
-LixPqu3o7-rtYl8R7M6,SAFETY CAFETERIA,106,,,,,SANIYA,AL AIN,,,,,
-Lj1_hlb5HAg5EI3Ms-c,QEEN ROSE BAQALA,106,,,037628826,,NEAR LEISURE CENTER,AL AIN,,,,,100584205700003
-LkTzuxxJ5HcErqNY9ZC,ROSHA SUPERMARKET,1,,,,,,,,,,,100384635700003
-LkU-50yblWfWxFCa_Ee,ROWDA MEZIYAD BR.,2,,,,,,,,,,,100325619300003
-LkU-T_8MlBqU7v86OqH,NADER RESTAURANT ,4,,,,,,,,,,,100014165300003
-LkU-Zr5xkYBa7e3mhVY,NADER GROCERY,5,,,,,,,,,,,100013964000003
-LkU-g5c2ToP6EGR3EDf,NEW QUTT RESTAURANT ,6,,,,,,,,,,,100064572900003
-LkU-q5ctjcHx6B_zlsV,MHASHRIF GROCERY,7,,,,,,,,,,,100227235700003
-LkU-xtVnjIHliLmN7JX,MOHAMMED ALI GROCERY,8,,,,,,,,,,,100588597300003
-LkU05YgryR_JHL4fouq,SAAD AL SHOWAIB GROCERY,9,,,,,,,,,,,100324818200003
-LkU0BRVTRSCAahdt6YR,NAJMA RESTAURANT ,10,,,,,,,,,,,100071211500003
-LkU0LL2QBboEUn68inN,WAHAT NALE GROCERY,11,,,,,,,,,,,100019904000003
-LkU0USau5c72ETr7gv9,MURTAFA GROCERY,12,,,,,,,,,,,100073593400003
-LkU0aFk874QOnFwuiKR,KHALEEFA MUBARAKA GROCERY,13,,,,,,,,,,,100362994400003
-LkU0jTDR2sGVtfnmjVC,MOHD SHAFI SONA MEHA,14,,,,,,,,,,,100357771300003
-LkU0pOjatWcoA9SWqDo,HAMLOOL GROCERY,15,,,,,,,,,,,100250011200003
-LkU0xpvavtX3wC8RzTU,QUBAT AL SAKRHA GROCERY,16,,,,,,,,,,,100200693800003
-LkU13NXNvqaUkKyviYS,MUBARAK SALEM GROCERY,17,,,,,,,,,,,100250587100003
-LkU1EtYspwlgGLi6uc3,NADER GROCERY /,18,,,,,,,,,,,100013964000003
-LkU1PTIoEv2atDoDD6N,ASIA HERITONIC GROCERY,19,,,,,,,,,,,100377566300003
-LkU1dUSDG-GLZ7l5NNu,SAIF ABDULLA AL ARIYANI SUPERMARKET-,20,,,,,,,,,,,100357363900003
-LkU46Zjsag3Ai2Cxkxl,ABDULLA MOHAMMED ABDULLA AL JABIRI,21,,,,,,,,,,,100356408300003
-LkU4FWu2FRG3AZwjZ7Y,DORRET AL EMIRAT,22,,,,,,,,,,,100231298900003
-LkU4ROvhG4mPSvRiq_O,AL KHAIMA GROCERY,23,,,,,,,,,,,100321839100003
-LkU4ZiTc-Pt3PteZo00,AL ZAAD FOODSTUFF,24,,,,,,,,,,,100356512200003
-LkU4fsrIV77ynY3WOwZ,ANWAR REMHA GROCERY,25,,,,,,,,,,,104190283200003
-LkU4q7vOrmlu-z64phZ,SALEM KHALFAN GROCERY,26,,,,,,,,,,,100387406000003
-LkU4xwJDjHJu4VAHuo1,KAKKAT AHAMMED GROCERY,27,,,,,,,,,,,100376743900003
-LkU55B0YiqhtDpufPA-,SUWIHAN SUPERMARKET,28,,,,,,,,,,,100363262500003
-LkU5ELdsFavZz5Smfw1,JISER AL MADEENA GROCERY,29,,,,,,,,,,,100382410700003
-LkU5NQroXGb-JWR-ttQ,QUALITTY GROCERY,30,,,,,,,,,,,100214370700003
-LkU5ThAlQyjyPEWuEB7,SHABAB NALE GROCERY,31,,,,,,,,,,,100359563200003
-LkU5Z26VasuF7-v3UyX,BADA NALE GROCERY,32,,,,,,,,,,,100055215600003
-LkU6azk879BNslgstPK,SAWARI GROCERY,33,,,,,,,,,,,100074188200003
-LkU6i-yxlW51QP9c19q,SALEM AL SHIBLI GROCERY,34,,,,,,,,,,,100363388800003
-LkU6noO3QqSsNeZYaGI,FASEL GROCERY,35,,,,,,,,,,,100391739800003
-LkU6w9vcXwbVt2yUp6V,GULF GARDEN FOODSTUFF,36,,,,,,,,,,,100342575600003
-LkU78iKxnpp3fdOmNjS,AL MELWANI RESTAURANT AND CAFETERIA-BRANCH,37,,,,,,,,,,,100071712200003
-LkU7HdfcTpKT8TNi74A,AL MELWANI RESTAURANT AND CAFETERIA,38,,,,,,,,,,,100040159400003
-LkZUSXO3kXbU2dVBgbB,SHABAB AL HAYEER GROCERY,39,,,,,,,,,,,100354561100003
-LkZUacFAVEWXMihvK2P,ABU DHAFEERA GROCERY,40,,,,,,,,,,,100034378800003
-LkZUjDdruQfPPnHdizE,NAZEEM AL HAYEER GROCERY,41,,,,,,,,,,,100369146400003
-LkZUpsd3jzq5TpAufsr,OMMEL GROCERY,42,,,,,,,,,,,100380207900003
-LkZUvzEgQiq9vpIBc7d,AL ZAIN GROCERY,43,,,,,,,,,,,100202061600003
-LkZV7IQ24-CTzxIJVAT,RAMLATH GROCERY,44,,,,,,,,,,,100313857300003
-LkZVVZACQu2pAMzATRO,WAHAT AL HAYEER GROCERY,46,,,,,,,,,,,100066401900003
-LkZVcPoC8YvH0JwtTeL,MARMAR CAFETERIA  ,47,,,,,,,,,,,100359487400003
-LkZVm2VJusrQHxfXBsg,STAR TEA TIME CAFETERIA ,48,,,,,,,,,,,100056291000003
-LkZVuG2wW_cd-wLzb79,THANA RESTAURANT ,49,,,,,,,,,,,100229499700003
-LkZW4-BDfCz4m-O53TZ,FRESH N TOWN CAFETERIA ,50,,,,,,,,,,,100455339000003
-LkZWE6Glgjm-MQfQJYk,SHARI AL HAYEER GROCERY,51,,,,,,,,,,,100352128100003
-LkZWJ_AkH3TBIQr7qzt,STAR GROCERY,52,,,,,,,,,,,100323151900003
-LkZWUxPEztZ-hJMW9TL,KOTTUPARAMBIL ,53,,,,,,,,,,,100351412000003
-LkZWbEu_olUFsVHnBqA,AL AJEL GROCERY BR.,54,,,,,,,,,,,100350172100003
-LkZWi2PtQiAUWcR3URe,AL AJWA RESTAURANT ,55,,,,,,,,,,,100287616500003
-LkZWqHYGOs2tBzvYKZi,ABU SIRAJ SUPERMARKET ,56,,,,,,,,,,,100343677900003
-LkZa0YnbLI5xEbMrijI,AL AMEEMI GROCERY,57,,,,,,,,,,,100391193800003
-LkZa76I64owlmUkn4gy,WADI AL FADI GROCERY,58,,,,,,,,,,,100394576100003
-LkZaFTMsmnaZN0qZ5L2,AL KHAYAL GROCERY,59,,,,,,,,,,,100376664700003
-Ll1xNNY265_KQRHlN-d,AL MURABA RESTAURANT ,1,,,,,,,,,,,100006296600003
-Ll1xa-gypIviimNVa6E,AL MANAHAL GROCERY,2,,,,,,,,,,,100039644800003
-Ll1yYaeYioBERA6E4B6,SAD MAURBA RESTAURANT ,3,,,,,,,,,,,100249597400003
-Ll1z3kx2Iv2-9307UA0,AL MURABA RESTAURANT 02 ,4,,,,,,,,,,,100061076400003
-Ll1zE0pAWDmpYBjS_16,AL FATAHA AL JADEED SUPERMARKET,5,,,,,,,,,,,100369792500003
-Ll1zSVkmU2LMZ-artj1,AL SHAMAA AL MUNERAH GROCERY,6,,,,,,,,,,,100205788100003
-Ll2-ez1nRpu7bdRmR76,AL SHAWAMIS RESTAURANT ,1,,,,,,,,,,,100319157200003
-Ll2-oD_1vTE4gVG9Cu0,AL RASHID AL DHARI CAFETERIA ,2,,,,,,,,,,,10002899810003
-Ll20It4zODhXTmDuCDc,SEBAQ AL HEJAN GROCERY,3,,,,,,,,,,,100382804100003
-Ll20UxK2AjZHGGTIPqw,AL ZAD RESTAURANT ,4,,,,,,,,,,,100073563700003
-Ll20x1FNw4EO9iJeh_k,AL JABEEB RESTAURANT ,5,,,,,,,,,,,104137493300003
-Ll218uVRYStgUb4E9lg,AL KHEDMA AL SAREEA FOODSTUFF GROCERY,6,,,,,,,,,,,100224818300003
-Ll21JXdIgaFN8w9fi8K,AL KHADR RESTAURANT ,7,,,,,,,,,,,100231174200003
-Ll21Sa5erN27R_DO58Z,AL HASHIMI GROCERY MAIN,8,,,,,,,,,,,100368123400003
-Ll21agngiu1B7NBhPHx,GREEN CRECENT GROCERY,9,,,,,,,,,,,100375837000003
-Ll21kwPyPzt-L3khFxQ,GHUNADHA GROCERY,10,,,,,,,,,,,100360238800003
-Ll21uEMLdnrUa6JYDMh,WAHAT AL SAHRA GROCERY,11,,,,,,,,,,,100349684900003
-Ll222KNUaydCRuRuxAQ,AL HASHIMI GROCERY BR.,12,,,,,,,,,,,100368123400003
-Ll22DzKIkZmT28PrD_X,RAHABA GROCERY,13,,,,,,,,,,,100071849200003
-Ll22LcSqC_EeHRnB9sY,NOOR AL SHUWAIB GROCERY,14,,,,,,,,,,,100048892200003
-Ll22VCTh8wQK6Z2pP7k,RED SPRING ROSE-CATERING,15,,,,,,,,,,,100201808100003
-Ll22e4xfuRGou5T48hM,RED SPRING ROSE,16,,,,,,,,,,,100201808100003
-Ll23jHu0vvdC1SOK099,MOHAMED ALI AL MANSURI GROCERY,17,,,,,,,,,,,100388679100003
-Ll247jCiAZTw7JoMz8_,PRAWASI GROCERY,18,,,,,,,,,,,100255435800003
-Ll24O3REXGrO0A-FdKC,AL HASAAD AL TAIEB G,19,,,,,,,,,,,100302579600003
-Ll24TUIbXK7SOrVgSaI,AL TAJ GROCERY,20,,,,,,,,,,,100321078600003
-Ll24gXtsS-9Uoa6R21U,AL TALANG AL ABID GROCERY,21,,,,,,,,,,,100381822400003
-Ll24nCds7LDDIWle6Jd,SALEM BIN RUBAYEA GROCERY,22,,,,,,,,,,,100205198300003
-Ll24tGtlg8DSQDXIKlT,RIYAMI GROCERY,23,,,,,,,,,,,100252665300003
-Ll250-jZWYDnj6xyc_R,NOOR AL IMAN GROCERY,24,,,,,,,,,,,10020102500003
-Ll25JoDwXNc7CqsY5LP,AL LIYALI GROCERY,25,,,,,,,,,,,100344599400003
-Ll25PrtAZytpuRyeDOR,ABU IMRAN GROCERY BR,26,,,,,,,,,,,100339306100003
-Ll25rm8FzcIanC5eU_o,AL ANDALIB GROCERY,27,,,,,,,,,,,100074718600003
-Ll261RDnQpEFmkkqszn,WAHAT AL AIN SUPERMARKET,28,,,,,,,,,,,100340885100003
-Ll26Dnr_jU-7IHcZyhx,AL OAHA VALLEY GROCERY,29,,,,,,,,,,,100064351800003
-Ll27f7mxTx0eQKUt_bR,SAMEERA MODERN GROCERY,30,,,,,,,,,,,100394871600003
-Ll27poWu4TqGt7_ifMV,JUMA KAMMEEJ GROCERY,31,,,,,,,,,,,100033464700003
-Ll27xfQxPbAaaKt4GvC,NASEEB RESTAURANT ,32,,,,,,,,,,,100210618300003
-Ll2878QlxXiZ2MKQ7FM,AL ZAJEL GROCERY,33,,,,,,,,,,,100346195900003
-Ll28uG5JZqTpsLVmeVT,AL RAIDA GROCERY,34,,,,,,,,,,,100242988200003
-Ll299nVGQ8QbxeIDfoX,NOOR AL KALEEJ GROCERY,35,,,,,,,,,,,100357854700003
-LlgIonawRbQroibW5jj,HAMDAN ALI BAQALA,7,,,,,,,,,,,100351747900003
-LlgIyn7_Np2zr9hhEtm,GHOUM AL MADEENA BAQALA,8,,,,,,,,,,,100369801400003
-LlgK7soZL-1qOFACeQS,AL SHANAT BAQALA,9,,,,,,,,,,,100005309800003
-LlgLGros0iGhgspTZ3I,MAHAA AL BAWADI SUPERMARKET ,10,,,,,,,,,,,100356005700003
-LlgLR_snd863v5a2kjm,RAZEENA BAQALA,11,,,,,,,,,,,100322619600003
-LlgLXsSS0Xq8jCjF8zN,AL SADAQA BAQALA,12,,,,,,,,,,,100045561600003
-LlgLfgEYwXN0R6KoPsK,AL MATHALLA BAQALA,13,,,,,,,,,,,100336645500003
-LlgOU9mUsNDOPjQ5NWs, AL MUDEEA BAQALA,14,,,,,,,,,,,100384378400003
-LlgOa0tA6XSF3NHsFhd,AL JABAL AL KHAIR BAQALA,15,,,,,,,,,,,100347639500003
-LlgOkXKVV2JRTH8Rl-a,ROUBA AL DHAHERA BAQALA,16,,,,,,,,,,,100329163800003
-LlgOudPdZEUUywQh8n5,MABROOK NEW BAQALA,17,,,,,,,,,,,100391380100003
-LlgRBaMzGaawU5jkSEw,CITY SUN RESTAURANT ,18,,,,,,,,,,,100399365400003
-LlgR_h8cm1QYk5tKtXQ,AL NAS BAQALA,19,,,,,,,,,,,100361768300003
-LlgRgnbVNfZz_BeWwxX,SULTHAN MOHAMMED BAQALA,20,,,,,,,,,,,100322486000003
-LlgRoYYzl5KiIyo2bI4,ABU IMRAN BAQALA,21,,,,,,,,,,,100339306100003
-LlgRvuQ6T4ZBabOzUSH,AL JENAN BAQALA,22,,,,,,,,,,,100036088100003
-LlgS22aB-68hypnM4dq,AL TALEB BAQALA,23,,,,,,,,,,,10033937800003
-LlgS9YGGVE5RQ9qHvvs,RASHID ABDULLA BAQALA,24,,,,,,,,,,,100021641400003
-LlgSFlRg4o6-Je8Zenc,JUBILEE BAQALA,25,,,,,,,,,,,100074501600003
-LlgSMpWVGJ6VbWN2md9,AL WASEELA BAQALA,26,,,,,,,,,,,100373911500003
-LlgSU26DzDgVFm7gy1U,NIBRAS AL DAR RESTAURANT ,27,,,,,,,,,,,100361435900003
-LlgS_fHMI8kUe0O2wd0,ISMAIL ABDULLA HUSSAIN BAQALA,28,,,,,,,,,,,100210273700003
-LlgSj0XMgpdPUsEogo_,NASSRT AL MADEENA BAQALA,29,,,,,,,,,,,100061444400003
-LlgSpfEPQy6W4_xQQCl,ABDUL SATTAR BAQALA,30,,,,,,,,,,,100378555500003
-LlgTURhWrS23n-S-iAw,AL HARETHI BAQALA,31,,,,,,,,,,,100353895400003
-LlgTd0QY_Dn89cbkIGF,TAJ MAHAL BAQALA,32,,,,,,,,,,,100029251400003
-LlgTlkbhJieNYNkGfQG,AL SAYYD SUPERMARKET,33,,,,,,,,,,,100233884400003
-LlgTv2-VM6DZtt_An-h,ABU AMER RESTAURANT ,34,,,,,,,,,,,100065037200003
-LlgU8IHYJO_lLxag6QD,AL ERSHAD RESTAURANT ,35,,,,,,,,,,,100231190800003
-LlgUE7x1NnSZGvO4L_y,SUHAIL RESTAURANT ,36,,,,,,,,,,,100024424200003
-LlgUKzRZirXwqjGPHRu,AL SOURAH SUPERMARKET ,37,,,,,,,,,,,100352266900003
-Llje3-s2vMdeDaAncZt,AL BUSTAN NEW RESTAURANT ,1,,,,,,,,,,,
-LljeD847WZQs4DcCWc3,WADI AL KHAIR SUPERMARKET ,2,,,,,,,,,,,
-LljeKUBsnSD4ZDo2_UU,MINAS GROCERY,3,,,,,,,,,,,
-LljeR4ZDP4PFnTNOn0B,HABIBA GROCERY,4,,,,,,,,,,,10033610900003
-LljfWOL4aDCwQpk3SM9,AL ZAJEL BAQALA,5,,,,,,,,,,,100346195900003
-LljfcHG7I8mVH-NdPPx,AL ANQAA GROCERY,6,,,,,,,,,,,100257110500003
-Lljfimc3mbt2Bm6DmI2,SAEED OBAID GROCERY,7,,,,,,,,,,,100360472300003
-LljfqZuqz6UV93tl8Rf,NOOR AL AWEER GROCERY,8,,,,,,,,,,,100236587000003
-Lljg4EGupBG0iRjNWXE,AL MANAZEF GROCERY,9,,,,,,,,,,,10049857400003
-LljgO5y4Vf65fFA2Ih4,THREE STAR GROCERY,10,,,,,,,,,,,100341728200003
-LljgU562P0gb7BN1QE2,AL HENNA GROCERY,11,,,,,,,,,,,100327693600003
-LljgckqG6WPLjQkWGVK,DILLI DARBAR CAFETERIA ,13,,,,,,,,,,,100011555800003
-Lljgiv3Wb7FWzFK84ZQ,MESK CAFETERIA ,14,,,,,,,,,,,
-LljguX-nuSUsOOReAQD,REEF AL ARAB GROCERY,15,,,,,,,,,,,100048519100003
-Lljh2XJqdyWBjKsoICs,AL KUWAITI GROCERY,16,,,,,,,,,,,100394794000003
-LljhD3uePw5yPHm358Q,RUBOU TOWOYYA GROCERY,17,,,,,,,,,,,100047772700003
-LljhKqZXSBvm-VNmnDj,ABU DARWEESH CAFETERIA ,18,,,,,,,,,,,100358913000003
-LljhUE32B3Bfoj6SBnp,THE BEST TASTE CAFETERIA ,19,,,,,,,,,,,
-Lljh_jjMON-gPBHpX2Z,SLAYEM SOROUR GROCERY,20,,,,,,,,,,,100331767200003
-LljhhIxh-vSzJlRPbuy,MATAR AL DARMAKI GROCERY,21,,,,,,,,,,,100253312100003
-LljhqJ1beLWxLC4Us7d,TWENTY TWENTY GROCERY,22,,,,,,,,,,,100369465800003
-Llji7ZPQc3jbT8iNUxI,SPECIALIZED ARABIC GROCERY,23,,,,,,,,,,,100053088900003
-LljiHNa5wBiJWodrux1,AYSHA GROCERY BR.,24,,,,,,,,,,,100277147300003
-LljizqbKH0nH8avahIY,AL NABAQ GROCERY,25,,,,,,,,,,,100227927900003
-LljkFj9eiL1suROqfit,SALEM AL KENDI GROCERY,26,,,,,,,,,,,100227435300003
-Lljtez0AHqLuVumN96S,AL MURWAH GROCERY,27,,,,,,,,,,,100338328600003
-LljtoFvu_FYMKZyAo28,SHABAB NEMAA GROCERY,28,,,,,,,,,,,100048265100003
-Llju6lku8qFHyfwS19E,IBN KHALDOON GROCERY,29,,,,,,,,,,,100203711500003
-LljuEuKI9fIWKlvp2uQ,SEEH BIN AMMAR GROCERY,30,,,,,,,,,,,100399133600003
-LljuaDCJTF8D8NZE9hf,NOORUAL ALAM GROCERY,31,,,,,,,,,,,100397884600003
-LljugK7aPO8PP2UjXk6,AL WASOOL GROCERY,32,,,,,,,,,,,100367860200003
-Lljuo_4yawB1D8Lzq5g,RABIA AL HAYYT GROCERY,33,,,,,,,,,,,100369613300003
-LljuyhF2DXGxfMHI8YD,THARAA GROCERY,34,,,,,,,,,,,100548729100003
-Lljv5VfaDxWDDbDeu1t,AL SADA RESTAURANT ,35,,,,,,,,,,,100233268000003
-LljvFf_8BqCwwaXPUWb,SAIF ABDULLAH AL ARIYANI SUPERMARKET ,36,,,,,,,,,,,100357363900003
-LljvMaLZgKKA6pqforq,AL NAJAH TRADING STORES,37,,,,,,,,,,,100030679300003
-LljvTeGTXhHKSjUv7WH,LOLLIPOP GROCERY,38,,,,,,,,,,,100531337200003
-Lljvg4iraKH4Fdufyos,QAMAR AL KALEEJ GROCERY,39,,,,,,,,,,,100339708800003
-LljvtIQqY6hJXBY2tfs,AL BAYAN SUPERMARKET ,40,,,,,,,,,,,100365141900003
-LljwQd97tALY5rc15mz,SALEM MOHAMMED AL HASNI GROCERY,41,,,,,,,,,,,100384944300003
-LljwZ7Jr7cHP3cFJFzI,AL RAHHAL GROCERY,42,,,,,,,,,,,100383789300003
-Lljwj3MHTzsI2wKqai0,JAWAHER GROCERY,43,,,,,,,,,,,100336830300003
-LljwofndAvD4I-YeAfQ,FAMILY GROCERY,44,,,,,,,,,,,100354992800003
-LljwvvzBMv9EZTd23_1,AL WASEEL GROCERY,45,,,,,,,,,,,100341323200003
-LljxJ7QP08oUJhfxWc7,NADA AL MARKHANIYA,46,,,,,,,,,,,100285726400003
-Lljx_EWOZ7J0F6I9TmI,SHAMSUDDIN MODERN GROCERY,47,,,,,,,,,,,100388283200003
-Lljxetw3WNFF1dqG4y8,MOHAMMED AL ESSAI GROCERY,48,,,,,,,,,,,100047246200003
-LljxmX15OepBdh-AKzO,NILOVER GROCERY,49,,,,,,,,,,,100319572200003
-Lljxx4TYBSebIo1490P,GOLDEN HEART RESTAURANT ,50,,,,,,,,,,,
-Lljy3YRz56J-IrI2u2W,AL MANAHAL BAQALA,51,,,,,,,,,,,100254353400003
-LljyAhlhZf-z4dX74QL,AL AIN COP-HILLI BR.,52,,,,,,,,,,,
-Llk0LNAgipy6TKBo6ce,SHABAB AL KHARES GROCERY ,12,,,,,,,,,,,100328028400003
-LmUpCQ8XmXMv58YS6Qg,THE GRAND FOODSTUFF,1,,,,,,,,,,,100396300400003
-LmUs9JHlFiaKce555QY,SAFFA GROCERY,2,,,,,,,,,,,100011168000003
-LmUuP35-tCROxmooTld,SHATE AL RAHA CAFETERIA ,3,,,,,,,,,,,
-LmUu_oBtawLQDUJ7riv,SAYYID MODERN GROCERY,4,,,,,,,,,,,100319092100003
-LmUugKIlMW8_ilrSlZp,NIBRAS AL MADEENA GROCERY,5,,,,,,,,,,,
-LmUupFYOYwrfQ8CtH0O,AL MATAAR GROCERY,6,,,,,,,,,,,
-LmUv7mqsdK0rzGzw-13,TAL AL RUMAN GROCERY,7,,,,,,,,,,,100331171700003
-LmUvKjqFqo39FulARmp,AL TABEEA AL JAMEELA S/M,8,,,,,,,,,,,100256116300003
-LmUvQDzJzi9_TP0aycO,INFINTY GROCERY,9,,,,,,,,,,,
-LmUvbyaLCHS5bL7aI3G,AL KARNA BEET,10,,,,,,,,,,,
-LmUvpC0zVXla3umrPeB,HAMZA GROCERY,11,,,,,,,,,,,100351496300003
-LmUwFwUedRfl2-gwWPo,BASHEER FOODSTUFF,15,,,,,,,,,,,100394321200003
-LmUwXkgOXx1Mm8ZF3Y1,AL ARAAD GROCERY,16,,,,,,,,,,,
-LmUwktH4Ukr08Ns_1os,NOOR AL ARAAD GROCERY,17,,,,,,,,,,,100043726700003
-LmUwu-WJiNkk6DA2Td5,SHABAB AL ARAAD GROCERY,18,,,,,,,,,,,10006993200003
-LmUx1YRKxUws_V-ZxVL,TAJ AL WAGAN GROCERY,18,,,,,,,,,,,100037649900003
-LmUx8nFxfpDW7x0mDpQ,OMAIR GROCERY,20,,,,,,,,,,,100354102400003
-LmUxGQNH4hP9Ed4kLgN,MUKKAFFA SUPERMARKET ,21,,,,,,,,,,,100324436300003
-LmUxSgODTb0Zs2Sovi9,NOOR AL WAGAN CAFETERIA ,22,,,,,,,,,,,
-LmUxcIa336VWLrBUgjJ,AL HAMLI FOODSTUFF,23,,,,,,,,,,,100257726800003
-LmUxlIpF2ZqlVsxkY1O,WADI HUM CAFETERIA ,24,,,,,,,,,,,10029280400003
-LmUxznnxjtH7MDdocbE,DAROUL AL KHAHAR GROCERY,25,,,,,,,,,,,100269509400003
-LmUyCJlxuBwF1ZADlFK,SINIYAR GROCERY,26,,,,,,,,,,,
-LmUyRiZI0zvbQ3bEJpm,REHAB AL QUA GROCERY,27,,,,,,,,,,,10036148300003
-LmUyfhWPOpspvXF2x9y,AL NAMAR GROCERY,30,,,,,,,,,,,100365360500003
-LmUyngESMSopr91Fk8S,AL QUA SUPERMARKET ,31,,,,,,,,,,,100341995700003
-LmUz4RhETEC-HuyaX2L,AL RAHAN AL QUA,32,,,,,,,,,,,10035764910003
-LmUzq2uPnuY45imyAhS,BAB AL FARAJ GROCERY,34,,,,,,,,,,,100369745300003
-LmV-ONCxiUXBTa9E13w,SHAMOA AL QUA GROCERY,35,,,,,,,,,,,100342986500003
-LmV-XNwAREYH7s_EECt,WAHAT AL MINAR GROCERY,36,,,,,,,,,,,100369109200003
-LmYYtJEWusUhwS9J6m_,WADI AL THAG GROCERY,37,,,,,,,,,,,100057090100003
-LmYZ4zyKAs_FtD_ULYZ,AL NAMOR SUPERMARKET,38,,,,,,,,,,,
-LmYZMbaHa8Q5LL2ukP-,PERAL DAIMOND SUPERMARKET,39,,,,,,,,,,,100298168400003
-LmYZXa_VID3hjzRYUXH,REHAN AL KALEEJ GROCERY,40,,,,,,,,,,,100372270700003
-LmYcfYsJA3qJN8_wNaG,DANA SUPERMARKET,41,,,,,,,,,,,1003354543000003
-LmYcnvV7U3DJ8f8FEYS,SAGEER MATAAR GROCERY,42,,,,,,,,,,,100382521100003
-LmYdzFAgtuBkC6NFzFT,ABU HABIB SUPERMARKET,44,,,,,,,,,,,
-LmeW5QSS1X-bYaXq4-S,WAHAT AL MUBZIRA GROCERY,1,,,,,,,,,,,100340431400003
-LmeWGl9IJP7Aut6jqwB,AIDA GROCERY,2,,,,,,,,,,,100364996700003
-LmeWe7J6aG-xNW6iVq2,JASSEIM MODERN GROCERY,3,,,,,,,,,,,100200350500003
-LmeWnyATHsb-yjPaA8B,AL ABAILA GROCERY,4,,,,,,,,,,,100372591600003
-LmeWyq2803qcchptXpV,BEAUTIFUL ROSE GROCERY,5,,,,,,,,,,,100358705000003
-LmeXCb57Buk676rLJZ4,AL AHLI KHAIR GROCERY,6,,,,,,,,,,,100258577400003
-LmeXN2GptN4dm_rQRvc,RASHEED GROCERY,7,,,,,,,,,,,100384412100003
-LmeXZCbOEmNQXBoxJck,AL SABAYA GROCERY SHOP,8,,,,,,,,,,,100316453800003
-LmeXhMoufTTvvP_ID_Q,AL JAZEERA CAFETIRA,9,,,,,,,,,,,100241247400003
-LmeXuQTqtKKpAOAfa1M,AL KHAT AL MUBASHIR GROCERY,10,,,,,,,,,,,100374185500003
-LmeY3M9SXJFwgFAZ_gr,LIALI AL QATTARAH GROCERY SHOP,11,,,,,,,,,,,100356519700003
-LmeYAoXuWF9PracpOjg,HUT QATTARAH,12,,,,,,,,,,,
-LmeYLMpCQLZkX9mjV_k,UMMER GROCERY,13,,,,,,,,,,,100333384400003
-LmeYXRLBbzZd75eUF_K,TAJ AL AMEER GROCERY - LLC,14,,,,,,,,,,,100252825300003
-LmeZXwbhKqM6P_rxpsi,DHABI AL AIN GROCERY,15,,,,,,,,,,,100339205500003
-Lme_Eecks9xZzvu_ejb,AL MUNAWARA GROCERY,16,,,,,,,,,,,100242495800003
-Lme_NXEn05M1Z7u6-Fy,AL WAHA AL MASOUDI GROCERY,17,,,,,,,,,,,100346751900003
-Lme_ZIwd7s3CmasELxr,AL DHEFAF GROCERY SHOP,18,,,,,,,,,,,100213348400003
-Lme_h7LNgb79e7J-b30,ABU MASOOD BAQALA,19,,,,,,,,,,,100389097500003
-Lme_tDcKN4i67wW-Fs2,AL KHOYOOL GROCERY,20,,,,,,,,,,,100231414200003
-Lmebb_dHbfWm8ITayCi,SALMA HAMAD GROCERY,21,,,,,,,,,,,100353434200003
-Lmebmy7SE3xZ4nQ47AJ,WAHAT AL YASMEEN GROCERY SHOP,22,,,,,,,,,,,100361892100003
-LmebwvngVwrSS_7mJlR,HAMAD AL SHAMSI GROCERY,23,,,,,,,,,,,100072121500003
-Lmec5dszcMZEBB2uU8R,ABU YASER STORES,24,,,,,,,,,,,100005329600003
-LmecIfnZRDNTQnC3B-t,ABU ABDUL HAFEEZ GROCERY,25,,,,,,,,,,,100220788200003
-LmecscweZ7zE4louVHd,AL ATTAR GROCERY,26,,,,,,,,,,,100318039300003
-LmedSHmtvGC5KUkGA9g,SULTAN AL DHAHERI RESTAURANT,27,,,,,,,,,,,100074146000003
-Lmed_yLhm1MyUcHJqle,SALT AND SWEET CAFETERIA,28,,,,,,,,,,,100224978500003
-LmednOHAKp8FMJ3_m72,CENTRAL MARKET CAFETERIA,29,,,,,,,,,,,100239272600003
-LmedyvS_7hi54eAlXmM,MOHAMED ALI ALDHAHIRI GROCERY,30,,,,,,,,,,,100246479800003
-LmeeB0SbamBSSnXtzLG,SYRIA CAFETERIA,31,,,,,,,,,,,100245980600003
-LmeeSnYGBS0Z3ojvLVw,AWTAAR FOODSTUFF ROASTERY CO LLC,32,,,,,,,,,,,100329335200003
-LmeebL2kYlOJrX3d3nE,MOHAMMAD ASLAM CAFETERIA,33,,,,,,,,,,,100060653100003
-LmeemmJpX2s8q7A2mrT,FINE STAR GROCERY,34,,,,,,,,,,,100350554000003
-Lmeevh5TnRevDz7wx4R,AL WAHA AL MASOUDI GROCERY,35,,,,,,,,,,,100346751900003
-LmefD289bGCl3oDpH6Z,RAMLA GROCERY,36,,,,,,,,,,,100005457500003
-Lmeh0VwTuobD6mu-qMU,WAHAT AL YASMEEN GROCERY SHOP,37,,,,,,,,,,,100361892100003
-LmehB-0ksj602X-ea-G,AL AWEER GROCERY,38,,,,,,,,,,,100255384800003
-Lmi-o1WSxhELbW0PQWM,AHMED AL YASI GROCERY,1,,,,,,,,,,,100390791000003
-Lmi007N7KjppEcioHzv,SALEH CAFETERIA,2,,,,,,,,,,,100279568800003
-Lmi098R3RVgOQnuymtS,FRESH TASTE CAFETERIA ,3,,,,,,,,,,,
-Lmi3e7yKBxIrp29U073,NOOR ABASEEN,4,,,,,,,,,,,100209845500003
-Lmi3oMAnOcgalyOMLQ-,AL SANAIYA AL MUMTAZ RESTAURENT,5,,,,,,,,,,,100423343100003
-Lmi3xJdMf1FaCijpoXz,ABDU RESTURANT,6,,,,,,,,,,,100388585000003
-Lmi44myXj5aybvNh5K6,ZAHART AL QRIH GROCERY,7,,,,,,,,,,,100383348800003
-Lmi4CwQrSS-aRuKaUNR,AL RASEEF GROCERY,8,,,,,,,,,,,100352504300003
-Lmi4XQfQdrr09PVo62M,AL RAMAL GROCERY,9,,,,,,,,,,,
-Lmi4fT0H7wK20UwY6y7,WADI AL HAMAM RESTARANT AND CAFETERIA,10,,,,,,,,,,,100202578900003
-Lmi4t9XuLFguUppdMZz,AL FIDAN TRADING EST,11,,,,,,,,,,,100051031100003
-Lmi50thXKymX8zXA5Y5,THREE STARS GROCERY,12,,,,,,,,,,,100341728200003
-Lmi5X3D8JrWqxQufMUx,ZAHRAT AL SHAKLA GROCERY,13,,,,,,,,,,,100230675900003
-Lmi5gyUvQEbpk56AlGH,LAMYA GROCERY SHOP,14,,,,,,,,,,,100323305100003
-Lmi5p4XLcmYG6voLZvy,WELES GROCERY,15,,,,,,,,,,,100394819500003
-Lmi5x8zwRKFh2ap-p6t,NAJEM AL BAHAR GROCERY,16,,,,,,,,,,,100212568800003
-Lmi6Plz4Nc_0GcLp5ls,MAITHA AL MANSOURI GROCERY,17,,,,,,,,,,,100065831800003
-Lmi6Zt7lgy5oGsE75IK,AL TUWAYIA PARK GROCERY,18,,,,,,,,,,,100200892600003
-Lmi6hO86NshVmYGEk6P,AL MABKHAR GROCERY SHOP,19,,,,,,,,,,,100357218500003
-Lmi6pbxZFNWw3CEfXbX,AL MANHAJ GROCERY,20,,,,,,,,,,,100228468300003
-Lmi7gX-wEzE4G11sMbh,ALWAN ALAIN GROCERY,21,,,,,,,,,,,100359401500003
-Lmi7sEg25qmjRigVDmm,AL NAEB GROCERY,22,,,,,,,,,,,100285726400003
-Lmi819awrsfYmvBRX_v,SANAN GROCERY,23,,,,,,,,,,,100349831600003
-Lmi93fPxh63ViVePn5N,"NOOR AL AYAM, RESTAURANT ",24,,,,,,,,,,,
-Lmi9B5DotIAAijtJhKx,AL SABEH MUAN GROCERY,25,,,,,,,,,,,
-LmiACcs3mK-NwlxByAn,NASEEM GROCERY,25,,,,,,,,,,,100223305100003
-LmjpRGmcx-iLmkiYy3n,AL ABREEZ GROCERY,26,,,,,,,,,,,100391208400003
-LmjplHjpgrkdIK4P8fy,KHYER AL SALAMAT GROCERY,27,,,,,,,,,,,100298168400003
-Lmjq9KwSd4JFI3Fs6Ij,AL SAFA NEW GROCERY,28,,,,,,,,,,,100343696900003
-LmjqLEHpVjtRk9_XLhH,BASHAER AL SALAMAT GROCERY,29,,,,,,,,,,,100368697700003
-LmjrP0B0x3ojcDvEQdG,NAEL CAMP,30,,,,,,,,,,,100071528200003
-LmjrwvWDAlzciFqmjqX,ABU AHAMAD TRADING STORE,31,,,,,,,,,,,100322143500003
-Lmjs8UqaL45pSBoJMwY,AL ASAYAN GROCERY,32,,,,,,,,,,,100209085800003
-LmjsGy_HHswj8sWYpwS,AL KHAMAIL FOODSTUFF,33,,,,,,,,,,,100320650300003
-LmjtEt-WuXAvNrqWF0R,AL SALWA RESTAURANT ,34,,,,,,,,,,,
-Lmju7D3JeKqt7dTgCAR,SALEM HELAL GROCERY,35,,,,,,,,,,,100207613900003
-LmjuG706tXsXUhqPuRR,AL NUZHA MODERN RESTAURANT,36,,,,,,,,,,,100387518200003
-LmjvYeD08rV9vChFajz,NERAN FOODSTUFF TRADING GROCERY,37,,,,,,,,,,,100280485200003
-LmjvuHmmdxOF4_gm7Dc,SULAIMAN GROCERY,38,,,,,,,,,,,100057361600003
-LmjwIRYjA1aWrHm9j3g,MAQAM OASIS,39,,,,,,,,,,,100233670700003
-LmjwSJE3MkrGVZYW-5M,ASHAREJ GROCERY,40,,,,,,,,,,,100395140500003
-LmjxfYZGc4zDuXONLyG,AL EQABIA GROCERY,42,,,,,,,,,,,100332003100003
-Lmjz2aPyxxJ1O1jcFOX,FANTASTIC GROCERY,43,,,,,,,,,,,100344838600003
-LmjzEni3FsUz5d46xAg,ZAHRAT AL FALAJ GROCERY,42,,,,,,,,,,,100396233700003
-LmjzS2j14GQAOy9E0x0,AYEDH SALEH GROCERY,45,,,,,,,,,,,100287249500003
-LmuGT84NsKbs9Z7vDcg,GOLDEN CLASSIC GROCERY,1,,,,,,,,,,,100021527500003
-LmuGWbgt2-UZlHIaEiP,AL YEWAZI FOODSTUFF GROCERY,2,,,,,,,,,,,100424761300003
-LmuGijgVqGJ-mtNT_Wk,LIMITED DISTANCE GROCERY -L.L.C ,3,,,,,,,,,,,100304948100003
-LmuGxL6i0SVVLGj494L,AHMED AL RUMAITHY GROCERY,4,,,,,,,,,,,100347323600003
-LmuHDkSIPzNbuNq2BS0,AL AMAN WASSALAMA SUPERMARKET,5,,,,,,,,,,,100316541000003
-Ln6pQGwCLNMtrLpAor1,AL ADEL RESTAURANT ,6,,,,,,,,,,,100058877000003
-Ln6p_Cz0Bmd45b1KpqL,AL NASAH GROCERY,7,,,,,,,,,,,100370179200003
-Ln6plmWOSbRztWEl1BS,TAMAM BAQALA,8,,,,,,,,,,,100604099000003
-Ln6puGoinQh7MMPA2Cc,FATH AL KHAIR RESTAURANT,9,,,,,,,,,,,100217270600003
-Ln6q2mUK_07ZoRzgM9Z,BAWABA AL KHATIM GROCERY,10,,,,,,,,,,,100360609000003
-Ln6qCAKi0eR-eVaqEiJ,AL HARAMIN LIGHT RESTAURANT ,11,,,,,,,,,,,
-Ln6qKH6P2FwYGXpTJ2x,AL QASR SUPERMARKET,12,,,,,,,,,,,100371457100003
-Ln6qU7BjtFPqNjN8hFs,FAHAD AL KHAZNA FOOD STUFF,13,,,,,,,,,,,100389096700003
-Ln6qbm4GPbaD6GjDogx,AL SUWAIFI GROCERY,14,,,,,,,,,,,100209178100003
-Ln6rDK_rB0ka4o-XeYc,AL KHAZNA NEW GROCERY,15,,,,,,,,,,,100374411500003
-Ln6rMCqsYKO0sbWTa9C,MUSAFIR BAQALA,16,,,,,,,,,,,
-Ln6sO0BQYZ6SEntIf8C,NASEEM ALKHAZNA GROCERY,17,,,,,,,,,,,100340096500003
-Ln6te8eAu7oVYl2ybY4,AL ZAMAN GROCERY,18,,,,,,,,,,,100028633400003
-Ln8BPpB3Po9bg5ojdkh,BAWABAT AL AIN GROCERY FOR FRUIT & VEGETABLE SALES,19,,,,,,,,,,,100334433800003
-Ln8BYsB1edc7wu9eh_0,ZAHRAT ABU SAMRA GROCERY,20,,,,,,,,,,,100008997700003
-Ln8Bsi8AYOSdiaSTo3A,BU HABBASH RESTAURANT,21,,,,,,,,,,,100057800300003
-Ln8CPCLokaQIsXaGB8y,ZAHRAT AL AIN GROCERY,22,,,,,,,,,,,100263085100003
-Ln8CZlX7o9TTymNYwvD,ABU ABDULLA RESTAURANT,23,,,,,,,,,,,100595895200003
-Ln8ClAC-sU_J5okQfn7,HOME ROYAL HYPERMARKET SOLE PROPRIETORSHIP LLC,24,,,,,,,,,,,100034941300003
-Ln8D0Havrt_jC0l8HfR,MOHAMMED SOKWAR RESTAURANT ,25,,,,,,,,,,,
-Ln8D8qH-sNaYAhsjoF8,DAKA RESTAURANT,26,,,,,,,,,,,100323477800003
-Ln8DKKc6BcOiLj9ypOW,SAEED SAIF AL RUMAITHI CAFETERIA,27,,,,,,,,,,,100200716700003
-Ln8DTB9QP7KYPduJbqb,AL HASAN GROCERY,28,,,,,,,,,,,100208259000003
-Ln8DeLGNbs0xaVomeAZ,SERHAN GROCERY,29,,,,,,,,,,,100374488300003
-Ln8EPyJigjyWbfmSYaU,JOHAINA GROCERY,30,,,,,,,,,,,
-Ln8PDRcBiIbm5XT5PBK,ABDULAZIZ RESTAURANT,31,,,,,,,,,,,100248963900003
-Ln8POl8AsbZKgtW8vdt,ZAKHER GROCERY - BRANCH,32,,,,,,,,,,,100361600800003
-Ln8Pf9BiYJC88NRa9oZ,AL REWAQ GROCERY,33,,,,,,,,,,,100338411000003
-Ln8PnqP7VOODqXosfqP,MUBARAK SAIF AL ARYANI GROCERY,34,,,,,,,,,,,100278730500003
-Ln8PyUQ2_rPq54Fj15s,ABU HAZAA AL KAABI GROCERY,35,,,,,,,,,,,100369111800003
-Ln8ROsuw97_BjaCgdsZ,LULUAT ZAKER GROCERY,36,,,,,,,,,,,100356513000003
-Ln8RhbEVH5Inspa48CM,LULU AL KHABISI GROCERY,37,,,,,,,,,,,100350079800003
-Ln8SFBESI4thyIcppjZ,BIN AYYA GROCERY,38,,,,,,,,,,,100329656100003
-Ln8SR5_GZQgwn1_hgE1,SALEM AL SHAMISI GROCERY,39,,,,,,,,,,,100067734200003
-Ln8SkE_3pWyz-tu-XeE,SHABAB ZAKHER STORE,40,,,,,,,,,,,100383156500003
-Ln8TygLknp_SnW5lUyc,ALTAF GROCERY,41,,,,,,,,,,,100250721600003
-Ln8_Cr_uDPsNpWxCXxN,ABU HANIFA STORES,53,,,,,,,,,,,100378192700003
-Ln8_KYPsS3u_yUUFrbo,FATIMA GROCERY,54,,,,,,,,,,,100232705200003
-LnBqTHFLt73IP3szB5l,AL BAB AL FEDHI GROCERY,42,,,,,,,,,,,100316697000003
-LnBqeN8fxdN9xz4UW2m,AL EMAN MODERN GROCERY,43,,,,,,,,,,,100424624300003
-LnBrCZP9Ak0kZLPOy8m,SAKINA GROCERY,44,,,,,,,,,,,100329067100003
-LnBrQy3skUT5ubs2xt-,NAJAM AL WAGAN GROCRY,45,,,,,,,,,,,100037941000003
-LnBs-4IF_x1pHltxRPE,ZAKHER AL KHEAR,46,,,,,,,,,,,100383754700003
-LnBs8MPrOHfvCMWI5Ts,RAFYA GROCEREY,47,,,,,,,,,,,100366705000003
-LnBsGeUJTomicAF8zzs,WHITE SAIL GROCERY,48,,,,,,,,,,,100391562400003
-LnBsQekK8rPqM3-V17i,CHITARI GROCERY,49,,,,,,,,,,,100004723100003
-LnBsccZKUJOTkA1exgW,AL BUSTAN CAFETERIA -BRANCH 1,50,,,,,,,,,,,100263200600003
-LnBslUQUisLKAl1McrP,AL AIN DANA STORES,51,,,,,,,,,,,100322357300003
-LnBsv-SqpbKlDzmdza8,UMM KULTHOOM GROCERY,52,,,,,,,,,,,100267157400003
-LnBt3ai48seoE0n40Eg,KHAIR AL AYAM GROCERY,53,,,,,,,,,,,100351011000003
-LnBtEwV-hzvVByUIZAX,SHABAB AL SUWAIFI GROCERY,54,,,,,,,,,,,100323881100003
-LnBtO80aWTGIO5aDUqo,ROSE PALACE CAFETERIA,55,,,,,,,,,,,100200527800003
-LnBtZR1Q0IxVgI_UStk,GOLDEN STARS GROCERY,56,,,,,,,,,,,100374771200003
-LnBtfzI37rmzRH5Iy-p,MOHAMMAD ABDULLA GROCERY,57,,,,,,,,,,,100212406100003
-LnBts-YeSvv0gKMiuTa,MOIDU GROCERY,58,,,,,,,,,,,100273914000003
-LnMQ2P0e0-46ZTQwNcM,OBAID MOHAMMED AL DHAHERI GROCERY,98,,,,,,,,,,,100272396100003
-LnMQBXItHrypk9fERiS,AL SHABAB GROCERY,99,,,,,,,,,,,100362488700003
-LnSQHplOwjf-2C92xyV,AL JAMHOUR GROCERY SHOP,75,,,,,,,,,,,100393213200003
-Lr4VbFXKefM_bP4wRky,DAR AL SALAM GROCERY,1,,,,,,,,,,,100055272700003
-Lr4Vm3_WMciYwTBnRJc,SARAA RESTAURANT,2,,,,,,,,,,,100061654800003
-Lr4XETowv5YarnwrlXE,AL NAJM ALLAMEA GROCERY,4,,,,,,,,,,,100257724300003
-Lr4XP_dwQRSLpg940PP,LULU SUPERMARKET,5,,,,,,,,,,,100041555200003
-Lr4Xar9GRPLIHUTifJb,MOHYIDDIN GROCERY,6,,,,,,,,,,,100373938800003
-Lr4Y2wJHF19AvHKrP3h, MILANO SUPERMARKET SOLE PROPRIETORSHIP L.L.C,7,,,,,,,,,,,100446253500003
-Lr4YFLyhVeSveu3mq1_,UDINOOR GROCERY,8,,,,,,,,,,,100504985100003
-LsgPtkdBZnacVJHOzDH,SHABAB AL JAZEERA CAFETERIA ,120,,,,,,,,,,,100064049800003
-LsgQHS-l_u1TZLhbqTW,SAIF RESTAURANT ,3,,,,,,,,,,,100460120700003
-Lubq1O_pFOw1-lChc-X,ROBUA AL MADINA BAQALA,9,,,,,,,,,,5,100269759500003
-Lubq9olRNRGmauQO7Uq,WAHAT AL SAAD BAQALA,10,,,,,,,,,,,
-LubqFgU40tQxKF2QTCT,AJBAN CAMP,11,,,,,,,,,,,
-LubqMghgwvcW7e5WFS_,GOLDEN PALAJA SUPERMARKET ,12,,,,,,,,,,,
-LubqSxpi7xsvT3FHGv6,AL AJBAN BAQALA,13,,,,,,,,,,,100208168300003
-LubqaYzsLQRxrWHu-nY,NOOR AL SALAM BAQALA,14,,,,,,,,,,,100536008400003
-LubqhBqh8KLc8r9mnkP,NOOR AL SAMHA BAQALA,15,,,,,,,,,,,100345594400003
-LubqpLKPAMULJU16PeK,ROCKET BAQALA,16,,,,,,,,,,,100341437000003
-LubqyCw-s44svov2kbL,GRAND HAMEEM BAQALA,17,,,,,,,,,,,100377864200003
-Lubr5NXo1FU488-53NV,HUZAIFA SUPERMARKET ,18,,,,,,,,,,,100363128800003
-LubrBmECBlNuCcXjpYY,AL QUDS SUPERMARKET,19,,,,,,,,,,,100394507600003
-LubrJfTfcloD-IqguSk,AL NAJAH BAQALA,20,,,,,,,,,,,100392037600003
-LubrSQe8L1aJcLPSX97,PEAR MOHAMMOD BAQALA ,22,,,,,,,,,,,100291477600003
-Lubrrb0ZbyekAm0smxZ,AL SHALAILA BAQALA ,21,,,,,,,,,,,100372520500003
-Lubs2Vy11SWuNTjDnO4,AL KHAIR BAQLA,23,,,,,,,,,,,100333083200003
-LubsD2KPg4yYdMgQ2q6,FIGES BAQALA,24,,,,,,,,,,,100374556700003
-LubsK1tCcPXIRnCcs_D,NEW CITY BAQALA,25,,,,,,,,,,,100230682500003
-LubsQpbXhUhdI3pnlnf,KOHINOOR RESTAURANT ,26,,,,,,,,,,,100580743100003
-LubsYXBYFEeVWXDWUak,AL JANAT RESTAURANT ,27,,,,,,,,,,,100223598200003
-LubseYuKu0EfN9qDK4H,SONIA CAMP,28,,,,,,,,,,,100218353900003
-LubsiVq9vhcvXRXp2jW,JIMI CAMP,29,,,,,,,,,,,
-Lubsn9KslCc1Vm1Twsi,AL FAYA CAMP,30,,,,,,,,,,,
-LubtqExMfI-S7ef-_p4,ABU GHAMRAN RESTAURANT ,3,,,,,,,,,,,100019892800003
-Luc1erOvgetNFIrvM0V,AL WADI RESTAURANT ,1,,,,,,,,,,,100334334800003
-Luc2-xJENW419fIIcUB,KENZ AL MADEENA SUPERMARKET,2,,,,,,,,,,,100333019600003
-Luc2Txz3c6aL88XB32i,GALF MADEENA SUPERMARKET ,3,,,,,,,,,,,100294165400003
-Luc2sBZ2wSBYQkDkaDU,DAHRAT AL TEEB RESTAURANT ,4,,,,,,,,,,,
-Luc3ME23ezOvg2BHLr2,AL FAYA GATE GROCERY,6,,,,,,,,,,,100324157500003
-Luc3TKfI7NVJJar-3Qf,THE WHITE RESTAURANT ,7,,,,,,,,,,,100228054100003
-Luc3hUL8SRzaovKo6jV,THE BLUE GROCERY,8,,,,,,,,,,,100552779900003
-Luc3rqtYLxAMx_hA173,AL WATABA NEW GROCERY,9,,,,,,,,,,,100006050700003
-Luc44pm3atZ2CtI8mDP,AL AJEEB GROCERY,10,,,,,,,,,,,100016251900003
-Luc4EwjqWdWbmpXcJ-Q,MEDITERANEAN GROCERY ,11,,,,,,,,,,,100248777300003
-Luc4OXfUkhjJ42K42-c,AL AHLIA MODERN GROCERY ,12,,,,,,,,,,,100067329100003
-Luc4aB6TWhsCIk_ORdl,ORIENT STAR GROCERY,13,,,,,,,,,,,100362960500003
-Luc4rQxeefDeE1R_LSS,PARAKANDY ABDUL MAJEED GROCERY,14,,,,,,,,,,,100367960000003
-Luc4zA-DHq9JsMdoOZD,GOLDEN SAN GROCERY ,15,,,,,,,,,,,100391940200003
-Luc57eCeZb474__Oq5f,AL MAHARJAN GROCERY,16,,,,,,,,,,,100368464200003
-Luc5GPhRSdBcLjx5jGo,ABU SALMA GROCERY ,17,,,,,,,,,,,100336013600003
-Luc5PFM72vRftsfMzwv,BANDAH GROCERY,18,,,,,,,,,,,100397639400003
-Luc5bh_uZQG2MjbCvxx,AL ROKAN AL MASI GROCERY ,19,,,,,,,,,,,100238200800003
-Luc5kh5euRsdX9JqYYD,JAMEE AL KHAIR GROCERY ,20,,,,,,,,,,,100348195700003
-Luc62EZ1zGSQMMa_fS8,MADRASS GROCERY ,21,,,,,,,,,,,100030633000003
-Luc6ABXfmfYZyJYhOjA,FARAJ AL MANSURI GROCERY ,22,,,,,,,,,,,100373539400003
-Luc6J7ILQ043ukBXCHp,SULAIMAN AL SHAKEILI GROCERY ,23,,,,,,,,,,,100020141600003
-Luc6YtSlXVvEPU5CQPV,AL WATHBA FLOWER GROCERY,24,,,,,,,,,,,10034771460003
-Luc6j6iUVqnHPg0xWQw,AL BANA GROCERY ,25,,,,,,,,,,,1003860945000003
-Luc71uTUEkhzzXPXTTo,AL NAHDA STAR GROCERY,26,,,,,,,,,,,100348198100003
-Luc7FyLGvq0WYW8Kj8F,SEA BLUE MOUNTAN GROCERY ,27,,,,,,,,,,,100257241800003
-Luc7JTNtNiGLZZyvAof,KADAR CAMP,28,,,,,,,,,,,
-Lul7jBj7pmJfkzmjLkL,NIGHT STAR GROCERY,101,,,,,,,,,,,100218353900003
-Lul8Wb5Cfdn6Ddu702x,SONIA CONTRACTING & RESTAURANTS MANAGEMENT,102,,,,,,,,,,,100218353900003
-Lv0T4WBYCjsYo0nHPhk,HAMZA CAMP,99,,,,,,,,,,,
-LvULJFo1WqsboXYeFKV,AL MADEENA TOUCH CATERING SERVICES (L.L.C),1,,,,,,,,,,10,100250370200003
-LvULcJyQ_wx5K3df_fx,HATABAK RESTAURANT,2,,,,,,,,,,,100383775200003
-LvUMxh9uRAeAJkwZjpc,AL JAHRA CLASSIC BAQALA,3,,,,,,,,,,,100387465400003
-LvUNOsR1kmPv-sRzyxC,SHAMIM RESTAURANT & CAFETERIA,4,,,,,,,,,,,100362279000003
-LvUNXzaDXlJ2JCpKF6P,ALJAHIZ BAQALA,5,,,,,,,,,,,100392100200003
-LvUOYcWxXVWz289Iejv,MOHAMED AL AWADI BAQALA,6,,,,,,,,,,,100325657300003
-LvUOigZdDRuwNL39XcX,MAHRA STAR BAQALA,7,,,,,,,,,,,100319865000003
-LvUP72Np8IuaZoRXT0F,AHMED DARWISH GROCERY,8,,,,,,,,,,,100327084800003
-Lv_U-EG61i4hbEa4f7f,SAHRA AL WAGAN GROCERY,121,,,,,,,,,,,100043879400003
-Lv_UDWdHpSQqT4cJaqo,AL FALA CAMP,106,,,,,,,,,,,
-Lv_UKfwGzezMjiVVHQE,SONDIP RESTAURANT ,107,,,,,,,,,,,
-Lv_URYy9ztgWA4lwy6I,GREEN CAT BAQALA,108,,,,,,,,,,,
-Lv_UVQ9nyYRRS7-Qqcj,DUBAI CAMP,109,,,,,,,,,,,
-LwNFz3FZhjGlkPVeX0A,ZENITH SUPERMARKET,9,,,,,,,,,,5,100235317300003
-LwNG9wKVBaPcZOKuujb,AL SHAMIKHA FLOWER GROCERY L.L.C,10,,,,,,,,,,,100385207400003
-LwNGW42vJZKutgJ7P-I,AL BIDAYA GROCERY,11,,,,,,,,,,,100339481200003
-LwNHZ3HMe4nCZxQ2PYN,BAQALA BIN KEDDAH L.L.C,12,,,,,,,,,,,100028512000003
-LwNI7cnLOyrdxQ7K6mO,GREEN CORNER GROCERY LLC,13,,,,,,,,,,,100037884200003
-LwNItEpj0SG3ncTeaI1,AL SHAMKHA BAQALA,14,,,,,,,,,,5,100395518200003
-LwNJX4FDEw1drlbIQ6C,NEW NASRIN BAQALA,15,,,,,,,,,,,100352253700003
-Lwx8PiyXLNHaWhqgVBZ,SAHRA AL WAGAN GROCERY,150,,,,,,,,,,,100043879400003
-Lwx8guSgdHevc9fiz7q,FOOD AND FRESH CAFETERIA ,150,,,,,,,,,,,100285302400003
-LzX1YzznapEr9uFzT6O,BAIT AL SHAY AL ASEEL,103,,,,,,,,,,,100322455500003
-M227pPEtwhUL21GuMQu,MALAQET FOODSTUFF GROCERY,200,,,,,,,,,,,100336710700003
-M2292Yzbh34LUwqmS1h,SUPER NOVA BAQALA,201,,,,,,,,,,,100520495100003
-M229ceN0YJXabgi_wMc,AL RAAIJA GROCERY,203,,,,,,,,,,,100236587000003
-M22AMP659RwoklEwnK3,AL YAHAR DIAMOND RESTAURANT,210,,,,,,,,,,,100252685100003
-M22AlNK1kFtnVH1rKrB,AL FARHA GROCERY,211,,,,,,,,,,,100205631300003
-M22B92u6LCZ2d4R8tuY,DILLI DARBAR RESTAURANT,201,,,,,,,,,,,100011555800003
-M5HWCI6E3RbaqYnfmGV,WAHAT AL DHAHER GROCERY SHOP,201,,,,,,,,,,,100301857700003
-M8kIBJpclGbzQMIyLPt,NOOR AL AWEER GROCERY,201,,,,,,,,,,,100236587000003
-M_0TsDev04QyySUOsCk,AL KHABISI OASIS GROCERY,211,,,,,,,,,,,100393675200003
-M_0U0CsKqcIglene2dW,NOOR AL JIMI GROCERY,212,,,,,,,,,,,100349962900003
-M_0U80nm3SC5h4hxnNS,AL MURAIJEB GROCERY,213,,,,,,,,,,,100333475000003
-Mg656hMHY5UzGyC3vBa,GIVE AND TAKE GROCERY ,1,,,,,,,,,,,
-Mg65EfweDuTvoFzFzIN,GIVE AND TAKE GROCERY ,1,,,,,,,,,,,NIL 
-Mg671WKnO1V6tsIn1SI,AL THYYIB GROCERY L L C ,2,,,,,,,,,,,100260229800003
-Mg6i6BFz4QeGb1CR1c8,BETTER LIFE GROCERY ,3,,,,,,,,,,,
-MgLXhYOyPZSSzMm_0lz,LAINA GROCERY ,4,,,,,,,,,,,
-MgLY2P47c_TgJLMx_jg,DAILY STAR GROCERY ,5,,,,,,,,,,,100344727100003
-MgLYTPzOxDGbK7BEavX,MOSAM GROCERY ,6,,,,,,,,,,,100359593900003
-MgLYoW6jnbQ5UpD_fd7,AL RASHAQA REFRESHMENT ,7,,,,,,,,,,,
-MgLZFX4Rb1kT5MdBThW,EAT AND GO RESTAURENT ,8,,,,,,,,,,,
-MgLZaBy9QYO4nwpgtZi,ATTENTION GROCERY ,9,,,,,,,,,,,100288492000003
-MgLZuZ1R6Kpto6Kxw60,TOP CITY GROCERY ,10,,,,,,,,,,,100542356900003
-MgL_hJZtrKS4TuvHCnL,GIVE AND TAKE 2,11,,,,,,,,,,,100607510300003
-MgLa7cLaY9xa-keajKP,SILVER LIGHT SUPERMARKET ,12,,,,,,,,,,,100607510300003
-MgLb81F8UjEVBQHyxSX,MAMOON GROCERY ,13,,,,,,,,,,,100205912700003
-MgLbQbDDwveqyjnvSR6,TOUCH POINT L L C,14,,,,,,,,,,,
-MgLbiPMQKyeBuwC04Ug,AL MARID GROCERY ,15,,,,,,,,,,,100377301500003
-MgLc0vi2bYiDIt44ku8,EAST WEST GROCERY ,16,,,,,,,,,,,100355062900003
-MgLcG0TCIlEEPZEYMKO,TASTY MORE CAFETERIA ,17,,,,,,,,,,,
-MgLcYCqV31uhqVRh2V2,PULAO AND GRILLED RESTUARANT ,18,,,,,,,,,,,
-MgLdLNRwqvKnmDUNsEQ,CITY GATE RESTUARANT ,20,,,,,,,,,,,100356671600003
-MgLdcVUPQk3eSZ70yVU,KUTTYES RESTUARANT ,21,,,,,,,,,,,
-MgLdvBGkxwTmq4LgteC,AL JALA CAFE AND REFRESHMENT ,22,,,,,,,,,,,
-MgLeF-2sXIQxIeoOqcr,AL MUQATIRA RESTUARANT,23,,,,,,,,,,,
-MgLeW9zQKULEMLVP_gw,NUMMY FEASTRESTUARANT ,24,,,,,,,,,,,
-MgLel_KmTGShjV6KR91,AL TAWAN GROCERY ,25,,,,,,,,,,,
-MgLfagvWMF4MasZJGOY,MADEENA PLACE ,26,,,,,,,,,,,100593693300003
-MgLg3yT4mkNDZ0SBR2q,VIRONA RESTUARANT ,27,,,,,,,,,,,100273292100003
-MgLlA0jJvn1s1qLmEk_,FRIEND CHEF RESTUARANT ,28,,,,,,,,,,,
-MgLlih3MT-44WXtxFx3,HAITEE CAFTERIA ,29,,,,,,,,,,,100376246300003
-MgLmMu72KXn4QVkMLtW,JAWLA GROCERY ,30,,,,,,,,,,,100372586600003
-MgLmmP6XW4dHmb5JdRI,HAPPY CAFETERIA ,31,,,,,,,,,,,
-MgLnR7J2oMgHjp-O1TU,AL ASRAR ,32,,,,,,,,,,,100342060900003
-MgM3L7SSoFpFsUi3UEi,SHOP AND RUN ,33,,,,,,,,,,,100466986500003
-MgM8GjbasPnL1jk0JbO,SHUHAILA GROCERY ,34,,,,,,,,,,,100317665600003
-MgM8V9e7o_6UbDRzd_x,MEENA STORE ,35,,,,,,,,,,,
-MgM8lhQfVLKRXZo61F0,TEA MARKET CAFE,36,,,,,,,,,,,
-MgM9-h3x_7F4u5gWe6j,HADI GROCERY,37,,,,,,,,,,,100340276300003
-MgM9Hexj81J5N0uMZ-f,SHAMS AL SHITTA ,38,,,,,,,,,,,100332689700003
-MgM9bxJ0Vh703p2gIKP,SAPEDAN GROCERY ,39,,,,,,,,,,,100007530700003
-MgM9u-Ze5J3fk78EA8Q,GRAND SECOND HOME ,40,,,,,,,,,,,
-MgMA7PKpWFqUVtRV0C9,NASEERA GROCERY ,41,,,,,,,,,,,100327922900003
-MgMAMdTsLIV_38Hg88e,THALASHERY THATTUKADA,42,,,,,,,,,,,
-MgME3NTOgCPqreBuZaJ,NEW RAMEES GROCERY ,43,,,,,,,,,,,10021970700003
-MgME_JMMqop4BnqaqYg,AWRAQ SHAY ,44,,,,,,,,,,,100338661000003
-MgMFRQgM8Hcc4z8kLE7,AHMED ZEINA AL KHOORI ,45,,,,,,,,,,,100011221700003
-MgMFmcskz6lGrjsLLiN,FAYROUZ ROASTER ,46,,,,,,,,,,,100030314700003
-MgMG4tsGGf1gBLfmHOw,GREEN LIGHT BR.1,47,,,,,,,,,,,100386896300003
-MgMGL4S6Z9Zb5wE1RWR,ABDUL AZEEZ FOOD STUFF ,48,,,,,,,,,,,100222664300003
-MgMGY50FcHXeMuW2_uq,TEA CAFE ,49,,,,,,,,,,,
-MgMGjERwztRlyJOn8w6,AL MILAD GROCERY ,50,,,,,,,,,,,
-MgMGyhEY9_k1EtJApZE,BLUE MOON GROCERY ,51,,,,,,,,,,,100359829700003
-MgMHXrTKspDLkVjJig9,AL WADIE ALAZRIQ GROCERY ,52,,,,,,,,,,,100358424800003
-MgMHzJxt_nfPB0ZyJ9b,AL NAWAZ GROCERY ,53,,,,,,,,,,,100364727600003
-MgMIJ4VW2-Risv62-Vf,WHITE GROCERY ,54,,,,,,,,,,,100382042800003
-MgMIXNfic2T17431JaH,ABC GROCERY ,55,,,,,,,,,,,100493789000003
-MgMIrQ-mxvNTRSb29WQ,AL MAHROOF GROCERY ,56,,,,,,,,,,,100216635100003
-MgMJQlwDTqHVVqXW1V8,GRAND PLUS GROCERY ,57,,,,,,,,,,,100351838600003
-MgMJfkzFQRr4UOz2qe8,EASTERN RESTUARANT ,58,,,,,,,,,,,
-MgMJqTFDtjiRkZgR09e,WINTER ROSE ,59,,,,,,,,,,,
-MgMK5kNfQE0qKtlPFB4,AL HALAL CAFETERIA ,60,,,,,,,,,,,
-MgMKRRYP79aQclIzO9D,GOLDEN GATE FOOD STUFF ,61,,,,,,,,,,,100373192200003
-MgU1tZ0PjQ8wx1T6Y8Z,SHOPEX GROCERY,94,,,,,,,,,,,100536554700003
-MgU4YD7t-yQI_25IYUM,ZAM ZAM GROCERY ,95,,,,,,,,,,,100452062100003
-MgU6TxFYKwewKqWFsQf,GINGER FRESH GROCERY ,96,,,,,,,,,,,100476003700003
-MgU6j-R5RnQH42dzKke,SUPER NOVA GROCERY ,97,,,,,,,,,,,100520495100003
-MgU7187l5BFj9CcxnEl,WORLD GROCERY ,98,,,,,,,,,,,100432471900003
-MgU7IM43NOsE42g3d7v,ABDUL SAMEE GROCERY ,99,,,,,,,,,,,100294239700003
-MgU7cPcmGHHo9E_FUqZ,ANAMLUL GROCERY ,100,,,,,,,,,,,
-MgU7pGaM4Tn_jg5Do9K,BRIGHT RESTUARANT ,101,,,,,,,,,,,
-MgU865IVklCCit-njzg,REGEL EXPRESS ,102,,,,,,,,,,,
-MgU8IFpM3fXotSFPzgM,MALABAR PALACE RESTUARANT ,103,,,,,,,,,,,
-MgUAYc0XcJB3p1aua1C,SAKHAVU RESTUARANT ,104,,,,,,,,,,,
-MgUAnh3bKhs7m9RYCG4,KARAFS GROCERY ,105,,,,,,,,,,,
-MgUB0orbrHe9NbXObke,LAHINDI GROCERY ,106,,,,,,,,,,,
-MgaOjU-N_Crkyd551pC,pirajem grocery ,107,,,,,,,,,,,
-MgaOwQUicN9WE9TyeIA,ABASEEN SUPERMARKET ,108,,,,,,,,,,,
-MgaP7ik9RL06eTsdeyN,BEITEL GROCERY ,109,,,,,,,,,,,
-MgeCm4EWfDGNDMf9XH2,WORLD WIDE GROCERY ,110,,,,,,,,,,,100508180500003
-MlArpbcS9wdihaqM-1I,Kappad Grocery,999,,,,,,al ain,,,,,100518264500003
-MqV2ewr9jaaFJDT11aY,AL KARNA BEETH BAQALA,251,,,,,,,,,,,100319092100003
-MqV2yRZGKFbKJN3g_f4,AL DAHAMEER RESTAURANT L L C,251,,,,,,,,,,,100041161900003
-MqV3JUbjYvmGfDqI2aE,SAFARI RESTAURANT,251,,,,,,,,,,,100037108600003
-MqV3VR9HhVjYlryGL_h, SERAJ DARBAR RESTAURANT,251,,,,,,,,,,,100551228800003
-MqV3zIM5aNGGAtSPGSC,BAGONG MART GROCERY,251,,,,,,,,,,,100307758100003
-MqV5UTf2yvOZdICsjBr,Al Hasaad Al Taieb Grocery,251,,,,,,,,,,,100302579600003
-MrwaSoT1dskn9HM3HyM,AL TAWASUL GROCERY,201,,,,,,,,,,,100273480200003
-MrwadN6siTXmzemf2YC,RAEESI GROCERY,201,,,,,,,,,,,100392008700003
-MrwalbXMDvwW6ztQlBb,SERAJ DARBAR RESTAURANT,202,,,,,,,,,,,100551228800003
-MrwaxgkYsczihSv-5bJ,BAQALA CHARMINAR,203,,,,,,,,,,,100558994800003
-MtTYp66vpMe6Nzg65Nr,ANOAR ALQUA GROCERY,201,,,,,,,,,,,100556463600003
-MuaZrJ7LkpK2nSwUhMa,AL SHAMKHA BAQALA,2802,,,,,,,,,,,100395518200003
-Muaaqntkl9QOA8SHbpP,AL JAHRA CLASSIC BAQALA,2801,,,,,,,,,,,100389465400003
-MuaboB8Y4KH4jfrjUZz,baqala khozam city,2803,,,,,,,,,,5,100395177700003
-MuacQt5KtCvhc4xLzR_,RED ZONE BAQALA,2804,,,,,,,,,,,100616659700003
-Muackn9oODBh-vAqB5h,AL HUBAISHY GROCERY L L C,2805,,,,,,,,,,,100385489800003
-MuadJ3FwjXQ446HNOnM,AL HABOY,2806,,,,,,,,,,,100388890400003
-MuadYXixaL_I3TZnjXR,BAQALA ZAHRAT AL FALAH,2807,,,,,,,,,,,100333277000003
-MuadwDoZREpeQmAHYzH,Baqala Madina Al Shamikha,2808,,,,,,,,,,,100323144400003
-MuaeBrDPCId7idyHAZz,aljahiz baqala,2809,,,,,,,,,,,100392100200003
-Muaeqqn_1r9zeIOUMVM,MOHAMED AL AWADI BAQALA,2810,,,,,,,,,,,100325657300003
-Muafd7gucnXOT2iqfe0,AHMED DARWISH GROCERY,2811,,,,,,,,,,,100327084800003
-MuafwpbBWrK7qIkzRWf,AL SHAMIKHA FLOWER GROCERY L.L.C,2812,,,,,,,,,,,100385207400003
-MuagQyv2Ssexjyv-uMx,MAHRA STAR BAQALA,2813,,,,,,,,,,,100319865000003
-MuahlK08iW3YPbiVw23,NEW NASRIN BAQALA BR3,2814,,,,,,,,,,,100352253700003
-Muai5oAmHcgaKHkUSRR,NEW NASRIN BAQALA BR 1,2815,,,,,,,,,,,100352253700003
-MufOb3tHydVlBLbur2n,ETHAR GROCERY,202,,,,,,,,,,,100343355200003
-MukLJFWlSPz5Dm-yJxe,STAR OF SAMHA GROCERY,2816,,,,,,,,,,,100335712400003
-MukLb2WA8WoMIFebNTI,Ain Al Shamkha Grocery LLC,2817,,,,,,,,,,,100352499600003
-MukMHEqBlIgGUyouY9N,BAQALA MOBASCH BESTO L L C,2818,,,,,,,,,,,100022686800003
-MukMghtaUoEdEllWbU3,HAPPY HOME grocery,2819,,,,,,,,,,,100316916400003
-MukMytvBV9ImjYFGriQ,AL BIDAYA GROCERY,2820,,,,,,,,,,,100339481200003
-MukNO1qfH60nBFCNlUO,BAQALA BIN KEDDAH L.L.C,2821,,,,,,,,,,,100028512000003
-MukNsQ6VHCLmDpN0nTD,Green Corner Grocery LLC,2822,,,,,,,,,,,100037884200003
-MukOJ65XrwhziSpuGn2,DOWN LIGHT,2823,,,,,,,,,,,
-MukOaJRixiMgw8kbuNQ,AL SHAWAMIKH STAR GROCERY L L C,2824,,,,,,,,,,,100247552100003
-MukOwdUUQe6aV7l_9Cd,BOU ALI GROCERY,2825,,,,,,,,,,,100399168200003
-MukRgKKAAHMva-Jimxa,Noor Al lzdihar Supermarket L.L.C.,2826,,,,,,,,,,,100360953200003
-MukRyjxM_TfH8VYy1P3,ZENITH SUPERMARKET,2827,,,,,,,,,,,100235317300003
-MukW-Zcv72diOGtkgzk,Midad Grocery,3201,,,,,,,,,,,100007526500003
-MukWI8z5SOcYOFD8gkC,baqala al mahrami,3202,,,,,,,,,,,100370445700003
-MukXWO7Y-_17Qy4kuS_,Al Ayyam Grocery,3203,,,,,,,,,,,100264623800003
-MukYs6W31D4rkOvdR5E,Fadk Grocery LLC,3204,,,,,,,,,,,100061593800003
-MukZ8dnt5l9zffpqMT1,TUWAIRISH SUPERMARKET,3205,,,,,,,,,,,100364072700003
-MukZQ0PZV81jL1uhWHw,JALALIYA BAQALA,3206,,,,,,,,,,,100326056700003
-MukZyw8D2DBAy-TMsWY,ABU YOUSUF,3207,,,,,,,,,,,100380937100003
-Muk_KYwCihnjqJIJ1-h,Moonrise Grocery,3209,,,,,,,,,,,100359565700003
-Mukb2vE7D4F_Tq0u-Cs,AL FURATH KARAK TEA,3208,,,,,,,,,,,
-MukbVtPKsEN_7L5YLsR,MO0HAMED IQBAL GROCERY,3210,,,,,,,,,,,100007847500003
-MukbooIINFD9-rnVoWS,Al Hattali Grocery,3211,,,,,,,,,,,100208772200003
-Mukc3ftRdf7SzjzvexL,BRIGHT ZAHRA,3212,,,,,,,,,,,
-MukcfKS0oEMtoRoXbOY,BAQALA TULIP,3213,,,,,,,,,,,100207214600003
-MukdgvOgzlcx5Y30UhS,AL GHAFRI GROCERY,3214,,,,,,,,,,,100345442600003
-MukdxII1dZyGR9EWG-L,BEST ONE BAQALA,3215,,,,,,,,,,,
-MukeAHkmWXqOlxS70eI,Abu Khalil Grocery,3216,,,,,,,,,,,100360129900003
-MukeV6-BtuBXT3D8DBF,AL EZDEHAR BAQALA,3217,,,,,,,,,,,100378988800003
-MukegmIDx60CUOTNXVC,AL EZDEHAR BAQALA,3218,,,,,,,,,,,100425303300003
-MukexkPJhWPd2xXjPBS,AYNAS BAQALA,3219,,,,,,,,,,,100223602200003
-MukfDlXVpoDkmASmJ1G,BAQALA STYLE PARK,3220,,,,,,,,,,,100363006600003
-MukhRFkvncaIr-fLEU_,Light Al Misbah Baqala L.L.C.,3221,,,,,,,,,,,100324997400003
-MukhcWeoQNaZUF3P71-,Fara Grocery,3222,,,,,,,,,,,100353845900003
-MukhunTmzoeYuwLRwKR,Al Thunayya Grocery,3223,,,,,,,,,,,100378163800003
-Muki57RkR0OaceWqRiX,KIRON GROCERY,3224,,,,,,,,,,,100216649200003
-MukiJ3uMIuunynSggpa,GOLDEN CITY HOUSE BAQALA,3225,,,,,,,,,,,100327800700003
-MukiV_DWSTM-qMEuifL,Adil Abdelkharim Food Stuff,3226,,,,,,,,,,,100392404800003
-Mukimw2QFct1Q_wjDz3,NAJMAT ALSHABIYA GROCERY,3227,,,,,,,,,,,100558401400003
-Mukj0m1Sk0bjixvM34T,AHSAN BAQALA,3228,,,,,,,,,,,100540589700003
-MukjFLLwd-JpAlj7VuS,AL RAMES BAQALA,3229,,,,,,,,,,,100377359300003
-MukjWdVgQTXxkpY3DSg,STAR GATE GROCERY,3230,,,,,,,,,,,100392319800003
-MukjjGMvBF5-k0TV5ql,SHAMSA GROUP FOR COMPANES & ESTABLISHMENTS MANAGEMENT,3231,,,,,,,,,,,100380937100003
-Mukk-av3q8XSdqfUTC6,BAQALA PEACE DOVE,3232,,,,,,,,,,,100008829200003
-MukkGTi4K9nhsUO8Bda,BAQALA AL QAREEB,3233,,,,,,,,,,,100254043100003
-MukkZH2fpqoDURANiBa,SILVER SUN BAQALA,3234,,,,,,,,,,,100375819800003
-Mukkm2jlIQUfWQZcG5Y,AL TAYEF SUPERMARKET LLC,3235,,,,,,,,,,,100240682300003
-Mukl1Wk1kuicgqMjLnW,DAMAA GROCERY,3236,,,,,,,,,,,100214247700003
-MukoTLrpD7gn1CBz3Nx,SAMARKAND GROCERY,4001,,,,,,,,,,,100349171700003
-Mukog39sEG1iBJ7YZ9Q,GREEN CART BAQALA,4002,,,,,,,,,,,100555657400003
-MukosP0saPQOppyCYDM,BAQALA FANTASTIC FOOD,4003,,,,,,,,,,,100326566500003
-Mukp9AyDuMg2Frpq08B,AL MUNADI GROCERY,4004,,,,,,,,,,,100060332200003
-MukpdGhOlE3juUv-YBN,Abu Suhail Baqala,4005,,,,,,,,,,,100390507000003
-MukpuG5W9IxDeqDSeBW,Badar Al Shahamah Baqala,4006,,,,,,,,,,,100352942500003
-Mukq69zxdQsnLc_fyAS,AL TANEAM MODERN GROCERY,4007,,,,,,,,,,,100338212200003
-MukqK7STWIkehONj5W9,Easy Way Supermarket L.L.C,4008,,,,,,,,,,10,100323915700003
-MukqZHk0Ns8CI4hgVam,Falaj Al Mualla Grocery,4009,,,,,,,,,,,100028635900003
-MukqkBVmJl7456sV7wR,HUAMIAD AL MANSOURY GROCERY,4010,,,,,,,,,,,100330438100003
-Mukr7n25SkNUuyg3pf2,star al hasna baqala,4011,,,,,,,,,,,100464580800003
-MukrQZ6UEfGYvHmW9Bn,ARAB LAND GROCERY LLC,4012,,,,,,,,,,,100008255000003
-MukradNqAmiW24CUBVG,Nujum Al Nadod Baqala,4013,,,,,,,,,,,100369178700003
-MukrrwzjgnpwD92uy6F,SEA HORSE FOODSTUFF CATERING LLC,4014,,,,,,,,,,,100329987000003
-Muks8J8wmL0ARoK_8ZE,GOLDEN OASIS GROCERY,4015,,,,,,,,,,,100380873800003
-MuksJ2m8z9qKpRfWuvn,Masooma baqala,4016,,,,,,,,,,,100005590300003
-MuksWf9d0DXafR5OIJ7,NAFIA GROCERY,4017,,,,,,,,,,,100385555600003
-MukskLElYPD0WHri6L7,Al Bahiya Flower Baqala,4018,,,,,,,,,,,100302830300003
-Mukt0HFtGbvdxCzAZfV,sama Al bahiya,4019,,,,,,,,,,,100004353700003
-Mukt9WONTgB_c5dqZym,bahiya sea baqala,4020,,,,,,,,,,,100244746200003
-MuktJ8tNYudBlApcj5F,old shahama baqala,4021,,,,,,,,,,,
-MuktWCAKKEmU51NPFm1,pear mohmmed,4022,,,,,,,,,,,
-MuktaNHEBH6U0R0at5S,rabye Al kazna,4023,,,,,,,,,,,
-Mupi9lF4DTHdm5NEBlM,NEW GULF,4024,,,,,,,,,,,100244746200003
-MupjNHv_aplmuv_PQ-r,old Alnudood grocery,4025,,,,,,,,,,,100345203200003
-Mupk2ejf1A09nLt3oNe,HOUSE OF TEA RESTAURANT,4026,,,,,,,,,,,100518153000003
-MuufK4jiGiAnyzWXS7F,CASH CUSTOMER,10000,,,,,,,,,,,00000000000
-MuutxeR8bjBJJ8xDzG_,gulf madina baqala,3101,,,,,,,,,,,100294165400003
-MuuuKykbnAZ8JAu_EQa,SEA BLUE MOUNTAIN BAQALA,3102,,,,,,,,,,,100257241800003
-MuuumpU6oQJ5L1Y1HGq,FIDUS BAQALA,3103,,,,,,,,,,,00000000000
-Muuv2PsMZSCgXJM7etO,AL FAYA GATE BAQALA,3104,,,,,,,,,,,100324157500003
-MuuvNGu39A9sGiE035a,AL WATHBA FLOWER GROCERY L L C,3205,,,,,,,,,,,100347714600003
-Muuvf34wFYJGNxTMDTK,BAQALAT SULAIMAN AL SHEKAILI,3106,,,,,,,,,,,100020141600003
-Muuvv5d-AoqKYOOOTov,aIbana grocery,3107,,,,,,,,,,,100386094500003
-Muuw8onZXu3_cE3FAT9,AL NAHDA STAR GROCERY,3108,,,,,,,,,,,100348198100003
-MuuwTgjvGzlCS0rGMJx,AL WATHBA NEW CROCERY L L C,3209,,,,,,,,,,,100006050700003
-MuuwkEUWcXjgQmzzuPM,BAQALA ALAHLIA MODERN L.L.C,3110,,,,,,,,,,,100067329100003
-MuuwwUXyKaKb0_TLXXH,ORIENT STAR GROCERY,3111,,,,,,,,,,,100362960500003
-Muux3xkPp95H32n8UZL,GOLDEN SEM,3112,,,,,,,,,,,00000000000
-MuuxIQSq3UByAXNTw_h,Madras Baqala,3113,,,,,,,,,,,100030633000003
-MuuxVEjn-wdXqvVCDPZ,Abu Salma Grocery,3114,,,,,,,,,,,100336013600003
-MuuxiPRo-BTEj0qoVSX,AL MAHARJAN GROCERY,3115,,,,,,,,,,,100368464200003
-Muuy2bnv41Lmawyims7,BAND HI BAQALA,3116,,,,,,,,,,,100593544800003
-MuuyFbND0_5Tv5h8SM0,AL TAIF AL THAHABI GROCERY,3117,,,,,,,,,,,100358438800003
-Mv8w-OA0NIuNFQKbgFW,DANAT ALWARQA GROCERY,2401,,,,,,,,,,,100251589600003
-Mv8wHbyvIpa-reDFUAB,AL IRFAN GROCERY,2402,,,,,,,,,,,100362744300003
-Mv8wZ67TMN87bEIBvz3,MATTAR SAIF AL JABRI RESTAURANT AND CAFETERIA,2403,,,,,,,,,,,100045047600003
-Mv8z8MrrRvvrvKWFwqz,MR TEA,2404,,,,,,,,,,,100250997200003
-Mv8zLi_q3k7ZRk0RvRY,ALWAM AL ZAHOOR,2405,,,,,,,,,,,00000000000
-Mv90IzL_Jgk_0xMRXPe,BALKEES GROCERY,2406,,,,,,,,,,,00000000000
-Mv90SxmsUIm-ol8uVUT,SABAE GROCERY,2407,,,,,,,,,,,00000000000
-Mv91ktU1ayR190Zl7Ij,Mohammed Grocery,2408,,,,,,,,,,,100374333100003
-Mv928LVNMDeum5Mh0G9,NOOHA GROCERY L.L.C,2409,,,,,,,,,,,100497915700003
-Mv92VNYI3gmf3zsTEbn,AMAR JEET SING GENARAL TRADING,2410,,,,,,,,,,,00000000000
-Mv92dokXFgA4SZMf2SM,HADEED GROCERY,2411,,,,,,,,,,,0000000000000000000
-Mv9AzFVLGo0gwJlY4EW,HSZ GROCERY L.L.C,2412,,,,,,,,,,,100427640600003
-Mv9BAaosTL10ZREZ-Qi,SYLHET FOODSTUFF TRADING L.L.C,2413,,,,,,,,,,,100436635500003
-Mv9BU4iaI4ujabBS-RF,WASIF CAFEETERIA,2414,,,,,,,,,,,00000000000
-Mv9Bslb9cU3aLuAUxXw,MASHIYATH FOOD STAF TRADING,2415,,,,,,,,,,,00000000000
-Mv9CxbdLdYlnZB8Idhd,WARSAN AL MADEENA SUPERMARKET L.L.C,2416,,,,,,,,,,,100257953800003
-Mv9Fil1PZpJ0jCiP3af,WARSAN AL MADEENA RESTAURANT,2417,,,,,,,,,,,1003312400000003
-Mv9Jmd6voVAp9u_lSUc,AL TAIF GENERAL TRADING L.L.C.,2418,,,,,,,,,,,100328370000003
-Mv9K4XTclQGpBzF0c3v,NASEEB RESTAURANT LLC,2419,,,,,,,,,,,100047028400003
-Mv9KLv-XlbaC6k0sUlO,JAZRAT AL MADEENA SUPERMARKET L.L.C,2420,,,,,,,,,,,100248189100003
-Mv9KZtWmCO-E3cpftac,NEW AL JASMI GROCERY,2421,,,,,,,,,,,100287595100003
-Mv9Kjr6aSAT2xUL5qbd,AL AFEEF GROCERY,2422,,,,,,,,,,,000000000000
-Mv9L27zNNHlweWWt4az,HALA GROCERY L.L.C,2423,,,,,,,,,,,100229164700003
-Mv9LJGdTcKLl0CE_wye,NOAREEN GROCERY L L C,2424,,,,,,,,,,,100389057900003
-Mv9LZWM1FeeW2h4qP3Z,AL ABIRA GENERAL TRADING L.L.C,2425,,,,,,,,,,,100551512500003
-Mv9LjVmNviSILX6ddDV,HASSAN JAMIL CAFETERIA,2426,,,,,,,,,,,00000000000
-Mv9Lx2lp8YYp2UhOJxs,NAWAL GROCERY,2427,,,,,,,,,,,100244642300003
-Mv9MD2q7ZRUjZctrNGR,ASAD MEHMOOD GROCERY LLC,2428,,,,,,,,,,,100512546100003
-Mv9MQ1waBjAE_Rb2CV9,MP SHAHIN SUPER MARKET,2429,,,,,,,,,,,100506239100003
-Mv9N72SzYf8Fx9xNovv,Shazra al falah grocery,2430,,,,,,,,,,,100361363300003
-Mv9NDkVyoTEjM7dDFLw,NIHALA,2431,,,,,,,,,,,00000000000
-Mv9NMiH7vyKVycJ1UT_,ALL IN ONE,2432,,,,,,,,,,,00000000000
-Mv9Njr6TPRFGwE_HeVM,MALL VIEW DARBAR,2433,,,,,,,,,,,
-Mv9Nx0k-ugJ7YMyYWcB,NEW NOORA,2434,,,,,,,,,,,10035541100003
-Mv9OHBjnYjdKhft0tG-,WAJID GROCERY,2435,,,,,,,,,,,10071704900003
-Mv9OfsrxjjNtC017x-y,Mr Mart LLC,3436,,,,,,,,,,,100549419800003
-Mv9OtAOQAW_iP6tVwQJ,PAK ZALMI RESTAURENT,2437,,,,,,,,,,,100385815400003
-Mv9S4u3S8mgoEWZfbz0,SAHRAA AL MADINA SUPERMARKET L.L.C,2438,,,,,,,,,,,100317119400003
-Mv9SIsEBxU1f1gjiQGa,JINAN AL MADINA GROCERY,2439,,,,,,,,,,,100335586200003
-Mv9Scj6l9Enk5JTqbaR,NAWAL NUJOOM GROCERY,2440,,,,,,,,,,,100381013000003
-Mv9T6yeOpYYlhPrpCy2,AL SAMHA SUPERMARKET LLC,2441,,,,,,,,,,,100520216100003
-Mv9TP0Lkz_J7QHixs0R,BABA KABASHI RESTUARENT,2442,,,,,,,,,,,
-Mv9TklTSWwLBspPIlvK,SAHMMYS GROCERY,2443,,,,,,,,,,,10039059300003
-Mv9TxdawOJLVDtNVQdX,DAK ZALMI RESTUARENT,2444,,,,,,,,,,,
-Mv9UPJ2w5yKwWn0M8j4,MALABAR RESTUARENT,2445,,,,,,,,,,,
-Mv9U_3YKtNa7U_jj_NE,MARHABA CAFETIREA,2446,,,,,,,,,,,
-Mv9UkEIqEulEcKIVKnJ,Soy To Chutney ,2447,,,,,,,,,,,100333703500003
-Mv9UuR-c2rSa4rw2asY,INDI SPICY,2448,,,,,,,,,,,
-Mv9V0RBoqEyfpxUrn9Z,AMMAS RESTUARENT,2449,,,,,,,,,,,
-Mv9V8WXcIi7GLtNMCBj,NEW NASEEB RESTUARENT,2450,,,,,,,,,,,
-MvJ7MF_5RAQYBU_b67z,AL AREESH GROCERY,3901,,,,,,,,,,,100046930200003
-MvJ7s3HwgIfDILiswzx,GOOD MINI MART L.L.C,3902,,,,,,,,,,,100331693000003
-MvJ83-cn4CVO2DI8apF,MADINA AL HIDAYA GROCERY,3903,,,,,,,,,,,100437113200003
-MvJ8FNLQNtR_8fjFV1J,RAAWI ALMADINA GROCERY L.L.C,3904,,,,,,,,,,,100534203300003
-MvJ8TrofwKBwnAPRfd3,ASWAR AL MADINA GROCERY L.L.C,3905,,,,,,,,,,,100010889200003
-MvJ8cdd_RGSbm0XZuG6,TAOOBA GROCERY,3906,,,,,,,,,,,00000000000
-MvJEXpg1y6JdRl-x9ne,AHMAD NASSER GROCERY,3907,,,,,,,,,,,100516627500003
-MvJEkHw0cFg3p_e-CsJ,Alkhat Alfakher Grocery,3908,,,,,,,,,,,100069597100003
-MvJEwBf8FCfs_dsf_dk,RIGHT CHOICE GROCERY (L.L.C),3909,,,,,,,,,,,100320042300003
-MvJFBREWBqPhIBgTAGb,LAYL AL MADEENA GROCERY,3910,,,,,,,,,,,100339982900003
-MvJFWPiKWZP0eK1MIl6,GREEN HOUSE,3911,,,,,,,,,,,10034637200003
-MvJFxqeM4xAZw6PlTxQ,MIFTAH AL WARQA GROCERY L.L.C,3912,,,,,,,,,,,100547482800003
-MvJG7hf7qZ6e1RE6XFa,ALNAYEMA GROCERY,3913,,,,,,,,,,,
-MvJGLidJe4LRSvyvMF5,SILVER LIFE MINI MART LLC,3914,,,,,,,,,,,100347173500003
-MvJGYT1isb6qx9BRrtc,C P H GENERAL TRADING L.L.C,3915,,,,,,,,,,,100045035100003
-MvJGkv8uUX4GDCNylf6,NOOR AL SATWA GROCERY,3916,,,,,,,,,,,
-MvJGsPyNbMmsJZZcX_4,WARDA HASAN GROCERY,3917,,,,,,,,,,,
-MvJH0sF9Qh-s2wfSe2O,CITY STAR GENERAL TRADING,3918,,,,,,,,,,,
-MvJHOOmGBKKWaDHQIM_,SENATOR GROCERY,3919,,,,,,,,,,,100386165000003
-MvJHbJhbwe2kyZywwWG,JAWAD ALSAEED GROCERY L.L.C,3920,,,,,,,,,,,100036831400003
-MvJHmdi-DkMjW9rRUmJ,SAAIF ALMADENA GROCERY L.L.C,3921,,,,,,,,,,,100513298800003
-MvJI6fjzeOWMj3Bzr1u,ABU HAIL SUPERMARKET L L C,3922,,,,,,,,,,,100022808800003
-MvJIl2-TXqGE-MqiCQY,FAJR AL MADEENA TRADING EST,3923,,,,,,,,,,, 100359497300003
-MvJJ4K40f08i0xTd6hj,AL TOWFA GROCERY,3924,,,,,,,,,,,100608105160003
-MvJJEHBUKsGAjS6cBX3,GHOSN AL MADINA,3925,,,,,,,,,,,
-MvJJSRl3_hDe4g_YM4a,NAZMUL HAQUE GROCERY,3926,,,,,,,,,,,100433860200003
-MvJLFMv9FpTkB_aqCGR,SHEILD GROCERY,3927,,,,,,,,,,,100389419100003
-MvJLZQxztvbzE4GH5Kz,TEEN AL MADEENA GROCERY,3928,,,,,,,,,,,
-MvJLjBDwah6II4tRMdq,SILVER CITY GROCERY,3929,,,,,,,,,,,100265996700003
-MvJMHqtZNWTcDIKmPru,KARAK ALFREEJ CAFETIRIA,3930,,,,,,,,,,,
-MvJMR6Rugz25KfTqcrv,HASSAN ABBAS ESSA GROCERY,3931,,,,,,,,,,,
-MvJMbEVyXu_B6GAxEr3,AL BATENAH GROCERY,3932,,,,,,,,,,,
-MvJMnT63Y0rKOzyoqBE,HASSAN MUHAMMED AL KHASHNI GROCERY,3933,,,,,,,,,,,
-MvJMynhzYs--b2iDR1x,BAB AL SATWA GENARAL TRADING LLC,3934,,,,,,,,,,,
-MvJN6yvJuB2t6CwgFGB,FAISAL AND FAHIM GROCERY,3935,,,,,,,,,,,
-MvJNFc35A--OGWsRv87,AL SADEQ GROCERY,3936,,,,,,,,,,,
-MvJNNdmIWA1ruXHK7r5,MIYAMI MINI MART,3937,,,,,,,,,,,
-MvJNWezLOdAnKg3B2_P,MOOSA ABDULLA AL RAISI GROCERY,3938,,,,,,,,,,,
-MvJNiYP9NZBy0_gtDLe,RAAMI AL MADEENA GROCERY BRANCH,3939,,,,,,,,,,,
-MvJOHUmP9uTwADB8t4J,NAJMAT AL SAFWA CAFETIRIA,3940,,,,,,,,,,,
-MvJOjGP0T4_OARrciJ2,BAB AL SATWA FRESH MART,3941,,,,,,,,,,,
-MvJOwURAUYpVBmN-w1g,AL TWOFA CAFETERIA,3942,,,,,,,,,,,
-MvJT6qWhnPXV0tICm-U,CASH CUSTOMER,2600,,,,,,,,,,,00000000000
-MvJTVAcXKBJMo7qBzGv,AL MADEENA SUPERMARKET,2601,,,,,,,,,,,1006117703200003
-MvJThEdyHGnJ3XPZWNk,JUHAIN RESTAURANT,2602,,,,,,,,,,,100338584400003
-MvJU-2r9UeC7oSSUevj,SEA BIRD,2603,,,,,,,,,,5,100342710900003
-MvJV0-cICHvRx0IMMAJ,CAMP,2604,,,,,,,,,,,100241148800003
-MvJVGYSh7HKslAXJfes,MAFIZUIU ISLAM,2605,,,,,,,,,,,100396415000003
-MvJVQScmNfjkqKbbtkG,NAZEEMA STORE,2606,,,,,,,,,,,100340096500003
-MvJVd3kGKCWvBm2xTUy,SHAIHILMIA,2607,,,,,,,,,,,100619647900003
-MvJVnpL0uVnDedHJHK7,AROUS AZ SAHRA,2608,,,,,,,,,,,100063221400003
-MvJW03feOyBbVUjgFYn,GREEN AL MADINA BAQALA,2609,,,,,,,,,,,103211286200003
-MvJWJXNM0F4XbC9bDe8,ZAHRAT AL AIN,2610,,,,,,,,,,5,100263605600003
-MvJWVYYErXw6TB7swMo,MORRONI REST,2611,,,,,,,,,,,10023776300003
-MvJWg_u7SvpHb-LXfVW,GREEN ROSE BA,2612,,,,,,,,,,,100065961300003
-MvJWyQH4ozcC23zdUbh,NOORUL ANGGA,2613,,,,,,,,,,10,10034083800003
-MvJX96s7NEp-EpIy6Q2,AL BORZADHI,2614,,,,,,,,,,5,100060402300003
-MvJXLthm0Al2oXtJHb1,JAOHART AL KZNHA,2615,,,,,,,,,,,1002636005600003
-MvJX_mq3tmRL-lYlPCz,QAMAR AL AIN,2616,,,,,,,,,,10,100263902700003
-MvJXnN512I0Sh5XL-ne,MOHAMMED MUBARAK,2617,,,,,,,,,,,100393409600003
-MvJaw3CkTmUPDamSdOh,AROOS AL SAHARA REST,2618,,,,,,,,,,,100278886500003
-MvJbGYDi3hbo4rbUNh6,MUSSAFAH RESTOURENT,2619,,,,,,,,,,,100254292400003
-MvJbU0xCcDFhd-FPFts,MUBARAK REST,2620,,,,,,,,,,,
-MvJbg8WvLqVkEmFDcTm,ISLAMABAD REST,2621,,,,,,,,,,,100295705600003
-MvJbmoteKV9AIX3hGce,REMAL SHAFI,2622,,,,,,,,,,,100035739000003
-MvJbtmedDxBiS9wjHo3,GALLERIA,2623,,,,,,,,,,,100319664700003
-MvJbyuggOOnM0jWqJa6,NEW SARA,2624,,,,,,,,,,,
-MvJc9T6fXilzPkL0HMi,GAT WAY,2625,,,,,,,,,,,100338021700003
-MvJcM7FSH9lSUfeLPMU,SHABAB AL WATOBA,2626,,,,,,,,,,,
-MvJcWj9hlXYYdFXjsSM,AL WATABA GARDEN,2627,,,,,,,,,,,100358648200003
-MvJh2fdXt1cNXa7rQCo,SHINE STAR,2628,,,,,,,,,,,100389961200003
-MvJhO35FXby_2iWn-Ck,SHATI AL NAKEEL,2629,,,,,,,,,,,100374758900003
-MvJhaTVWmMKO-WhgEap,FRESH KING,2630,,,,,,,,,,,100508322300003
-MvJhg8pSoyc-YERfDAe,ZANAR AK AIN,2631,,,,,,,,,,,100263902700003
-MvJhlG2qntpC2fojGqt,SANTG SUPERMARKET,2632,,,,,,,,,,,100235317300003
-MvJhw-WAiDFKUGsXYNX,ROSE GARDEN,2634,,,,,,,,,,,100292243100003
-MvJhyuw1jgrhvJPYZna,CHEESE JA CF,2635,,,,,,,,,,,
-MvJi0wJhAtqdup54Exl,RAQAM WAHID SUPER MARKET,2636,,,,,,,,,,,
-MvJi4ZZ_kPad6REBAhL,LAYAL AL SALIMAT CF,2637,,,,,,,,,,,
-MvOO1MtMzt2NEz-3vsQ,AL KOUTHER GROCERY,3601,,,,,,,,,,,100360821100003
-MvOO6P5thmpzmsIXUpY,DIAMOND PALACE GROCERY,3602,,,,,,,,,,,100215346600003
-MvOOXE1Q_T5IoXZgrv4,BAQALA NEW AFDAL,3603,,,,,,,,,,,100317528600003
-MvOObUzwAc1GtOA8ATx,ALSAMAH GROCERY L.L.C BRANCH,3604,,,,,,,,,,,100347462200003
-MvOOgywUyhGPz1kq0vx,MOHAMMED TAHER GROCERY,3605,,,,,,,,,,,100275805800003
-MvOOm_WeNPzG_rustAf,FRESH WAY BAQALA,3606,,,,,,,,,,,100541103600003
-MvOOyXqOcZvQo29Nr-s,BAQALA MOHAMMED SHAFEE,3607,,,,,,,,,,,100234413100003
-MvOP1gP0Rv9ybkDEjAa,QUESSA,3608,,,,,,,,,,,
-MvOP6JZgwbG9alK_4HN,BAQALA NJOOM AL WASEEM L.L.C,3609,,,,,,,,,,,100037596200003
-MvOPNe_PKyxA0F84rRm,SHUJAEY BAQALA,3610,,,,,,,,,,,100377282700003
-MvOPSJ0KUdWCUFry2rB,ABU MAHMOOD GROCERY,3611,,,,,,,,,,,100344894900003
-MvOPY98NzVNqJtdxPOC,DAWN LIGHT BAQALA,3612,,,,,,,,,,,100006941700003
-MvOPdXw-xSZj43vpzS3,ALI KHOORI,3613,,,,,,,,,,,100204957500003
-MvOPi7q36ski2Wf5ttM,NANA BAQALA,3614,,,,,,,,,,,100387731100003
-MvOPmdEOJ09CXIqLvwT,ALHIJAZ GORCERY,3615,,,,,,,,,,,100211093800003
-MvOPrjTG2iOGubS_E_Y,NANA BAQALA - BRANCH 2,3616,,,,,,,,,,,100374543500003
-MvOQ-jXruyTxI0FG2U9,BQALA FIVE STARS,3617,,,,,,,,,,,100343201800003
-MvOQ3tdtVg1-VWIrbqp,SAOUDA GROCERY,3618,,,,,,,,,,,100358045100003
-MvOQ8F6adHAG8PXLXYe,GREEN BOOK BAQALA,3619,,,,,,,,,,,100478962200003
-MvOQDhVEQMyrz5JGWuj,AL ANSAB GROCERY,3620,,,,,,,,,,,100340675600003
-MvOQINjYOP5wthoEqg1,ABU MAHMOOD GROCERY,3621,,,,,,,,,,,100344894900003
-MvOQMQXBAqq3xnvbcQS,GOLDEN FLOWER GROCERY,3622,,,,,,,,,,,100340931300003
-MvOQlESpqez6BCcHHbH,STAR MART BAQALA,3623,,,,,,,,,,,100386340200003
-MvOQq3okKj7CQaJS5j1,COMFORT BAQALA,3624,,,,,,,,,,,100255855700003
-MvOQv39EPOCSn8wAjHC,TWENTY FOUR,3625,,,,,,,,,,,100784589700003
-MvOR-4QHJ_mxFJQXmxQ,CLASSIC GROCERY,3626,,,,,,,,,,,100386913600003
-MvOR4rNJiZYHGVkdlE8,BAQALA MARGHAM,3627,,,,,,,,,,,100072627100003
-MvORAf-ybZPYH7c3JVY,BAQALA OZONE,3628,,,,,,,,,,,100398032100003
-MvORsWaiAyv-ujPfjHm,ABU MAHMOOD GROCERY,3629,,,,,,,,,,,100344894900003
-MvORwsr1aOyfq3QXfE_,ABU SUMAYYA BAQALA L.L.C,3630,,,,,,,,,,,100375678800003
-MvOS4J9IOv79TtS-bRc,DIAMOND CAVE BAQALA,3631,,,,,,,,,,,100233211000003
-MvOSBF3tKBVTTNKPumJ,WHITE PEARL GROCERY,3632,,,,,,,,,,,100069678900003
-MvOSHA2wihrpVwr0v6a,H S R GROCERY,3633,,,,,,,,,,,100248695700003
-MvOSKTsgCQn4bkooDIA,FAMILY CARE,3634,,,,,,,,,,,
-MvOSOvYkR3yeTAj6aKp,SILENT VALLEY GROCERY,3635,,,,,,,,,,,100381469400003
-MvOSVxGZmVrHRhYISsu,CARRY MORE,3636,,,,,,,,,,,
-MvOSaXBVHbpTmFEzOjO,MINA ALMADEENA SUPERMARKET LLC,3637,,,,,,,,,,,100037551700003
-MvOSf0pZasiacbEXhqS,BQALA FIVE STARS--BRANCH1,3638,,,,,,,,,,,100320342700003
-MvOltwA6l3QuJc2h48T,AL CARNIVAL GENERAL TRADING LLC,3237,,,,,,,,,,,100425303300003
-MvOmB4DzDQeeDSdxBw3,SIJAL BAQALA,3238,,,,,,,,,,,
-MvOmMt3UO2oCtZmA_Z4,TEA AND TALK CAFETERIA,3239,,,,,,,,,,,
-MvOmW7gaHQXvZPGOmjF,AL FAZA AL BAQALA,3240,,,,,,,,,,,
-MvOme5xGCskBo8ZU1j_,HIGH LAND CAFETERIA,3241,,,,,,,,,,,
-MvOmkFqDxVPOeNO3MwT,FOUR BAY FOUR CAFETERIA,3242,,,,,,,,,,,
-MvOmrkJ8Rhgu9z57855,SANDWITCH POINT CAFETERIA,3243,,,,,,,,,,,
-MvOn0CAOWNNnvmpEEbm,ZAID FRESH MINT CAFETERIA,3244,,,,,,,,,,,
-MvOnBBG4BHxjKh-sKHM,KADAK AL FARAT #5 BRANCH,3245,,,,,,,,,,,
-MvOnIUgoME-XYqDV5zX,FRESCO SUPERMARKET L.L.C,3246,,,,,,,,,,,100487998500003
-MvOrLG8Xu8JK0CFBZCQ,AREA BAQALA,3001,,,,,,,,,,,100532710900003
-MvOrPRNwafWkWUSr2yP,BAQALA CRESENT,3002,,,,,,,,,,,100452308800003
-MvOrUF8p_wZn-xwJU0r,AL MUNTHAKAB GROCERY,3003,,,,,,,,,,,100326173000003
-MvOrYyM0pT-6hOHNmBv,BLUE WHITE GROCERY,3004,,,,,,,,,,,100011144100003
-MvOrc843HRFCA9RWOJY,MUSSAFFA GAIO,3005,,,,,,,,,,,100050933900003
-MvOrfzCOlTpYNpBlPOX,YOUR CHOICE,3006,,,,,,,,,,,100593405200003
-MvOrjvwtquWInBm4SNq,WAFI BAQALA,3007,,,,,,,,,,,100581273800003
-MvOrobbwWYoO_9USllf,DAILY BUY BAQALA,3008,,,,,,,,,,,100563042900003
-MvOrt7RdROCW3p4bY_g,COMILLA,3009,,,,,,,,,,,100242206900003
-MvOrwfFctGekMXs8iA0,AL MUKADHAM,3010,,,,,,,,,,,100361642000003
-MvOs-RCANLKW708qe_W,STOP AND TAKE,3011,,,,,,,,,,,100243709100003
-MvOs2rjKAonHPb-Hc9C,AL HANIYORA,3012,,,,,,,,,,,10036880800003
-MvOs4jD50O4d4GxW5Dd,SANA AP MADEENA,3013,,,,,,,,,,,
-MvOs8kiGVCtxsCrMYha,AL RASFA STAR,3014,,,,,,,,,,,100371902600003
-MvOsD3kzctQGLX3ldST,FAVOURITE GROCERY,3015,,,,,,,,,,,100462059500003
-MvOsGcPO5q2cVBZAgKl,REAL LEGEND BR,3016,,,,,,,,,,,100621349800003
-MvOsKiW7OhWOxt5mvBC,PARAGON,3017,,,,,,,,,,,100218353900003
-MvOsQkeNnF-2_5f0hQi,REAL LEGEND,3018,,,,,,,,,,,100621349800003
-MvOsVOR8oPNFGcd0tGR,MOTHER LAND LLC,3019,,,,,,,,,,,100443503600003
-MvOs_9X6LaNMBDMLNOI,CITY CHOICE,3020,,,,,,,,,,,100383074000000
-MvOsdV6XNCj4cLUjTEo,EAGLE EYE,3021,,,,,,,,,,,100034510600003
-MvOshU0phAT3NdOU6as,SKAB,3022,,,,,,,,,,,100356764900003
-MvOslZQvRu2M12KsibD,GREEN VIEW,3023,,,,,,,,,,,100463121200003
-MvOspeWSQsw-kRtfjhx,FYROS AL MADEENA,3024,,,,,,,,,,,100385442700003
-MvOstg9d3fYTasbD_Um,BEST DAY,3025,,,,,,,,,,,100513411700003
-MvOsxmOGdxkjM_1s82Y,OLIVE,3026,,,,,,,,,,,100330042100003
-MvOt0r072-deMSutSSJ,NAJAM AL AHMER,3027,,,,,,,,,,,100297370700003
-MvOt5ImcZkCyXATk4q4,GOOD LIFE,3028,,,,,,,,,,,100460628900003
-MvOtDm12wmiRKSdQLUZ,FALCOM TYEB,3029,,,,,,,,,,,100369374200003
-MvOtKNJ-J6Uy7-tofEt,ROAD STAR,3030,,,,,,,,,,,100359929500003
-MvOtOc6NPRe_NmucZbc,MADINAT AL AJMAL,3031,,,,,,,,,,,100373101300003
-MvOtTVM2fqPe9IsL-bq,BAQALA AL MAHRAMI,3032,,,,,,,,,,,100370445700003
-MvOtX4OyV3ngCjunGkv,AL FARHAN BAQALA,3033,,,,,,,,,,,100622783700003
-MvOtbbzFUc0boBOtpQn,STAR BIN HYDER,3034,,,,,,,,,,,100390788600003
-MvOtfpE2Tin4NjYLMuQ,NAZIM UDDIN GROCERY,3035,,,,,,,,,,,100010213500003
-MvOtlcPztskBmKLinKT,MEA MART,3036,,,,,,,,,,,100283341400003
-MvTbgerSPI-gFbWvgOh,CASH CUSTOMER,3400,,,,,,,,,,,
-MvTbpeseXDmwVHK2dte,HOME LIGHT,3401,,,,,,,,,,,100318772900003
-MvTbzh2PDGd4D7fowTY,ABU MURSHID,3402,,,,,,,,,,,100376048300003
-MvTc3j5bukG3pJi0nzw,CITY VIEW,3403,,,,,,,,,,,100365720000003
-MvTe64EJSbCJZa3oHJ0,THREE ONE THREE,3404,,,,,,,,,,,100239222100003
-MvTeB61jTgvf2b1vslT,SIMPLY FRESH,3405,,,,,,,,,,,100519125700003
-MvTeFlibdCi9v9jRK2M,COLOURS EXPRESS,3406,,,,,,,,,,,100231426600003
-MvTeSiHgSt-nO7pGpdO,DIAMOND CROWN,3407,,,,,,,,,,,100368873400003
-MvTeVJi1DRloBIyot9F,GREEN DARBAR,3408,,,,,,,,,,,
-MvTeZShNXvXi1SCPCo1,AL BURJAL JAMEEL,3409,,,,,,,,,,,100381678000003
-MvTefZqxAYxL331_WLE,DABUA BAQALA,3410,,,,,,,,,,,100216738300003
-MvTejbnfQBh_CF0S72_,GOLDEN MISBAH,3411,,,,,,,,,,,100325019600003
-MvTem5iv8fZNmTV7K55,BUL BUL BAQALA,3412,,,,,,,,,,,100442946800003
-MvTeqzD7buA91TMC_KR,AL BANAYA,3413,,,,,,,,,,,100348393800003
-MvTf1KFXSI-zpLImEmC,BGREEN TREE,3414,,,,,,,,,,,100340048600003
-MvTf9a5m4cgljhYiHLx,BESTO MARKET,3415,,,,,,,,,,,100553908300003
-MvTfQeJdMnTwKhn-p8M,SHABWA ,3416,,,,,,,,,,,100328459100003
-MvTf_G6q_mt8D5LZO5D,ANANAS,3417,,,,,,,,,,,100047887300003
-MvTfdWrs9UO4pFQPaYb,AL HARIS BAQALA,3418,,,,,,,,,,,100381117900003
-MvTfhggiTlizX2et6p0,POWER BAQALA,3419,,,,,,,,,,,100231193200003
-MvTflD4MZkb2TixMXI1,TEA WITH ZAAFARAN,3420,,,,,,,,,,,
-MvTfolNtLZXU41XgmDh,BEAUTY LINE,3421,,,,,,,,,,,100361329400003
-MvTftVeklyNMek4P0Ev,SANAN,3422,,,,,,,,,,,100007761800003
-MvTfyU0CM37V1hIbJIE,AL DAYAAH SUPER MARKET,3423,,,,,,,,,,,100273452100003
-MvTg4cAvDT38l0zt2Qy,AL HANNA LAND,3424,,,,,,,,,,,100359437900003
-MvTg9L4F9kQNGTQH5dG,GRANITE SUPER MARKET,3425,,,,,,,,,,,100372485100003
-MvTgGNc1Uj6fWzl_Qdq,BEAUTY LINE BR,3426,,,,,,,,,,,100361329400003
-MvTgJgZTrWs0IEZzoBx,DAY MART HYPER MARKET,3427,,,,,,,,,,,100346408600003
-MvTgMZJv3cX7U6a9beJ,ZERO PLUS,3428,,,,,,,,,,,
-MvTgSsVB2PNbFfY4rpq,AL MOHASSAN,3429,,,,,,,,,,,100319948400003
-MvTgXIQq6v_9VTmui7o,AL SEBHA,3430,,,,,,,,,,,100327950000003
-MvTg_wIFTxd9HUhCQlT,NARCISSUS FLOWER,3431,,,,,,,,,,,100228660500003
-MvTge1mMuzBkI2yN1La,BLUE RUBY,3432,,,,,,,,,,,100359591300003
-MvTgiTsRSP3pmw1sY8y,ROYAL TASTE,3433,,,,,,,,,,,100362517300003
-MvTgnugi9vMLmDammw7,GOOD WILL,3434,,,,,,,,,,,100051604500003
-MvTgr0lNI_1wWACIQzt,GREEN EXPRESS,3435,,,,,,,,,,,100589528700003
-MvTgv6ziRGSnrXRvQ25,HONEY BEE,3436,,,,,,,,,,,100435347800003
-MvTh-bSTx4IvneHOweW,BAB AL RAHMA,3437,,,,,,,,,,,100251054100003
-MvTh5rcAtgad0jrYhEB,NAZEEM,3438,,,,,,,,,,,100210750400003
-MvTh8yEvt8LohVtxhvI,JABEEL AL RAHMA,3439,,,,,,,,,,,100250942800003
-MvThDJ35bwDLCg8KUIF,SKY LIGHT,3440,,,,,,,,,,,100389980200003
-MvThH9e-OPoB_GuLoOa,THE BEACH WAVES,3441,,,,,,,,,,,100344451300003
-MvThLzkNo-WO7oTSmb7,GOLD OLIVE,3442,,,,,,,,,,,100353599200003
-MvTiRDpVNfWFYz1p_4c,SPEED CITY LAND,3443,,,,,,,,,,,100499132700003
-MvTiUzyL5Va2ZIvAHMa,AL HILAL AL DHABI,3444,,,,,,,,,,,100374179800003
-MvTiZvcdZLXqyghxVMQ,CHITTAGONG GROCERY,3445,,,,,,,,,,,100372992600003
-MvTicE7jCOQujBgPreu,BESTO MARKET NEW,3446,,,,,,,,,,,100553908300003
-MvTifynIvybEv4USUjk,EVENING STAR,3447,,,,,,,,,,,
-MvTijmbhblGq_Qwb9nH,AL MASHHOOR SUPERMARKET,3448,,,,,,,,,,,100044694600003
-MvTipFDp8d3RKy6_Ti8,GOLDEN HEART,3449,,,,,,,,,,,100349723500003
-MvTiu0A3cWAE9h2EQAn,BUDGET LINE,3450,,,,,,,,,,,100567744600003
-MvTixfEST81GNcowjoe,AMAL BAQALA,3451,,,,,,,,,,,100286627300003
-MvTj0y-0oNjYIOeofhw,FUNTASTIC BAQALA,3452,,,,,,,,,,,100428549800003
-MvTj5sHVeglD2cwROz-,NASEEM 2,3453,,,,,,,,,,,100210750400003
-MvTj96soODvVl6ylBE9,NOOR AL BADIYA,3454,,,,,,,,,,,100065860700003
-MvTjBoRLg1fBDjK2dxZ,BAIT AL BHAR,3455,,,,,,,,,,,
-MvTjENhpe8m51Ualg1U,BU HASSA,3456,,,,,,,,,,,
-MvTjGfv-FsopIUPbF8c,AHMMED ABBAS,3457,,,,,,,,,,,
-MvTjJeDjvfT22BFHb_z,KARAK,3458,,,,,,,,,,,
-MvU6sHZ7pbBx3OzpnxG,SAHRA AL MADINA GENERAL TRADING L.L.C,3801,,,,,,,,,,,100025709500003
-MvU9Z3cUruIUYEPUiN4,ABDULLA KETAIT GROCERY (BRANCH),3802,,,,,,,,,,,100020610000003
-MvU9mpOR2Atm2I6m6lY,LAKE PALACE GROCERY L.L.C,3903,,,,,,,,,,,100559547300003
-MvUBIzn7_zAeckycq3p,PRIME TOWERS SUPERMARKET LLC,3804,,,,,,,,,,,100328359300003
-MvUCjDqX_qz_FIZaLfJ,OASIS TREES GROCERY ,3805,,,,,,,,,,,100370884700003
-MvbOncHyGvaqo53aYY3,OASIS TREES GROCERY LLC,3806,,,,,,,,,,,100370884700003
-MvbOt1sqjnnhSK4iOpz,TOWERS GROCERY LLC,3807,,,,,,,,,,,100374861100003
-MvbOxzZ1YBn2VJG-3yY,UNIQUE TOWER SUPERMARKET LLC,3808,,,,,,,,,,,100358984100003
-MvbPCTjsqXot6WwS1XZ,TOTAL SUPERMARKET LLC,3809,,,,,,,,,,,100463697100003
-MvbPHgaF5uEiT4cx-Qb,ROYAL CHAIN GROCERY LLC,3810,,,,,,,,,,,100217580800003
-MvbPPnoNplotylgxSpa,SKY STARS GROCERY (L.L.C),3811,,,,,,,,,,,100342252200003
-MvbPVNgMOwHUP4po-9J,AL TAMAM GROCERY L.L.C,3812,,,,,,,,,,,100337626400003
-MvbPbirlZWPyJDzZHOj,WADI AL MADEENA SUPERMARKET LLC,3813,,,,,,,,,,,100261210700003
-MvbPmiy0xkMS6IylnKt,WADI AL MADEENA SUPERMARKET LLC,3813,,,,,,,,,,,100261210700003
-MvbPn23sIWabJmEKNhe,WADI AL MADEENA SUPERMARKET LLC,3813,,,,,,,,,,,100261210700003
-MvbPrIIpvZFyBig3eL_,AL MALMAS SUPERMARKET LLC,3814,,,,,,,,,,,100532121900003
-MvbPyLYdycOCaTow598,LEMART STAR GENERAL TRADING (L.L.C),3815,,,,,,,,,,,100203482300003
-MvbQFpadseB_zGvXbJL,GREEN ROYAL CITY GENERAL TRADING L.L.C,3816,,,,,,,,,,,100551904400003
-MvbQJfZnJiVgF14l04k,RAYAL GROCERY,3817,,,,,,,,,,,100036538500003
-MvbQNf4ytldiiClOBoS,SAIF AL MADINA GROCERY,3818,,,,,,,,,,,100031227000003
-MvbQSk4oXEVlbLLMFqQ,SHAMS AL NUKHAILAT SUPERMARKET L.L.C,3819,,,,,,,,,,,100322295500003
-MvbQsC5AUFO8WKiacn5,HUSSAIN ALI QUDSI GROCERY LLC,3820,,,,,,,,,,,100344251200003
-MvbQxJGeUT7zmJe0AVw,NEW ASHKANANAY SUPERMARKET (L L C),3821,,,,,,,,,,,100024252700003
-MvbR4OwlFlQo62BtGIS,AIN MADHAB MINI MART,3822,,,,,,,,,,,100360690000003
-MvbR9e4ouWZS_yqhocv,SHAHEEN SUPER MARKET L L C,3823,,,,,,,,,,,100349780500003
-MvbRGe9S7BkICmGE3KY,ASHKANANY SUPERMARKET LLC,3824,,,,,,,,,,,100317965000003
-MvbR_bznHwfyJfC1MgD,ALI ABULLA GROCERY,3825,,,,,,,,,,,100373286200003
-MvbRdJaqFB1Tswx6I1x,MAMZAR GROCERY,3826,,,,,,,,,,,
-MvbRhDVaTBiLvcMtUhn,LEADER STAR GROCERY,3827,,,,,,,,,,,100030589400003
-MvbRkiKMGfVicJ_ckcu,AHMED MOHAMMED GROCERY,3828,,,,,,,,,,,100365572500003
-MvbRoD84rO1HhsN2Von,AL MUSHTARAK GROCERY,3829,,,,,,,,,,,100070371800003
-MvbRqbClj8SVEs2WOTm,AL PAHAR SUPERMARKET,3830,,,,,,,,,,,
-MvbRz6M0fXEYKDUAKgy,AL BATAL GROCERY L L C,3831,,,,,,,,,,,100350998900003
-MvbS3nWftpmOhdlqQkX,KHALFAN AL SHAER GROCERY,3832,,,,,,,,,,,100032633800003
-MvbhFzS2PZnlG3Uw3Zl,MADINA AL KARAMA GROCERY L L C,3501,,,,,,,,,,,100347305300003
-MvbhKpd-AquNSQ1Lyvm,BROZ SILVER GROCERY STORE L.L.C,3502,,,,,,,,,,,100596032100003
-MvbhPqUPD59GA-BjOpN,TAHANI GROCERY,3503,,,,,,,,,,,100051760500003
-MvbhS6kEb_9ijHbgmyo,MADINAT AL YAYA FOOD STF TRADING,3504,,,,,,,,,,,
-MvbhVzX2faZkrQuU7Bl,ZAAL MINI MART L.L.C,3505,,,,,,,,,,,100335942700003
-MvbhZSnJoVAasyAYUb2,MAIS AL REEM GROCERY,3506,,,,,,,,,,,100391110200003
-Mvbhc7dqZ5NZgIjV69D,SILVER LIFE MINI MART LLC,3507,,,,,,,,,,,100347173500003
-MvbhgL0aeUtOF44zqQq,HASSAN ZAMANI GERASHI GROCERY(LLC),3508,,,,,,,,,,,100247336900003
-MvbhjuGFTpK1zxRUDNX,BASSAM GROCERY,3509,,,,,,,,,,,100372141000003
-MvbhnWaaBfADyKD85DI,BAYT MADINA GROCERY (LLC),3510,,,,,,,,,,,100253552200003
-MvbhquyMg0Albvv5bmS,UMM WADHAD GROCERY,3511,,,,,,,,,,,100388669200003
-MvbhuM73DXerzORQ2n6,ZABEEL GROCERY,3512,,,,,,,,,,,100388442400003
-MvbhxpwWsT-yKXIN8Ey,MUHAMMED AL SUWAIDI GROCERY,3513,,,,,,,,,,,100023800400003
-Mvbi2oEdH40udLRZkbU,DAWAN GROCERY,3514,,,,,,,,,,,100332697000003
-Mvbi8TKlbHuV8xDYX2D,NAJMAT AL SAMAA GROCERY L.L.C,3515,,,,,,,,,,,100573406400003
-MvbiC8hwOpmM_Y63Zap,T P M GENERAL TRADING LLC,3516,,,,,,,,,,,100042409100003
-MvbiFFqXAhAvKJ0jSAa,RISHMAH GENERAL TRADINGL LLC,3517,,,,,,,,,,,100364298800003
-MvbiImIm3BrtCufMx2D,ALMAHDI GROCERY,3518,,,,,,,,,,,100322246800003
-MvbiMd-pEQh2wyc_Ob9,BAHJAT AL MADINA GROCERY L.L.C,3519,,,,,,,,,,,100618217200003
-MvbiQLnv_d2cmaFcoa_,NASSER ALMURJAN GROCERY,3520,,,,,,,,,,,100064195900003
-MvbiTVl5CpQMJyFI6TN,OBAID JAWHAR GROCERY,3521,,,,,,,,,,,100362615500003
-MvbiWoFj3ul-X3VHPl_,MANAFIS FOODSTUFF TRADING L.L.C,3522,,,,,,,,,,,100312269200003
-MvbiZzzPEQsG_hJVTkk,AL FARAZDAQ GROCERY (L.L.C),3523,,,,,,,,,,,100330122100003
-Mvbicj0dMF3bE9JoL3C,AL RAWI GROCERY,3524,,,,,,,,,,,100236006100003
-MvbifzqwNxQRq1OjPNw,SIDRA AL MADEENA GROCERY L.L.C,3525,,,,,,,,,,,100596850600003
-MvbikFFD06qy64jwuzY,ALIAA GROCERY,3526,,,,,,,,,,,100359678800003
-MvbioBtkGV4qLcfDThP,FRESH & EASY GROCERY LLC,3527,,,,,,,,,,,100393861800003
-Mvbirr-JLndJyWODOdG,AL KARAMA STORE,3528,,,,,,,,,,,100368904700003
-MvbivPgRKEFCcCHXGHS,FRESH ORANGE MINIMART LLC,3529,,,,,,,,,,,100466565700003
-Mvbiz9xxw3R1Fg_8ERP,ASAADI SUPERMARKET (L.L.C.),3530,,,,,,,,,,,100015497900003
-Mvbj1ctczLB-fftzn1g,GULF CROWN GENERAL TRADING L.L.C.,3531,,,,,,,,,,,100052250600003
-Mvbj4pmcIZfX_ASVeky,SINAM GROCERY,3532,,,,,,,,,,,
-Mvbj87ASBDMBiUTHa7A,AL SOOH GROCERY,3533,,,,,,,,,,,
-MvbjBe8HC0_4VllNKer,MOHAMMED OBAID MINI MART,3534,,,,,,,,,,,100335848600003
-MvbjE4qzkyeKmEwrkHz,SHAHAMA GROCERY,3535,,,,,,,,,,,
-MvbjGjQ16iztwaH7wWE,HORMAZ SUPER MARKET,3536,,,,,,,,,,,
-MvbjJkZxo_tXfe79H7d,SUHAIL MADEENA GROCERY,3537,,,,,,,,,,,
-MyHsALoqpLVJB8doK7V,AL ANBAR GROCEY,251,,,,,,,,,,,100370081000003
-MyHsOa-zjDmhcewBspw,SAEED AL MATROUSHI BAQALA,252,,,,,,,,,,,
-MyrfhT6qp-7SGRCkJKo,AL MABROOK TRADING,254,,,,,,,,,,,100510535600003
-Myrfqqa6GgWA8W_69Iv,KARAFS GROCERY,255,,,,,,,,,,,100437326000003
-N-XY28A0TE3WlLICYHv,BOOM FOODSTUFF TRADING,260,,,,,,,,,,,100470694900003
-N-XYJRm1gDdtPnb_b4a,BAWABAT AL AHLAM SM,261,,,,,,,,,,,100436240400003
-N-XYQsXy_Id5DyhkMtZ,SINDABAD SM,263,,,,,,,,,,,100541713200003
-N3ZizTMFrZ_3zpo853W,AL MNHAL GROCERY LLC,252,,,,,,,,,,,100337052300003
-N3ZjabuKIa4n4_zzvhR,AL AMAKEN S/M,252,,,,,,,,,,,100524647300003
-N3y4hr654pEn3iLXDZZ,SEVEN TIMES SUPERMARKET,252,,,,,,,,,,,100591896400003
-NEAV3256S1RYOBTWbIR,MATTAR SAIF AL JABRI RESTAURANT AND CAFETERIA,2,,,,,,,,,,,100045047600003
-NEAVS69X7CJmcx0cdWG,AL IRFAN GROCERY,3,,,,,,,,,,,100362744300003
-NEAVkw6dmAb99LBfpd_,MR TEA,4,,,,,,,,,,,100250997200003
-NEAWBU5Ixi8Aba7e6ue,ALWAN ALZAHOOR,4,,,,,,,,,,,
-NEB72kXCR1qhuHbNLoB,BALKEES GROCERY,7,,,,,,,,,,,
-NEB7L18btRyKtyxVTAZ,SABAE GROCERY,7,,,,,,,,,,,
-NEtdgnkRJuhRys6SwWb,AL KHIFAYA SPICE TRADING L.L.C.,11,,,,,,,,,,,100578141200003
-NF3vkGDHSm-sSxFNo8S,PARMOUNT TRADING EST.,50,,,,,,,,,,,100365709300003
-NF7w4YoWKMC-9z3FMzf,cash customer 41,1,,,,,,,,,,,
-NGajSLSzxPF2cY5ems0,HOUSE OF TEA RESTAURANT,001,,,,,,,,,,,100518153000003
-NGelWHRK1cLBg2XxlIH,MAHA AL BAWADI SUPERMARKET,1,,0564247916,,,,,,,,,100356005700003
-NGelWevLnEALHvZ2H5L,MAHA AL BAWADI SUPERMARKET,1,,0564247916,,,,,,,,,100356005700003
-NIN0bdnc1Roa3UbH0lO,WADI AL HUDA GROCERY,100,,,,,,,,,,,100566284400003
-NKclrRyjhqYh4TvO2SI,Temporary Route,1,Temporary Route,,,,,Temporary Route,,,,,
-NLFMwb0TY69Z_KZRDiq,cash customer 35,1,,,,,,,,,,,
-NLFN0hPY7UcCpmLA8Eq,cash customer 24,1,,,,,,,,,,,
-NLFN7puFIXFgIoaXvyJ,cash customer 39,12,,,,,,,,,,,
-NLFNBEOqEenTMutC95F,cash customer,1,,,,,,,,,,,
-NLFhRe3NsT5SwZwVPXZ,Golden Prince,102,,,,,,,,,,,
-NLFhWmOHgj_9EbTbEI6,Sun Rise,123,,,,,,,,,,,
-NLFhck4JqckoprBTgUA,Al Gawafa,12,,,,,,,,,,,
-NLK64sD97eEn-nuNVBe,AL AMGIR,120,,,,,,,,,,,
-NLK6GNRawRZ__wSh8gq,RAIHAN,1201,,,,,,,,,,,
-NLK6GrkugqGBK4okIX7,RAIHAN,1201,,,,,,,,,,,
-NLK6NojmuAj60lL6Drv,MEHRA,1202,,,,,,,,,,,
-NLK6Sbtak91_qL2dvzw,AL MASA,1203,,,,,,,,,,,
-NMCTp8SZwFw6b_1wUeL,AL MADINA RESTAURANT. LLC,1247,,,,,,,,,,,100360818700003
-NMCUalvjGIema3aktPp,MD. SHAHIN SUPER MARKET  L L C,1455,,,,,,,,,,,100506239100003
-NMCWBm0tn6WD9U12jZd,SAMA GROCERY  L. L. C,1456,,,,,,,,,,,100529984500003
-NMK9Y5e-0zbehJrYNdJ,Al sahla grocery,1470,,,,,,,,,,,100364917300003
-NMUYNg2dMTOOIssUujh,SKY AL NOJOOM GROCERY ,4101,,,,,,,,,,,
-NMUZaFzmLivGiPcc5om,Al Senaina Grocery,4102,,,037822183,,,,,,,,100399084100003
-NMU__Tt9BQ6urQwVZZb,Al Baraka Oasis,4103,,,037833917,,,,,,,,
-NMUaTpmAmMpBY8pr978,AL SHAABIYA GROCERY ,4105,,,,,,,,,,,100005439300003
-NMUbNPN0QOxA-ddHRVF,AL AZIZIYA,4107,,,03783394,,,,,,,,
-NMYoIRPq4OQD-vUg7IC,CAMP NEW,2637,,,,,,,,,,,
-NMj-1IVQINckbUSerAG,Jamal Al Sahraa Grocery,4108,,,037833274,,,,,,,,100061947600003
-NMj16aXOrpklAOkSIos,Al Raei Nekhaira Grocery,4109,,,03-7821973,,,,,,,,100212000200003
-NMj1nyURNudckw1xMzU,SHABAB AL DHAHER,4109,,,,,,,,,,,100058637800003
-NMj2VH1HvOIn3r7zLQe,MOHAMMED MONJO,4110,,,,,,,,,,,100354947200003
-NMj3ecsbEmzsK6bwUqs,WADI AL SHUWAIB,4111,,,,,,,,,,,100331345700003
-NMlXHGgu5YzSOWD4yvG,MOHAMED SAEED RASHID,4112,,,,,,,,,,,100354135400003
-NMlXmuUJ2hDfn8Z7wwQ,AL QAF,4113,,,,,,,,,,,
-NMtGKV4FmhGeGv695Tl,AL MANABA,4114,,,,,,,,,,,100383132600003
-NMtGb9Q22Bz7SecVBTy,JASEM MOHAMMED,4115,,,,,,,,,,,
-NMtH5_PhI5Vs8FtBtR_, Baghdad Restaurant,4116,,,,,,,,,,,100394607400003
-NMtHZ_rMe7KTrruHk-I,NOOR AL SAFA ,4117,,,037833512,,,,,,,,100043818200003
-NMtHpnMDn2NllorpixJ,NOOR AL ZAMAN,4116,,,,,,,,,,,100035863800003
-NMtJ1LZ7CqDHsOVm-UC,ZEBAIN CAMP,4118,,,,,,,,,,,
-NMtJD5hLa4IKxWaARpZ,AL MARAI CAMP,4119,,,,,,,,,,,
-NMtJVKBj7wykzL0pzzt,NEPALI CAMP,4120,,,,,,,,,,,
-NMtJgfrQV-QPhmLq372,AL FALAH CAMP,4121,,,,,,,,,,,
-NMtK89YyjNsocmlDc30,RAWABI CAMP,4123,,,,,,,,,,,
-NMtKXK7Zylh70pcbQpx,MARJAN CAMP II,4124,,,,,,,,,,,
-NMtKxcjZulX2_8lRBTo,GALAXY,4126,,,,,,,,,,,
-NMtL4NWQ4DhsRb0qFhM,MOHAMED SHAMIM,4126,,,0551577391,,,,,,,,
-NMtLBzG6aTqlqWEm9XJ,AL KHABISI CAMP,4124,,,,,,,,,,,
-NMtLHJegw-VntB60PxG,TOP SUNDWIP,4127,,,,,,,,,,,
-NN-y0aRy9s8_ETG3bn6,AL SHMOUKH,4128,,,037821980,,,,,,,,
-NN-yG5qewo3xPOaDVP6,AHLAM AL MADEENA,4129,,,,,,,,,,,100530368800003
-NN-yN3XKwPdck28V89S,NADA AL AIN,4130,,,,,,,,,,,
-NN-yV_mVSDQI66WVQCs,AL MOHIDEEN CAMP,4131,,,,,,,,,,,
-NN5kRI0qANRks50-9TO,GIFT GRO,4133,,,,,,,,,,,
-NN5kc33brag__yefTWe,AL MOHIDEEN CAMP ll,4134,,,,,,,,,,,
-NNFPnCCxN2P-6HhACIC,AL MNAIZLA SUPERMARKET,1501,,,,,,,,,,,100377148000003
-NNRcXCI-xxl7AKSYEbQ,Khalifa Saeed Al Khaili Grocery,1506,,,,,,,,,,,100328124100003
-NOEpWGgiOo8prT4tdiC,FRESH CART GROCERY,3360,,,,,,,,,,,100498485000003
-NOP_vdG4CVEtdoeI-RN,Green plaza,3037,,,,,,,,,,,100311708000003
-NOPjM7aWD59-h_8hOg9,Mohammed Grocery  Zakher Al Ain,60,,,,,,,,,,,100352320400003
-NOPkT8YytxEhob_1FPh,AL PATRICE  GROCERY,62,,,,,,,,,,,100350495600003
-NOPxfUXR2HMy19OwyVJ, BASHARA RESTAURANT,67,,,,,,,,,,,100063995300003
-NOZjCpGl2SWLi1r4cvX,cash customer 42,4201,,,,,,,,,,,
-NPSDXzLxtKlNbBooq9s,DESERT VIEW MINI MARKET,2645,,,,,,,,,,,100515803300003
-NQn9CXMMgNYU6Tmd4E9,ZAHRAT PANNER GROCERY,4202,,0563184428,,,,,,,,,104180463200003
-NQn9j39rY4lkCzSn6xn,MARWA GROCERY LLC,41203,,0502511294,,,,,,,,,100334631700003
-NQnAOk9UmeeQ8gEqWaY,NASEEM AL RUMAILA GROCERY ,4204,,037682209,,,,,,,,,
-NQnAvV7vzidgvfbhVPN,SAMA AL BATIN FOODSTUFF VEGETABLES AND FRUITS,4205,,0509608509,,,,,,,,,100397458900003
-NQnBZS521XuJ2lfBJ4k,SUPERMARKET ICE N SPICE,4106,,037678396,,,,,,,,,100264423300003
-NQnByOiyMBtoABZahJB,Al Shaded Groceruy,4207,,0558129344,,,,,,,,,100211134000003
-NQyDQ8q99z0vLdElKXt,NASEEM AL SAHARI,4134,,,,,,,,,,,
-NQyE2OWUWqTU2Dw6E8E,AL KOUK BRANCH II,4135,,,,,,,,,,,
-NQyEP-eUOjN5gd9UszX,Helal Saeed Grocery,4136,,,,,,,,,,,
-NQyEe-W1MTYITCZeyP3,AL SABANIYA,4137,,,,,,,,,,,
-NRILNhtOI4kiH03BpIl,HIGHLIGHT BAQALA,1064,,0564488133,,,,,,,,,100462409200003
-NRbuRVCN28YoBdiGxB7,AL AMAL,4210,,,,,,,,,,,
-NRbulmR81D6B-st_Avn,AL AJWA AL DHABIA,4212,,,,,,,,,,,
-NRbvMQaCYVT_F6KpWjs,Al Fayez Grocery ,4213,,,,,,,,,,,
-NRbvi9aBLV2tD-88ODP,AL AHMED KUTTY,4214,,,,,,,,,,,
-NRbvzQbmnpsGL85WHKK,TALLAB,4215,,,,,,,,,,,
-NRbw6wz8vx25JAGtrSd,BUSHARA,4216,,,,,,,,,,,
-NRbw71zEjILGFLUxTOK,BUSHARA,4216,,,,,,,,,,,
-NRbwITwkoQgRN9F0QTt,AL HURIYA,4217,,,,,,,,,,,
-NRbwTLHS4ZZwX4UmeV7,AL TAIBA,4218,,,,,,,,,,,
-NRbwhiHmXJEDwpxFAy3,NOOR AL BARAKKA,4219,,,,,,,,,,,
-NRbwq7_Z4B9LDUP3prS,CHARMINAR,4220,,,,,,,,,,,
-NRbx42gEVB8v4lizkip,INSTA MART,4221,,,,,,,,,,,
-NRbxHQfsOH705qVPDW9,NOOR AL SOHWAI,4222,,,,,,,,,,,
-NRbxQTcDq8G4jLj79c5,NOOR AL BATHEEN ,4223,,,,,,,,,,,
-NRbxa5k4pzlgwAHXlGU,AL FARHAN,4224,,,,,,,,,,,
-NRbxfZGqNzla47Jmzyn,NASEEM AL ROMAILA,4225,,,,,,,,,,,
-NRbxkACLO5Dp7UD55pE,LAYLA,4226,,,,,,,,,,,
-NRbxxXJNakKykNYzaRO,AL TAIF AL THABY,4227,,,,,,,,,,,
-NRby1UjuCb60uo39dCm,QASAR AL NAJA,4228,,,,,,,,,,,
-NT95lhILOd6_lh-JDz7,BANGLABAZAR SUPERMARKET,1039,,,,,,,,,,,100585363300003
-NW7jHLJXJXW05L1ZtVL,FENI STAR SUPER MARKET,1701,,0547114424,,,,,,,,,100457303400003
-NW7k47O4TTQGDs0rmfl,MOHAMED AHMED DRWISH ASWAD ALSHEHHI,4001,,,,,,,,,,,100208467900003
-NW7kzkKyrEN20Xugmky,TASTY SUNLIGHT,4002,,,,,,,,,,,100208467900003
-NW7l6REDAZF3d5KC4zA,DELIGHT BAQALA,4003,,,,,,,,,,,
-NW7w1duTKPbC3cLCfTZ,CALICUT DARBAR,1201,,,,,,,,,,,103131309900003
-NWC3ep0q6sNWTi9O0Da,Baqala Banyi Yas Green,4012,,,,,,,,,,,100384415400003
-NXGQZWjVYFjvUL5y2_u,WAHAT ALKHALEG RESTAURANT AND CAFETERIA,1028,,,,,,,,,,,100362279000003
-NY8Ed-Ln8QgFX-Kwou-,MARS GROCERY - SOLE PROPRIETORSHIP L.L.C,1101,,,,,,,,,,,104069752400003
-NY8tLlQQFFuSlwygI8O,Love Shore Grocery,3001,,,,,,,,,,,104077452100003
-NYri5yK8gtTdRBHtJE0,ICE N SPICE BAQALA,4209,,,,,,,,,,,104040958100003
-NYri6Rx24ON7QXcPYCI,ICE N SPICE BAQALA,4209,,,,,,,,,,,104040958100003
-NZQngcxGsGKV9pfaOa6,AL SHALAL GROCERY,1031,,,,,,,,,,,100344000300003
-NZQohsE4foAd1lFQ42B,AL KHATTAF GROCERY,1032,,,,,,,,,,,100242488300003
-NbyZBqdFIQvrP3BP5JX,AL WAHIDI RESTAURANT,1033,,,,,,,,,,,100206627000003
-NbyZWcFhXtyT8pHUDVn,TOP CHOICE,1034,,,,,,,,,,,104086956000003
-Nc2gOVd7Hct_KZYd2XY,BIDOOR AL RABYE GROCERY,1035,,,,,,,,,,,100564998100003
-Nc2geAQ9ooccir3PRv8,KOUK GROCEY Br.,1036,,,,,,,,,,,100595952100003
-Nc2gwkjskGbljY_2Hew,SALEM BIN RUBAYEA  GROCERY,1036,,,,,,,,,,,100205198300003
-Nc2m2U6rgy1DOpr64Ot,ORIENT SPICE RESTAURANT L.L.C,1037,,,,,,,,,,,100438154500003
-NcDM5n4m1KZjzwWq1ZS,JABAL ALI GROCERY,1038,,,,,,,,,,,100346628900003
-NcDMJPVldpOerfgTqmH,AL DHAHER GROCERY,1039,,,,,,,,,,,100324536000003
-NcYCO-5poWvN_YWQDWt,AL ASIMA GROCERY BRANCH,1040,,,,,,,,,,,100372160000003
-NdolCpWZCbgo10YJ5uB,OHID NOOR VEGETABLES & FRUIT ,1046,,,,,,,,,,,104043277300003
-NeCgjhowp7xBcJYRoAP,CRYSTAL CLASSIC BAQALA,1057,,,,,,,,,,,104093582500003
-NeChDlHYJk5I6oSA0nE,A V BAQALA SOLE PRO,1058,,,,,,,,,,,104111278800003
-NerzRYj8rVzu7SZt57D,NOOL AL HUDA GROCERY,1067,,,,,,,,,,,
-NerzrsCyM0alzYnwzrT,NOORUL HUDA GROCERY,1068,,,,,,,,,,,100298168400003
-Nes-0qRRT9IJVGK0zcI,FRIDAY GROCERY,1069,,,,,,,,,,,
-Nf1DJ0xQdYp3wv61mHX,ISHQ BAQALA,1089,,,,,,,,,,,103219789700003
-Nf1EDtz8aNqnx3qn3N3,THIRTY EIGHT BAQALA,1090,,,,,,,,,,,100586689000003
-Nf1ENNGIqb--1176YOU,TASTY TOWN BAQALA,1091,,,,,,,,,,,100503754200003
-Nf1Eg7mQML2dM89RiSg,AL WADA GROCERY,1092,,,,,,,,,,,100367059100003
-Nf1EscxGpd5ZCUlRNVc,SANAHA GROCERY LLC,1093,,,,,,,,,,,104119613800003
-Nf1F3QuLFuBL0n4Zalf,SALMAN AHMED BAQALA LLC,1094,,,,,,,,,,,100559296700003
-Nf1FF-AxnwFDaEnxNTc,EVERYDAY FRESH GROCERY,1095,,,,,,,,,,,104095826400003
-Nf6Dlc2_0jQUuI4uggf,TORISAM,1102,,,,,,,,,,,100274234200003
-Nf6JuZgBQ_553LJRRt_,STAR FOUR,1103,,,,,,,,,,,100274463700003
-Nf6KCxZhXjK-Wg9Hdxm,WHITE SENDS,1104,,,,,,,,,,,100384250500003
-Nf6KUclqfOJ5v3rMPO-,HOWTEEN,1105,,,,,,,,,,,100354358200003
-Nf6KdwUZjCUexgnXsxu,AL MOHID,1106,,,,,,,,,,,100026512200003
-Nf6Kpk8T6Qm9kLd3W3P,STAR MAFRAQ,1107,,,,,,,,,,,100389830900003
-Nf6L7gjzQqIxM5pVHNQ,AL KHIFAYA,1107,,,,,,,,,,,100394076200003
-Nf6LHGIoVz73bWGpb4S,GAISA,1108,,,,,,,,,,,100240885200003
-Nf6LVdgPuKtDG_kMz5D,AL JABBANA,1109,,,,,,,,,,,100495922500003
-Nf6Li8zKD7-a4j8yXFM,KHALIFA SULTHAN,1110,,,,,,,,,,,00282726000000
-Nf6LvZlL4zC9TLFLtLJ,GOLD WAX,1111,,,,,,,,,,,100381263100003
-Nf6M0ZLTexNEvyLsfhe,AL JABIR-CAMP,1112,,,,,,,,,,,
-Nf6MHLmsBKjP9E0hqsC,WHITE SENDES,1113,,,,,,,,,,,100384250500003
-NfBmG92DUyQ1-AvvX6W,BARAKAT AL AIN BAQALA,1109,,,,,,,,,,,100571923000003
-NfBmVjnguVEg-ApwxHT,SABAH AL KHAIR FOOD STUFF,1110,,,,,,,,,,,100436044000003
-NfBmkGwLYhFegSydAJG,AL MURAWAH,1111,,,,,,,,,,,100338328600003
-NfBnNeqDOG0F9LOWT6q,BAQALA VIVA,1112,,,,,,,,,,,
-NfGoWADgo3vSOamXwcK,AL IZZ,1115,,,,,,,,,,,100322568500003
-NfGoe6SK8W-QZ0M4lpQ,FINEST FOODS,1116,,,,,,,,,,,104060535200003
-NfGonSIoZ9ApTodvmnY,BAQALA MASEK,1117,,,,,,,,,,,104037067600003
-NfGovtiizsbwjpJdP6-,AL TUFA,1118,,,,,,,,,,,104096121900003
-NfkxK_fsFUV0ZhprX3z,WADI AL SHUWAIB BR,1120,,,,,,,,,,,100331345700003
-Ng9OrBtvo7NJVECQuvK,WHITE CORNER CAFTEERIA,1122,,,,,,,,,,,10407053700003
-Ng9OzXcS3iSQQ_EgwgZ,TAIBA RESTAURANT,1123,,,,,,,,,,,
-Ng9P9_z2c8YYojzZAN9,HARAK RESTUAURANT,1124,,,,,,,,,,,100351529100003
-Ng9PGiBKu13Mh0PdMDp,AL TAJ AL FIDHI,1125,,,,,,,,,,,100031179300003
-Ng9PM9mXPLCdKtetaHt,ROYAL HOUSE BAQALA,1126,,,,,,,,,,,
-Ng9PT52maRZvzfaQjdQ,HOLD ON BAQALA,1126,,,,,,,,,,,
-Ng9PaccyEpkLOZJQtdj,EAT WELL RESTAURANT,1127,,,,,,,,,,,
-Ng9Pif_fUiWQFlwrWiN,AL MOSHUQ BAQALA,1128,,,,,,,,,,,
-Ng9PpexZO44YJUrBKGC,OFF SIDE BAQALA,1128,,,,,,,,,,,104107042400003
-Ng9Py5HnPZn40juZ65D,MUJIB AL RAHMAN RESTAURANT,1129,,,,,,,,,,,
-Ng9Q2R00w3nEolYTu29,AL BAWABA BAQALA,1130,,,,,,,,,,,
-Ng9QA18eGqoWPeR6XiL,HUT QATARA RESTAURANT,1131,,,,,,,,,,,
-Ng9QgVPdgRnO2ekQPMm,FAWALA AL QATARA,1132,,,,,,,,,,,
-Ng9SNdiVQY0o34QsrmT,BADAR AL BUDOR TRD,1133,,,,,,,,,,,100227747100003
-Ng9SftbOPw6LJIVHQzS,AL TAWASUL BAQALA,1134,,,,,,,,,,,
-Ng9SpJXRuTFZijp6_Vi,AL HOZOUR BAQALA,1135,,,,,,,,,,,10036953580003
-Ng9Su58N-rp1ZuPLdDf,REGULAR BAQALA,1135,,,,,,,,,,,104114450000003
-Ng9T22lwe73SRsKhOfM,DISCOVER BAQALA,1136,,,,,,,,,,,
-NgKFDquogCyLw35Q9eX,BRIGHT RESTUARANT,1136,,,,,,,,,,,104127500700003
-NiQAhrQZIKnwPEiGyEv,Jaaziya Baqala,1135,,,,,,,,,,,100240885200003
-NiQAmNOiIR9_rUHoqCr,Anas hotel,1136,,,,,,,,,,,
-NiQArT_XZO1dPyzy8XQ,wonder full,1137,,,,,,,,,,,
-NiQAwTI_0a2mCJHuJio,Ashfaq,138,,,,,,,,,,,
-NiQB0pwLeWokPlHW354,UG CATERING,1139,,,,,,,,,,,
-NiQB8-hrKrltcpiAXst,GOLD WAYS,1140,,,,,,,,,,,100381263100003
-NjD0PV-LZsdMWrvwf_0,UG unaited asab,4301,,,,,,,,,,,100493433500003
-NjkbMQvNCNlo8fNjn0y,MUSLIN BAQALA L.L.C.,1006,,,,,,,,,,,104144571700003
-NjptTpcI2HSg26EtzAo,LITTLE PARIS BAQALA - SOLE PROPRIETORSHIP L.L.C.,1034,,,,,,,,,,,104156466500003
-NjrVkI-Ql73OIPM-IB0,GEMS GROCERY - SOLE PROPRIETORSHIP L.L.C.,1034,,,,,,,,,,,104120491600003
-NkAupJukSDKEfu-DXc1,SEEH BIN AMMAR GROCERY,1601,,,,,,,,,,,100399133600003
-NkGcyHuabi5FAxJ9jFP,PREMIUM SUPER MARKET,1652,,,,,,,,,,,104100454800003
-NkVb3dMKEW9OOEVZUj8,BAQALA AL ERTIQA,1131,,,,,,,,,,,100315138600003
-NkVdRUGbFkE8fg1o_cf,KHOKH  WARUMAN RESTURANT,102,,,,,,,,,,,
-NkevnjGVdBPOEE3U0rP,ABDULSALAM RESTAURANT,131,,,,,,,,,,,100202178800003
-Nkew96CpOWThXCFOq6_,ALAHLIA ROASTERY - SOLE ,31,,,,,,,,,,,104145662300003
-NkewVooQdBWUsHrM4Yu,AL FAYA BAQALA,310,,,,,,,,,,,
-Nkf-APrVwiXt5BLLrCl,FIDUZ BAQALA,31,,,,,,,,,,,
-NlTyMrTJHW1R8oZ6FjQ,FARHA MADEENA FOOD STUFF CATERING,1136,,,,,,,,,,,100447283100003
-NlgSU9_aFbtwL804rY8,ABU JASSIM BAQALA,1336,,,,,,,,,,,100318584800003
-NmKcBhxd52sRZGw1NRq,EASY WAY SUPER MARKET LLC,1966,,,,,,,,,,,1003239150000
-Nmg7b9x9HUUD01LvlIa,SWABI MINI MART,122,,,,,,,,,,,
-Nmg7krmuLpNEJAwg9lU,TEA MASTER CAFETERIA,455,,,,,,,,,,,100595008200003
-Nmg7pgwzvZ70KJg54tS,AL WANI GROCERY,189,,,,,,,,,,,
-NnPPpsZAmYCHa61oai1,COZY CORNER RESTAURANT,968,,,,,,,,,,,
-NnwEh-w84Dvg99SjJfU,ZAHARAT PANNER GROCERY,228,,,,,,,,,,,104150463200003
-NnxUG4UKZqnMtN2Ao-v,GOLDEN CLASSIC GROCERY ,9688,,,,,,,,,,,104176841500003
-NnxUioZY3hmDHWITI0y,HAMAD AL RUMAITHI BAQALA,1000,,,,,,,,,,,100485633000003
-NnyS6wpqqTRbty7-0x-,CLEOTATRA BAQALA,1009,,,,,,,,,,,
-No8Lm1R55pG1POvKuZA,AL MUNADI GROCERY,485,,,,,,,,,,,103062602000003
-No8LwQv9LxXrPn4IebI,DELIGHT,859,,,,,,,,,,,100208467900003
-No8M6FLVHJ-dujj1ilm,FRESH SALAD FOOD STUFF,998,,,,,,,,,,,104035266600003
-NpPuKfU5dAtUcsUEzPV,AL EBDA GROCERY,9986,,,,,,,,,,,100383407200003
-NpsQsRlqFkb-399x2jQ,TELAL BARKA,859,,,,,,,,,,,10053037600003
-NpsR025V5OR_2FVamUi,AL SUHAIL,999,,,,,,,,,,,100321729400003
-NpsRCqpMG-o4lnOktaE,AL QALA AL SHAMIYA,1000,,,,,,,,,,,10011330600003
-NpsRL2nKaeH8OmRMcQw,AL QALA AL SHAMIYA 2,10001,,,,,,,,,,,100061076400003
-NpsRVqUF_QoDfywcFZn,AL MAWEDHA,10002,,,,,,,,,,,100396826800003
-NqmVEyIpt6F61kqv6wd,UG UNITED GROUP HOLDING SOLE PROPRITORSHIP L L C,43,,,,,,,,,,,100493433500003
